occupation	latitude	longitude	zipcode
CVS	A	40.984233	-73.777635
Rosen_Robert_C_Dr	A	40.972638	-73.794658
Magno's_Grill	B	40.906871	-73.783264
Larchmont_Orthodontic_Group	A	40.933201	-73.758398
Lala's_Grill	B	40.907117	-73.784652
Bad_Axe_Throwing	B	40.911413	-73.779197
Jungle_Gym_Martial_Arts_New_Rochelle	B	40.925782	-73.788933
AT&T	C	40.99518	-73.819832
Kubersky_Steven_M_MD	A	41.005315	-73.81248
Pearle_Vision	A	40.974539	-73.80394
Super_Mercado_Mexico_Incorporated	C	40.909897	-73.788933
Tedesco_Auto_Body	D	40.91255	-73.775041
Pookie_and_Sebastian	C	40.989358	-73.807762
Tri_State_Archers	B	40.909767	-73.805882
Jos._A._Bank_Clothiers	C	40.970637	-73.80707
El_Sabor	C	40.911478	-73.777842
Russell_Cellular	C	40.946817	-73.79433
Midway_Shopping_Center	C	40.991177	-73.822727
State_Farm	C	41.00216	-73.813715
Fialk_Mark_A_MD	A	40.986364	-73.775637
Stephenson_Park	B	40.918642	-73.773797
Red_Mango	B	40.932072	-73.759315
Hertz	C	40.889881	-73.818065
Fordham_Wigs_Of_Westchester	A	40.911792	-73.782359
The_Alcott_School	A	40.991163	-73.802991
Westcop_Childrens_Center_For_Learning	A	40.917344	-73.790089
Neptune_Park	B	40.891214	-73.782272
Metro_Pizza_&_Pasta	B	40.914565	-73.784396
Pelham_Picture_House	A	40.907382	-73.811661
Safavieh_Home_Furnishings	C	40.898762	-73.794887
Dr_Elisa_Kavanagh_Podiatric_Medicine_Foot_Surgery	A	40.969977	-73.805379
Indique_Hair	B	40.91346	-73.808778
Camp_Hillard_Westchester_Summer_Day_Camp	B	41.012533	-73.811855
Verizon_Wireless_Your_Wireless	C	40.915354	-73.807444
Balducci's_Food_Lover's_Market	C	40.985183	-73.774923
United_States_Postal_Service_(USPS)	C	40.946659	-73.794558
D'Avanti_Hair_&_Beauty_Salon	B	40.978537	-73.807752
Jiraporn's_Salon	B	40.930589	-73.762183
Bella_Glo_Beauty_Spa	B	40.921269	-73.788062
Villa_Maria_Pizza	B	40.929518	-73.751319
Eric_Spellman_DMD	A	40.934586	-73.762093
210_Spa	B	40.908415	-73.781848
B_&_B's_5th_Ave_Pub	B	40.919713	-73.805179
London_Luxury_Beds	C	40.911464	-73.782968
B_&_A_Spa	B	40.914599	-73.772743
A_Game_Sports	B	40.900197	-73.793981
A_B_C_Tutors	A	40.910387	-73.783565
Storage_Pros	C	40.919112	-73.788575
Magen_David_Sephardic_Congregation	A	40.972707	-73.774965
Goodwill_Industries	C	40.916725	-73.778783
Glickman_Henry_PHD	A	40.982812	-73.788786
United_Dental_Care_PC_DDS	A	40.970367	-73.804795
Fabulous_Find	C	40.990049	-73.806332
Walter_Edwards_DDS	A	40.917714	-73.787587
Pick_A_Polish	B	40.913592	-73.808781
PurePoint_Financial	C	40.994233	-73.819331
Weiss_Raymond_B_DMD	A	40.995386	-73.818011
CITGO	C	40.896378	-73.804285
Grab_Ly's_Banh_Mi	B	40.987264	-73.809807
Eye_Do_Hair_and_Makeup	B	40.915295	-73.804008
Dental_Implants_Dynamics_&_Smile_Experts	A	40.987815	-73.825158
Shelov_Steven_MD	A	41.00901	-73.789902
North_Ridge_Shopping_Center	C	40.948542	-73.792471
Larchmont_Mini_Mart	C	40.929628	-73.751597
The_Lombardi	C	40.915172	-73.784509
Pelham_Family_Dental_Arts	A	40.910169	-73.810559
Spotless_Gutter_Cleaning_&_Repair	A	40.906181	-73.777143
Coriander_Modern_Indian	B	40.928582	-73.753099
Ultimate_Image	B	40.987798	-73.809758
Dine_and_Sail	C	40.908128	-73.772222
The_Sadkhin_Complex_of_New_Rochelle	B	40.945752	-73.795187
Pizzeria_La_Rosa	B	40.901858	-73.790894
Ottavio's_Studio	C	40.904002	-73.788794
Futterman_Carol	A	40.935338	-73.755881
Colangelo_Group	C	40.920177	-73.776308
Residence_Inn_by_Marriott	B	40.911638	-73.780651
Beast_Seasonings	A	40.904347	-73.8065
Ramsey_Farm	C	40.98926	-73.765884
Montefiore_Medical_Center	A	40.988062	-73.824944
Adam_Raff_MD_Psychiatric_Solutions	A	40.988957	-73.806457
St_John_&_Paul_Church	A	40.941269	-73.756003
Aspen_Healing_Ctr	A	40.961462	-73.778882
Blais_Orthodontics	A	40.988333	-73.807092
Union_Ave_Liquor	C	40.909116	-73.794851
1019_Central_Park_Avenue	C	40.98899	-73.82439
Hitchcock_Church_Weekday_School	A	41.010911	-73.793109
Lefkowits_Henry_J_MD	A	40.982118	-73.811964
Madelyn_Jordon_Fine_Art	C	40.988836	-73.807505
Starbucks	B	40.969551	-73.806426
Cipriani_Ralph_J_MD	A	40.986369	-73.775606
The_Public_House	B	40.9135	-73.808848
Autobahn_Motors	D	40.888443	-73.78937
Sotheby’s_International_Realty	C	40.906724	-73.811552
Maria	B	40.914318	-73.773774
Sunoco	C	40.977363	-73.80557
Zoovia_Hamiduddin	A	40.913402	-73.786207
Julius_Ozick_DDS	A	40.897397	-73.782154
The_Pre_School_Learning_Center	A	40.927256	-73.794041
Inga_Modu_Rella_KW_Realty_Group	C	40.97361	-73.80325
SRW_&_Associates	C	40.91493	-73.772621
Centre_Stage	C	40.918827	-73.805356
Pelham_Cafe	B	40.913196	-73.808461
Dunkin'	B	40.902327	-73.791284
Webster_Bank	C	40.938112	-73.74512
Pelham_Country_Club	B	40.894123	-73.797041
Pediatric_Associate_Of_So_West	A	40.913629	-73.779303
Mazel_Tot	A	40.996511	-73.803726
Scarsdale_Dental_Spa_&_Wellness	A	40.970846	-73.804698
ENT_and_Allergy_Associates	A	40.91355	-73.779519
AZ_Sewers_&amp_Drain_Services	C	40.923103	-73.788024
CVS	A	40.913317	-73.775383
Julie_Kupersmith_MD	A	40.948398	-73.792434
The_Digital_Arts_Experience	A	41.010956	-73.807991
Salon_Elle	B	40.92925	-73.763738
Retina_Associates	A	40.909338	-73.781956
Palmer_Nails	B	40.931344	-73.760547
Tranquility_Spa	B	40.993249	-73.822207
Lincoln_Avenue_Service_Station	D	40.915775	-73.810067
Seven_Woks	B	40.985185	-73.777269
Children's_Creative_Corner	C	40.929458	-73.752383
Aiello_Park	B	40.902573	-73.773714
Yuen_Jeannette_MD	A	40.986376	-73.775595
Feeney_Park	B	40.911255	-73.799892
CVS	A	40.937007	-73.747363
Jeffrey_H_Jablon_MD_FACS	A	40.913616	-73.77943
Addison_Street_Spa	B	40.9293	-73.752318
Scarsdale_Ford_Service	D	40.993666	-73.820869
Fuji_Mart_Scarsdale	C	40.975926	-73.802542
Chinatown_Restaurant	B	40.918038	-73.786378
Acds_Westchester	A	40.981055	-73.816981
Great_Day_Family_Child_Care	A	40.927561	-73.7933
CITGO	C	40.919648	-73.788757
Gabriel_Bundschuh_&_Associates_Inc	C	40.970658	-73.806169
Fenway_Golf_Club	B	40.998226	-73.765697
Amy_Nail	B	40.920106	-73.805179
Larchmont's_Down_to_Earth_Farmers_Market	C	40.934292	-73.763296
Neschis_Ronald	A	40.920788	-73.74941
Westchester's_Finest_Barber_Shop	B	40.91085	-73.81016
United_States_Postal_Service_(USPS)	C	40.989911	-73.806348
Alef_Bet_Preschool	A	40.943968	-73.795506
Pelham_Family_Dental	A	40.893389	-73.784631
Donald_Bernstein_DDS_Scarsdale_Dental_Associates	A	40.969428	-73.80623
New_Generation_Electronics	D	40.921217	-73.788466
MERCEDES_BENZ_OF_NEW_ROCHELLE	C	40.918863	-73.767745
Corell_Park	B	40.993424	-73.757557
Ruby_Red	B	40.923647	-73.78792
Cherry_Lawn_Farm_Market	C	40.958957	-73.772944
Blessed_Sacrament_St_Gabriel_High_School	A	40.905992	-73.783337
The_Rail_House_10803	B	40.910941	-73.810431
Igor_Gracie_Jiu_Jitsu_Academy	B	40.916513	-73.769879
Sound_Movement	B	40.931467	-73.760821
BP	C	41.001112	-73.814222
Patricia_Moccia_William_Raveis_Real_Estate	C	40.984931	-73.775001
Brothers_of_Holy_Cross	A	40.933198	-73.780875
Soul_Healing	A	40.974313	-73.80306
Standing_Room_Only	B	40.9815	-73.776547
Alarming_Sounds	D	40.917516	-73.806836
New_Rochelle_Toll_Booth	A	40.914176	-73.783147
BP	C	40.890835	-73.817459
Scarsdale_Pizza_Station	B	40.986393	-73.808734
KeyBank	C	40.910762	-73.780576
Rainbow_Body_Works	D	40.908605	-73.782347
Wykagyl_Country_Club	B	40.947332	-73.78761
Heritage_Auto_School	C	40.911172	-73.780961
M&T_Bank	C	40.930822	-73.750332
Five_Guys	B	40.893925	-73.82012
Yeomiji	B	40.990035	-73.807466
John's_Ravioli	C	40.90233	-73.789629
Grace_Lutheran_Church	A	40.983531	-73.807117
New_Rochelle_Deli	B	40.909396	-73.780569
Marenco_Insurance_Agency	C	40.907719	-73.780752
PetSmart	C	40.974287	-73.803965
Kyle_Lipton_MD_FACOG_FACS	A	40.913494	-73.786096
Suez_Water	A	40.920843	-73.775581
Calagna_Lawrence_DDS	A	40.988496	-73.808062
Alvin_&_Friends	B	40.908828	-73.782625
J_F_Relax	B	40.906941	-73.78486
CrossFit	B	40.919464	-73.787854
CVS	A	40.910194	-73.781438
A_N_C_Veterinary_Center	A	40.914455	-73.782071
East_Avenue_Cafe	B	40.931967	-73.760079
UNL_Solutions	C	40.913914	-73.777808
Derek_A_Lewis_DDS	A	40.91332	-73.78944
Theresa_Clean_&amp_Tidy	D	40.910499	-73.783773
Marina_Di_Calabria	B	40.893723	-73.782103
BGES_Group	C	40.941197	-73.748146
Pamela_Jakubowicz_MD	A	41.005316	-73.812492
Pelham_Memorial_High_School	A	40.90334	-73.811581
Dunkin'	B	40.989064	-73.808809
Pediatric_Endocrinology_of_NY	A	41.005345	-73.812501
Integrity_Sales	C	40.909489	-73.781149
ABTsolute_Training_Systems	B	40.928196	-73.771788
Encore_Bistro_Francais	B	40.92975	-73.751918
Golden_New_York_Bagels	B	40.922724	-73.788339
New_Rochelle_Express_Service	D	40.913866	-73.775331
DeCicco_and_Sons	B	40.928605	-73.764999
Peony_Nail_&_Day_Spa	B	40.987801	-73.80829
Fratelli_Pizza	B	40.914367	-73.77366
Sandwich_King	B	40.898674	-73.777799
Dentserv_Management_Service	A	40.894492	-73.820851
Pelham_Palace	B	40.906361	-73.811862
Westchester_Child_Therapy	A	40.988306	-73.806684
Dominique's_Daycare	A	40.900525	-73.769825
Greenville_Shopping_Center	C	40.995309	-73.819713
Amore_Pizza	B	40.980757	-73.776529
A_No_1_Pizza	B	40.923144	-73.788002
SiteOne_Landscape_Supply	C	40.932423	-73.764378
V_P_Designs	C	40.904889	-73.786924
Mini's_Latin_Fusion	B	40.914868	-73.772444
Martin_P_Goldman_MD	A	40.925686	-73.804638
Howard_Baskin_DMD	A	40.912777	-73.809152
Your_Wireless	C	40.979593	-73.801576
Drake_Family_Dental_Care	A	40.89946	-73.787032
HomeGoods	C	40.995052	-73.820028
Wells_Fargo	C	40.989188	-73.806472
Galloway's_Bakery	E	40.980089	-73.809854
Anshe_Sholom_Synagogue	A	40.905263	-73.776998
Silkie's_Saloon	B	40.909824	-73.779782
Park_Avenue_Barbers	B	41.028137	-73.791185
Uniquepos	C	40.920158	-73.764728
Montessorischool_Of_New_Rochelle_In_Pelham_Inc	A	40.886952	-73.791788
Scarsdale_Animal_Hospital	A	40.972908	-73.804553
EGA_Medical	B	40.93371	-73.758452
Patio_com	C	41.001622	-73.813912
Ameri_Restoration	D	41.002313	-73.836386
SLICE_of_Scarsdale	B	40.987298	-73.809789
Jefferson_Elementary_School	A	40.897186	-73.790419
CubeSmart	C	40.919114	-73.788573
Tzatziki_Greek_Grill	B	40.914441	-73.773306
Winetasters_of_Larchmont	C	40.932316	-73.758035
Sneaker_Lounge	C	40.979568	-73.801572
Sakura	B	40.912834	-73.808674
Primerica	A	40.908433	-73.783218
The_808_Bistro	B	40.984401	-73.809281
Active_Physical_Therapy	A	40.929067	-73.764614
Empire_Wok	B	40.905251	-73.774751
Smallcakes	E	40.997177	-73.817666
BCBG	C	40.971972	-73.803835
The_Snackery_Bakeshop	E	40.931052	-73.761301
uBreakiFix	C	40.997285	-73.817514
Budget_Rent_A_Car	C	40.986758	-73.808451
Sunoco	C	40.92892	-73.764009
Jane_Goodrich_Photography	A	40.935301	-73.756324
Sound_Shore_Medical_Center_of_Westchester	A	40.912996	-73.787518
Raizes_Gary_S_MD	A	40.986376	-73.775615
Electrolysis_by_Caroline_Del_Juidice	A	41.004324	-73.813209
Carlo's_Restaurant	B	40.915897	-73.770644
Boys_&_Girls_Club_Of_New_Rochelle	A	40.910086	-73.799689
Joserg_Pizza	B	40.907498	-73.784335
Madison_Nail	B	40.974493	-73.803943
Destination_XL	C	40.99448	-73.819041
Befit_Supplements	A	40.910502	-73.781698
Planet_Fitness	B	40.990267	-73.823359
CVS	A	40.900978	-73.79179
Daniel_Webster_Elementary_School	A	40.918429	-73.797805
Gemelos_Renovation_&_Maintenance	D	40.910999	-73.781395
Cooked_&_Co	B	40.98559	-73.81028
Cuatro_Caminos_Deli	B	40.909984	-73.796236
Post_Road_Gallery	C	40.927468	-73.752223
Cold_Stone_Creamery	B	40.990496	-73.823115
St_Catherine_AME_Zion_Church	A	40.917959	-73.787016
Main_Car_Wash	D	40.917874	-73.767844
Dennis_W_Barry_DMD_Barry_Dental	A	40.923595	-73.760762
Sprain_Brook_Manor_Rehab	A	40.986332	-73.837024
New_Roc_Social_Bar_&_Lounge	B	40.908905	-73.782689
Jillian_Cohen_LMT	B	40.932823	-73.761823
Wings_Over_Westchester_Air_Museum	B	40.992052	-73.811135
Wash_Up_Xpress	E	41.007706	-73.809371
Mitul_Patel_DDS	A	40.974339	-73.802966
Language_For_Living	A	40.992983	-73.818536
Metro_Med	A	40.909387	-73.779951
Mark_D_Rosenstein_DDS	A	40.923293	-73.76023
Lemke_Park	B	40.92443	-73.773127
Eddie_Foy_Park	B	40.892858	-73.785743
Pure_Hockey	C	40.912794	-73.774791
CrossFit	B	40.920321	-73.804857
DressTiez	C	40.930417	-73.762093
Juice_Press	B	40.975032	-73.802231
Schwartz_David_DDS	A	40.920899	-73.751431
Diamond_Dental_PC	A	40.995374	-73.818101
Young_Israel_of_Scarsdale	A	40.975171	-73.775549
Skin_Care_by_Krystal	B	40.989042	-73.809144
Xpress_Salon	B	40.988458	-73.809643
Humane_Society_of_Westchester	B	40.927134	-73.770954
Burger_King	B	40.910882	-73.780176
Christopher_J_Digiorgio_OD	A	40.896772	-73.794246
Ben's_of_Scarsdale	B	40.997964	-73.816204
Hair_Factor	B	40.946646	-73.79541
Katelyn_Vargas_RE_MAX	C	40.985756	-73.808847
Blvd	A	40.988939	-73.806553
Boys_&_Girls_Clubs_of_America	B	40.915829	-73.788962
Flowers_Park	B	40.929739	-73.772194
French_American_School_Of_New_York	A	40.927089	-73.750336
Lulu_Cake_Boutique	E	40.987816	-73.809824
Raphael_E_Rosenbaum_MD	A	40.90934	-73.781954
Stock_Cabinet_Express	C	40.915854	-73.807608
New_Rochelle_Fire_Department_Station_4	A	40.89828	-73.786175
Bright_Eyes_Optometry	A	40.916131	-73.77032
Traditional_Bagel_Cafe	B	40.94584	-73.795102
Century_21_Real_Estate	C	40.920593	-73.787344
Be_True_Yoga	B	40.9894	-73.807273
Smokehouse_Tailgate_Grill	B	40.922553	-73.788335
Elder_Care_Homecare	B	40.970762	-73.804458
Alleyway_Boutique	C	40.946789	-73.795194
Hand_Crafted_Services	B	40.907309	-73.78256
Telesco_Exxon_Svce_Sta	D	40.986492	-73.80851
BJ's_Optical	A	40.894099	-73.817796
CITGO	C	40.91061	-73.792225
Goosehead_Insuance_Chris_Burton_Goosehead_Insurance_Agent	C	40.918554	-73.766976
Di_Palate_Restaurant	B	40.907803	-73.779239
Larchmont_Massage_Therapy	B	40.932846	-73.761859
Acura_of_Westchester	C	40.927819	-73.766029
Mattress_Firm	C	40.974831	-73.803863
Equinox_Fitness_Clubs	B	40.975038	-73.802183
Eye_Designs_of_Westchester	A	40.973309	-73.80416
Mobil	C	40.976356	-73.802377
Schweiger_Dermatology_New_Rochelle	A	40.909375	-73.781935
AvadeanLewis_com_LLC	B	40.913491	-73.786066
Hennessey_Freda	C	40.930776	-73.749715
People's_United_Bank	C	40.990666	-73.823077
Memorial_Park	B	40.93515	-73.762191
Central_Hair_Salon	B	40.997237	-73.817572
Dent_Eraser	D	40.928895	-73.769564
Framed_by_the_Judge	C	40.912401	-73.808854
Groove_Performing_Arts	C	40.932473	-73.758311
Paul_L_Giotopoulos_DDS_Quaker_Ridge_Dental	A	40.948427	-73.792492
NoMa_Social	B	40.913953	-73.777824
Daniel_de_la_Torre_DDS	A	40.988031	-73.82494
Saxon_Woods_Golf_Course	B	40.983766	-73.760436
Mary_Ann_Liebert	A	40.913086	-73.778905
Thornton_Donovan_School	A	40.9332	-73.782083
Flourish_Baking_Company	B	40.977091	-73.804264
Peltown_Taxi	C	40.910822	-73.810119
Amys_Nails	B	40.920215	-73.8051
Allstate_Insurance	C	40.996957	-73.817138
Resourcive	A	40.919453	-73.804923
Wells_Fargo	C	40.929755	-73.750413
Rosenbaum_Maj_Britt_MD	A	40.92105	-73.755534
Shell_Oil	C	40.915773	-73.810097
Weinstein_Henry_C_MD	A	40.944585	-73.766325
Directions_In_Aging	B	40.947417	-73.795332
The_English_Group	A	40.930517	-73.762249
Hudson_Park_Bait_&_Tackle	C	40.907971	-73.770689
Trattoria_141	B	40.933116	-73.75905
Chase	C	40.93294	-73.758514
Fytt_4_Lyfe	B	40.905503	-73.8125
La_Greca_&_La_Greca	A	40.933782	-73.747872
BNZ_Group	C	40.976903	-73.80352
Minuteman_Press	E	40.946378	-73.79521
Proudian_Rugs	D	40.939869	-73.798261
Jolo's_Kitchen	B	40.916236	-73.785307
The_Fresh_Market	C	40.971524	-73.806178
Jc_Auto_Repairs	D	40.97693	-73.803942
Moringa_Revealed	B	40.912363	-73.782461
360_Business_Coach	A	40.988315	-73.80712
Shell_Oil	C	40.979878	-73.776324
John_Deer_Landscapes	D	40.932417	-73.764375
Mackler_Karen_MD	A	40.912493	-73.790501
Teri_B_Weinstock	A	40.9337	-73.758524
Body_&_Brain_Yoga_Tai_Chi	B	41.002005	-73.813748
Phenix_Salon_Suites	B	40.948762	-73.792064
Salon_Seventy_Six	B	40.906175	-73.777867
Bonnie_Briar_Country_Club	B	40.95313	-73.765866
Dunkin'	B	40.947403	-73.79533
Synergy_Business_Brokers	C	40.923378	-73.775205
Larchmont_Animal_Hospital	A	40.929724	-73.763089
Wykagyl_Svce_Sta	C	40.948298	-73.793087
Fromm_Tennis	B	40.935136	-73.769616
Applied_Behavioral_Interventions	A	40.909426	-73.779948
Julie_Alcee_BHHS_Westchester_Properties	C	40.988895	-73.806478
H_&_R_Bialy	B	40.947564	-73.794204
Nu_Mint_Nail_&_Spa	B	40.984479	-73.774643
Fjord_Fish_Market	C	40.932956	-73.759496
Starbucks	B	40.98443	-73.777035
Lisa_Petite_Nails	B	40.895857	-73.779816
MacInspires_Larchmont	A	40.932463	-73.759538
Great_Peking_Restaurant	B	40.915929	-73.807569
Stanley_W_Brownstein_DC	A	40.930525	-73.790062
The_Village_Vibe_Cafe	B	40.913997	-73.808645
Weekday_Nursery_School_United_Meth_Church	A	40.942827	-73.795159
Paramount_Paving	C	40.976388	-73.800156
Mikey_Dubb's_Frozen_Custard	B	40.945859	-73.795933
The_Children's_Place	C	40.969483	-73.806497
Julius_Michael_Scarsdale	B	40.990569	-73.807189
Clarence_E_Shelton_Jr_DDS	A	40.917949	-73.787583
Tranquility_Dental	A	40.91332	-73.789447
Vietnam's_Central	B	40.998321	-73.815178
Serenity_Nail_Salon	B	40.981637	-73.776541
D_&_D_Wine_And_Liquors	C	40.897432	-73.777507
Banana_Republic	C	40.970529	-73.805003
New_Roc	B	40.905246	-73.77475
Roma_Landscape	D	40.970216	-73.7829
Hillman_Linda_PHD	A	40.984812	-73.809076
Kristine_Provenzale_RE_MAX_Prime_Properties	C	40.985749	-73.808871
Palmer_Square_Shopping_Center	C	40.922415	-73.773212
North_End_Quality_Meats	C	40.976659	-73.802779
Stellman_Michael_R_Acsw	A	40.968413	-73.786228
New_Rochelle_High_School	A	40.930243	-73.793977
Rogalski_Lois_Dr_PHD	A	40.963321	-73.771981
PopoJito	B	40.99008	-73.80683
5th_&_Lincoln_Deli	B	40.915111	-73.807596
Hudson_Park_and_Beach	B	40.906054	-73.773669
Natural_Care_Of_Westchester	A	40.931001	-73.762038
Radiate_Yoga	B	40.911817	-73.812664
Rainbow_Shops	C	40.893119	-73.8196
Cozy_Nails	B	40.987187	-73.809846
E_shot_Cafe	B	40.9329	-73.759483
Mixology_Clothing_Scarsdale	C	40.989946	-73.806839
Holy_Trinity_Greek_Orthodox_Church	A	40.954192	-73.797979
Wash_Up_Xpress	E	40.895471	-73.779189
Hugeonot_Park	B	40.929659	-73.790595
Magic_Cuts_For_Kids	B	40.916675	-73.769662
Billy_Budd's_Pub	B	40.888436	-73.790023
The_Chipper_Truck_Cafe	B	40.915098	-73.807582
Cantina_Lobos	B	40.906552	-73.811653
New_Ro_Suds_Laundromat	E	40.908657	-73.779998
Pink_On_Palmer	A	40.933208	-73.759018
Shapiro_George_MD	A	40.970846	-73.80469
Alpha_Medical_Equipment	A	40.906298	-73.78771
Fairway_Market	C	40.891892	-73.820931
Artistic_Manner_Flower_Shop	C	40.906648	-73.811543
Phyllis_Jacobs_Sotheby's_International_Realty	C	40.931567	-73.75974
Ruffled_Feathers	C	40.986957	-73.810272
Larchmont_Public_Library	B	40.927621	-73.750663
BP	C	40.915542	-73.784657
Scherr_Martin_R_Dr_Poditrst	A	40.933421	-73.752409
GNC_(General_Nutrition_Centers)	A	40.891201	-73.821041
Sunoco	C	40.994313	-73.819709
Mendelsohn_Eric_PHD	A	40.920591	-73.76299
Police_Tutorial_Svc	A	40.976534	-73.803572
GMazza_Salon	B	41.000399	-73.814659
Style_Society_Barbershop_&_Salon	B	40.927353	-73.789573
Pediatric_Associates_of_Westchester	A	40.969422	-73.806026
One_River_School_of_Art_&_Design	C	40.92887	-73.750815
1st_Choice_Taxi	C	40.906463	-73.778171
New_Roc_Dental	A	40.911959	-73.782141
G_Bakery	E	40.907503	-73.779184
Lakeshore_Learning_Materials	C	40.991435	-73.821875
Boys_&_Girls_Club_Of_New_Rochelle	A	40.903076	-73.775221
Schwartzman_Tami_PC	A	41.006095	-73.811916
Echo_Bay_Service_Station	D	40.906775	-73.77388
Exterior_Measures	C	40.913161	-73.780586
Allstate_Insurance	C	40.920841	-73.787582
Arielle_Chassen_Jacobs_DMD	A	40.989394	-73.807269
Starbucks	B	40.926371	-73.786331
Storage_Pros	C	40.916855	-73.780432
Beauty_by_Dombrie	B	40.905845	-73.787118
Fishermans_Net_of_Pelham	B	40.918031	-73.804265
Saccone's_Pizzeria	B	40.909589	-73.798297
Scarsdale_Aesthetic_Medicine	B	40.988327	-73.807125
Murray_Schoen_&_Homer_Inc	C	40.906178	-73.777152
Alexander_Cox_DMD_FAGD_Scarsdale_Smiles	A	40.988497	-73.807015
Bernhardt_Bernard_MD	A	40.913549	-73.787873
Mash_Cigars_lounge	C	40.94617	-73.795215
The_Church_of_Jesus_Christ_of_Latter_day_Saints	A	40.90731	-73.777998
Gap	C	40.970619	-73.80485
Infinite_Yoga_Center	B	40.931772	-73.760107
Phillips_Elizabeth_A_MD	A	40.913554	-73.787881
Auto_Sound_Specialists	C	40.930996	-73.749624
Shell_Oil	C	40.98676	-73.80855
The_Salon_at_Westchester	B	40.975089	-73.802715
Smile_Dental_of_New_Rochelle	A	40.913501	-73.786074
Nicholas_Day_Spa_&_Salon	B	40.906831	-73.81148
The_Church_of_Jesus_Christ_of_Latter_day_Saints	A	40.991942	-73.795476
Rainbow_Fish_Market	C	40.909171	-73.780717
Mom's_Cigar_Warehouse	C	40.986732	-73.826257
Shore_Park	B	40.884606	-73.791519
Simply_the_Best	D	40.974383	-73.775382
Jackie_B's	B	40.988252	-73.809691
Kumon_Institute_of_Education	A	40.980658	-73.776564
Assisted_Transportation	E	40.978624	-73.805632
Brite_Avenue_Park	B	41.003592	-73.794122
Plushblow_Scarsdale	A	40.989273	-73.807301
RiskBlock	C	40.915216	-73.784265
Pelham_Animal_Hospital	A	40.91537	-73.808843
Larchmont_Nurseries_and_Greenhouses	D	40.924024	-73.758172
Wok_King	B	40.914959	-73.784565
New_Rochelle_Chiropractic	A	40.904646	-73.775172
Christian_Bros_Inst_St_Josephs	A	40.929152	-73.78869
Meyer_Parking_Organization	B	40.906917	-73.780873
X_Quisite_Flowers_and_Events	C	40.91982	-73.787102
Altman_Jill_P_MD_PC	A	40.978301	-73.786474
Knotz_Hair_Studio	B	40.914859	-73.772695
Dunkin'	B	40.923743	-73.788004
South_East_Asian_Cuisine	B	40.986872	-73.810308
The_Bar_Method	B	40.989024	-73.809537
For_Pet's_Sake_Grooming	C	40.914823	-73.77253
Librett_Real_Estate_Group	C	40.918585	-73.76697
Harold_C_Clark	A	40.916657	-73.795981
Martin_A_Rube_DDS	A	40.948104	-73.792758
Prowash_Express	D	40.905671	-73.788256
Shoppes_At_Eastchester_The	C	40.974712	-73.804052
Regal_Entertainment_Group	A	40.911935	-73.779552
Holy_Family_Church	A	40.923778	-73.791071
Staples	C	40.922095	-73.764606
La_Fontanella	B	40.909298	-73.811125
Peter_Jonas	C	40.933627	-73.758687
Dynasty_Leasing	C	40.931218	-73.761112
Larchmont_Eye_Associates	A	40.923299	-73.760224
Navas_AV_Solutions	C	40.980478	-73.819662
Pinkberry	B	40.911427	-73.779172
Children's_Corner_Learning_Center	A	40.981582	-73.810187
New_York_Gastroenterology_Associates	A	40.988352	-73.807103
Italian_Village	B	40.983809	-73.77727
Shell_Oil	C	40.919185	-73.766037
Summerfield_Pediatric_Dentistry	A	40.976903	-73.803543
La_Renaissance_Catering	E	40.988977	-73.807524
Olaniyi_Epemolu_DDS	A	40.893375	-73.784639
Roc_N_Ramen	B	40.911124	-73.781038
I_Got_The_Juice	B	40.907323	-73.784401
Direct_Property_Management	C	40.917276	-73.806932
ML_Bruenn_Co	C	40.910768	-73.781995
Rainbow_Custom_Apparel	C	40.909457	-73.791721
US_1_Auto_Sales	C	40.918037	-73.768353
The_Hammel	C	40.913009	-73.785283
Krinick_Nolan_DDS	A	40.926559	-73.773022
Club_Pilates	B	41.009223	-73.809488
Marc_A_Horowitz_MD	A	40.989392	-73.807245
Liberty_Tax_Service	A	40.905976	-73.785603
GNC_(General_Nutrition_Centers)	A	40.979589	-73.80159
Mister_Taco	B	40.922889	-73.78758
Olshansky_Phyllis_PHD	A	40.943018	-73.801165
College_Advice_101	A	40.94522	-73.755448
Glover_Field	B	40.898275	-73.816869
Nelson_Fazio_MD	A	40.978479	-73.805027
La_Herradura_Inc_II	B	40.9469	-73.795452
Cullen_Gail_Marie_DDS	A	40.989107	-73.807154
King_Gold_and_Pawn_of_New_Rochelle	A	40.910464	-73.780923
Lubrano	A	40.932644	-73.750799
Cara_Nail	B	40.895743	-73.778833
Merissa_Blais_DDS_Blais_Orthodontics	A	40.988316	-73.807121
Murray_Avenue_School	A	40.94354	-73.762306
Larchmont_Pediatric_Dentistry	A	40.932252	-73.762461
Mobil	C	40.915962	-73.810956
Beauty_By_Daniela	A	40.938761	-73.762219
TT's_Rainbow_Nail	B	40.928903	-73.764823
New_Rochelle_Tennis_Club	B	40.93832	-73.790744
E_M_Barbers	B	40.94613	-73.795222
Greentree_Country_Club	B	40.893721	-73.775012
Edo_Japanese_Steakhouse	B	40.897136	-73.804091
BeAti_Acupuncture_Wellness_Clinic	A	40.988026	-73.82491
Spine_Care	A	40.979048	-73.807493
The_Salon_de_Lash	B	40.989635	-73.807581
Hutchinson_School	A	40.916035	-73.809391
Ferndale_Shopping_Center	C	40.936623	-73.747864
Giannoni's_Deli	B	40.988339	-73.809714
Alicia's_Bakery	E	40.908894	-73.781194
Independent_Tire_Service	C	40.914193	-73.782731
Diner_Brew_Co	D	40.909148	-73.783986
Kiddiversity	C	40.899095	-73.800183
Club_Pilates	B	40.948624	-73.792296
Trinity_Elementary_School	A	40.90317	-73.775227
Century_21_Real_Estate	C	40.998873	-73.816317
Modell's_Sporting_Goods	C	40.911186	-73.780282
Fun_Craft	C	41.002009	-73.813779
European_Wax_Center_(EWC)	B	40.974563	-73.803816
SuggarPlums	B	40.920373	-73.787212
St_Nersess_Armenian_Seminary	A	40.967797	-73.790279
Brightstone_Insurance	C	40.913606	-73.779324
Empty_Hand_Zen_Center	A	40.910526	-73.782069
Station_Flowers	C	40.988451	-73.809633
Allstate_Insurance	C	40.932098	-73.758782
Kota_African_Hair_Braiding	B	40.917581	-73.788549
El_&_Ella_Hair_Salon	B	40.910617	-73.782349
Tres_Magnifique	C	40.932542	-73.758612
Cohen_I_B_&_Sons	C	40.908468	-73.782544
Inaba_Dental_Office	A	40.988161	-73.807333
Red_Lobster	B	40.990253	-73.823203
Venecias_Pizzeria	B	40.909364	-73.781276
Drake_Road_Park	B	40.986624	-73.794082
Cameron_Sharkey_Park	B	40.891769	-73.781458
Farida_Parveen	A	40.913063	-73.79066
Weaver_Gardens	D	40.938931	-73.752033
CURRY_CHEVROLET	C	40.997412	-73.816051
Current_Home	C	40.984902	-73.777837
Coco_Nail_Spa	B	40.970487	-73.807028
D'bay_Cafe	B	40.91422	-73.784096
Our_Lady_Of_Fatima_School	A	40.981043	-73.81695
Habitat_for_Humanity_ReStore	C	40.90535	-73.787592
Greenville_Fire_Company	A	40.998587	-73.816615
Larchmont_Acupuncture	A	40.933114	-73.748238
Accent_Nail	B	40.989026	-73.80751
Athleta	C	40.970948	-73.804585
Feuerbach_John_W_DDS_FACP	A	40.93423	-73.761396
St_Gabriel's_Church	A	40.911585	-73.786448
Wykagyl_Service_Station	C	40.948311	-73.793085
Dollar_Tree	C	40.893863	-73.820281
Heathcote_School	A	40.984447	-73.771756
Gemelli_Pizzeria	B	40.926911	-73.789445
Webster_Bank	C	40.913602	-73.777273
Goldman_H_Debra_PhD	A	40.988038	-73.824912
Scott_Haig_MD	A	40.97086	-73.804719
Westchester_KRAV_MAGA_Federation	B	40.94706	-73.794272
Pelham_Pizza	B	40.912741	-73.809217
Sammy's_New_York_Bagels	B	40.906811	-73.783234
Masonry_Garden_Supplies	D	40.985499	-73.834714
Joe's_Deli	B	40.911274	-73.796694
KUMO_Japanese_Restaurant	B	40.974578	-73.80393
B_&_A_Barbershop	B	40.915096	-73.772259
Augie's_Restaurant	B	40.932114	-73.757735
CVS	A	40.945766	-73.796269
New_Rochelle_Bike_Share	C	40.911852	-73.784286
Casimir_Pulaski_School	A	40.982696	-73.819999
Scarsdale_Middle_School	A	40.992918	-73.775312
Burger_King	B	41.002981	-73.812835
The_Hallen_School	A	40.906655	-73.783923
Vines_&_Petals	C	40.906368	-73.789435
SHRED_Fitness	B	40.980815	-73.776494
Lori_Morrow_Homes_New_Rochelle_Real_Estate	C	40.925014	-73.791859
Juliannes_Park	B	40.918701	-73.807233
Sabrosa_Deli_Juice_Bar	B	40.910474	-73.781722
Astor_Lane_Realty	C	41.00427	-73.813193
WinesMart	C	40.984897	-73.77775
Allstate_Insurance	C	40.987014	-73.810349
Quaker_Ridge_Golf_Club	B	40.968086	-73.762706
People's_United_Bank	C	40.922093	-73.773902
Cityscape_Mortgage	C	40.970845	-73.804716
Raymond_Opticians	A	40.932461	-73.759579
Sears_Home_Services	C	40.92816	-73.771486
ConocoPhillips	C	40.904428	-73.787708
Portuguese_Community_Center_NR	B	40.910881	-73.79641
Film_Emporium	C	40.933197	-73.758255
Ksi_Auto_School	C	40.909737	-73.780949
Aqua_Guys	C	40.930593	-73.76219
Ministerios_Vida_de_Dios_Ministerios_Ebenezer	A	40.908641	-73.781274
STS_Tire_&_Auto_Centers	D	40.994075	-73.820324
Kazushi_Mikuni_RE_MAX_Prime_Properties	C	40.985775	-73.808868
Modell's_Sporting_Goods	C	40.892561	-73.82048
Sydney's_Furniture	C	40.90821	-73.782862
Sunoco	C	40.915771	-73.810066
7-Eleven	C	40.987414	-73.808298
Orthodontic_Center_of_Scarsdale	A	40.974567	-73.80394
Pro_Tech_Benz	D	40.88739	-73.791433
Flora_Nail_&_Spa	B	40.990562	-73.807195
16_Handles	B	40.94871	-73.792177
Edgemont_Day_Camp	B	41.000994	-73.80782
Kim's_Nails	B	40.908943	-73.781882
Extra_Space_Storage	C	40.928829	-73.77109
Pediatric_Dentistry	A	40.929116	-73.750827
New_Rochelle_Animal_Hospital	A	40.906613	-73.778366
Center_For_Autism_and_Related_Disorders	A	40.933174	-73.758258
LabCorp	A	40.913481	-73.786063
Starbucks	B	40.922119	-73.773944
Empire_State_Crossfit	B	40.931286	-73.766581
Bronx_River_Books	C	40.989935	-73.806895
O2_Hair	B	40.987004	-73.810294
Shell_Oil	C	40.987377	-73.823962
Bank_of_America	C	40.990621	-73.807472
Eastchester_Fire_Department_Station_5	A	40.965308	-73.795629
Saxon_Woods_Park	B	40.985449	-73.7533
Lopez's_Auto_Repair	D	40.914691	-73.794046
Metro_Deli	B	40.984373	-73.774838
Broden_Alexander_R_MD	A	40.978095	-73.769707
Sea_Flame_Restaurant	B	40.971053	-73.806647
Green_Harvest	C	40.987171	-73.809827
Fred's_Firewood	D	40.927225	-73.771611
Scarsdale_Fire_Department_Station_3	A	40.981139	-73.766792
Cherry_Lawn_Nursery	D	40.958941	-73.772916
Permanent_Cosmetics_by_Jennifer_at_Branches_of_Beauty	A	40.976506	-73.80357
World_of_Wireless	C	40.914345	-73.773555
Cohen_Louis_D	A	40.976864	-73.816822
Juliet_C_Lesser_PhD	A	40.927978	-73.752203
Seasons_Too_Ltd	C	40.935312	-73.74711
Pet_Pantry_Warehouse	C	40.972589	-73.804634
Sol_Y_Mar	B	40.909429	-73.794932
Mitchell_Bierman_DDS	A	40.936518	-73.792196
Monroe_College_Bookstore_New_Rochelle_Campus	A	40.909687	-73.779772
Happy_Kids_Cuts	B	40.933463	-73.76143
Sotheby’s_International_Realty	C	40.931451	-73.759857
Gulf_Oil	C	40.984031	-73.775064
Allstate_Insurance	C	40.910563	-73.810401
Cristofaro_Robert_L_MD	A	40.913441	-73.786174
Paul_Bencivengo_Service_Center	C	40.908319	-73.811575
The_Learning_Experience	A	40.91346	-73.781179
Weiss_Norman_MD	A	40.991926	-73.762699
Mercedes_Benz_of_Larchmont	C	40.921259	-73.764704
Top_10_Nails	B	40.930572	-73.762206
Kurt_Sauer_Opticians	A	40.932301	-73.759979
Sam_Lehr_Designs	C	40.989624	-73.8072
Salsa_Y_Brasa_Restaurant	B	40.906201	-73.784839
Nails_and_Spa	B	40.896889	-73.804534
Moscato	B	40.988169	-73.808184
Glen_Island_Center_for_Nursing_&_Rehabilitation	A	40.894571	-73.781594
Wallauer_Paint_&_Design	C	40.908433	-73.784378
Amari_Medical	B	40.988024	-73.824959
Chiropractic_Center_of_Pelham	A	40.909431	-73.811042
Bird_Jungle	C	41.009009	-73.809651
PizzaCo	B	40.927372	-73.789724
City_Hall	B	40.920025	-73.785931
Comprehensive_Dental_Group	A	40.930774	-73.76161
Main_Street_Pharamacy	A	40.902844	-73.790567
Caren_Osten_Coaching	A	40.927941	-73.752206
The_Soroban_School	A	41.004263	-73.813207
Farmers_Insurance_Group	C	40.914836	-73.784529
Kramer_Seymour_DDS	A	40.969882	-73.795178
The_Little_Gym	B	40.97431	-73.803956
Enterprise_Rent-A-Car	C	40.913199	-73.777323
New_York_Family_Dental_Arts	A	40.910164	-73.810561
Jo-Ann_Fabric_and_Craft_Stores	C	40.991591	-73.823075
Korean_BBQ_Grill	B	40.908898	-73.781196
Beth_El_Synagogue_Center	A	40.946653	-73.796522
The_Flower_Bar	C	40.929224	-73.752494
Nason_Md_Lisa	A	40.995303	-73.84004
North_Guys_Deli	B	40.921217	-73.787933
Nordone_&_Sons_Auto_Body	D	40.922146	-73.763336
All_County_Endodontics	A	40.99372	-73.8222
Westchester_Dermatology_&_Mohs_Surgery_Center	A	40.970865	-73.804712
PetSmart	C	40.893041	-73.817814
TD_Ameritrade	A	40.9933	-73.820047
LOFT	C	40.970896	-73.80679
Central_School	A	40.938071	-73.747362
Larchmont_Shore_Club	B	40.91526	-73.75142
Alma_Salon	B	40.912573	-73.80879
Healthy_Teeth_Dentistry	A	40.993772	-73.822677
West_Elm	C	40.968655	-73.807181
Coromandel_Cuisine_of_India	B	40.908939	-73.783707
Sal_Monteagudo_Ins_Agency_Inc_Nationwide_Insurance	C	40.914539	-73.808334
Colonial_School	A	40.903594	-73.808603
Asia_Arts	C	40.985776	-73.809993
Neal_D_Goldberg_MD_FACS	A	41.005318	-73.812492
Jackson_Hewitt_Tax_Service	A	40.909814	-73.780542
The_College_Of_New_Rochelle	A	40.900202	-73.781353
Pet_Wash_Express	C	41.007528	-73.809506
Tim_Hortons	B	40.917538	-73.786167
Thrive_Fitness_And_Nutrition_Studio	B	40.886983	-73.791762
Starbucks	B	40.945854	-73.795803
Audrey_Ramsay_DDS	A	40.893375	-73.7846
Symmetry_Physical_Therapy	B	40.916588	-73.806747
Pinnacle_Performance_PT	A	40.985785	-73.809984
Scarsdale_Acupuncture	A	41.004276	-73.813185
Ecco_Agency	C	40.986957	-73.824125
SafeSplash_Swim_School_Pelham	B	40.892402	-73.820731
Steve_Sohn's_Krav_Maga_Training_Center	B	40.979142	-73.807783
Durian	B	40.933322	-73.759424
Harwood_Park	B	40.997916	-73.790336
Opex_Blue	B	40.920334	-73.804864
Goldberg_Daniel_A_MD	A	40.94188	-73.786446
American_Eagle_Outfitters	C	40.969224	-73.806508
Yburis_Infotech	A	40.931466	-73.763179
Smashburger	B	40.992933	-73.821972
Sidney_Frank_Importing_Co	C	40.914422	-73.779598
Mom_Body_&_Stroll	B	40.985498	-73.810368
HSBC_Bank	C	40.988491	-73.80782
Anna_&_Jacks_Treehouse	A	40.906026	-73.782417
New_Golden_Village_Oriental_Supermarket	C	41.009233	-73.809494
CVS	A	40.896034	-73.804678
Dragon_Garden_Chinese_Rest	B	40.908187	-73.779697
Morita_Kiyora_Salon	B	40.986311	-73.808731
Gleenwood_Park	B	40.918908	-73.801209
Carvel	B	40.915025	-73.772336
Sure_Smile_Dental	A	40.988041	-73.824918
Learning_Express_Toys	C	40.990007	-73.80725
Cermele's_Auto_Collision	D	40.910261	-73.796216
Trackless_Hair_Boutique	B	40.915467	-73.785223
Amoco	C	40.890836	-73.817424
First_Holiness_Church	A	40.918195	-73.786495
Issac_E_Young_Field	B	40.90259	-73.776752
Mike's_Deli_&_Cafe	B	40.898439	-73.790603
Renu_Beauty	B	40.908428	-73.783179
Terranova_Brick_Oven_Pizzeria_Restaurant	B	40.905219	-73.774776
Perlman_Dean_DC	A	40.995347	-73.818103
Lash_Out_Loud	B	40.91505	-73.785075
Jaguar_Larchmont_New_Rochelle	C	40.920593	-73.765167
Acme_Markets	C	40.947183	-73.794071
Milbrandt_&_Co	C	40.916834	-73.769767
Scarsdale_Friends_Meeting_Quaker	A	40.988139	-73.798876
Carpet_One_Floor_&_Home	C	40.906797	-73.785411
The_Little_Ranch_Boot	E	40.908368	-73.784545
Korean_Presbyterian_Church_of_Westchester	A	40.895554	-73.805562
Motorcycle_Center	C	40.907194	-73.793915
Salon_421	B	41.002297	-73.813612
The_Ambassador_of_Scarsdale	B	40.988597	-73.748547
Schaffer_Extended_Care_Center	A	40.91287	-73.78755
Alcott_School	A	40.991325	-73.802651
Clarissa_Rosado_Diaz_RE_MAX_Prime_Properties	C	40.985772	-73.808857
Millennium_Medical_And_Rehab	A	40.988045	-73.824926
Allstate_Insurance	C	40.913671	-73.808765
Key_Food	C	40.896895	-73.804591
Between_Ages_Adult_Social_Center	C	40.913514	-73.786075
Kids_Are_People_Inc	A	40.983132	-73.779429
Chocolate_Works	C	41.005736	-73.810532
Westchester_Psychoanalytic_Society	A	40.940787	-73.781266
Walgreens	A	40.935148	-73.747024
Salon_Antonio	B	40.898834	-73.777889
Plum_Insurance_Agency	C	40.987202	-73.809814
IWC_Schaffhausen	C	40.907789	-73.783692
Nail_City_One	B	40.909369	-73.781271
American_Legion_Larchmont_Post_347	B	40.93179	-73.747811
Honda_of_New_Rochelle	C	40.91549	-73.77041
New_China_Kitchen	B	40.904337	-73.788377
The_Optical_Shop	A	40.912647	-73.789995
Kaye_Stanley_PHD	A	40.99055	-73.758965
Golden_Imperial_Chinese_Restaurant	B	40.909927	-73.788576
Rose_Hill_Nurseries	D	40.936068	-73.797407
AJ's_Burgers	B	40.920619	-73.787291
Pizza_Hut	B	40.992556	-73.822861
CVS	A	40.976096	-73.80347
Hess_Gas_Station	C	40.996523	-73.818194
CITGO	C	40.912263	-73.775085
Collado's_Painting_&_Renovation	D	40.909774	-73.780921
New_Rochelle_Fire_Department_Station_5	A	40.971365	-73.776537
Eldorado_Diner	B	40.996066	-73.817805
MG_Martins_Auto	D	40.924009	-73.781976
Scarsdale_Dental_Center	A	40.988019	-73.824919
Hakki_Ahmed_Psychtrst	A	40.982143	-73.811954
Larchmont_Car_Wash	D	40.922	-73.763806
NY_Sports_and_Spinal	A	40.989066	-73.809162
Stop_&_Shop	C	40.911627	-73.779052
Allstate_Insurance	C	40.910316	-73.78079
Kaufmann_Cheryl_S_PC	A	41.002791	-73.782352
Westchester_Landscape_Depot	D	40.911874	-73.774603
Big_Top_of_Scarsdale	C	40.980375	-73.776493
Sprain_Brook_Nursing_Home	B	40.986325	-73.836991
Rockwells	B	40.909614	-73.81086
Vadim_Fitness_Studio	B	41.006062	-73.811885
El_Michoacano_Restaurant	B	40.909369	-73.781166
Presbyterian_Church	A	41.010912	-73.793111
Supercuts	B	40.922128	-73.772454
Paulie's_Pizzeria	B	40.927392	-73.789682
D_Gloria_Hernandez_J_Philip_Real_Estate	C	40.913187	-73.808467
Lunaz_5th_Avenue_Salon	B	40.915971	-73.80752
Larchmont_Yacht_Club	C	40.924576	-73.744406
T_&_R_Jewelers	C	40.907784	-73.783675
Citibank	C	40.932354	-73.759037
De_Lima_Park	B	40.988855	-73.804927
New_Rochelle_Toyota	C	40.914944	-73.778533
Scarsdale_Personal_Dental_Care	A	41.002297	-73.813652
Russell_Cellular	C	40.932068	-73.759854
Certified_Foot_Care	A	40.923398	-73.760289
Sprint	C	40.908297	-73.78218
Five_Star_Commercial_Builders_Inc	D	40.912715	-73.781724
Daniel_Kokoszka_Photography	A	40.982663	-73.81321
West_Chester_Family_Dentist	A	40.988341	-73.807123
Lippman_Eye_Care_Center	A	40.925911	-73.804556
Lamb_Darien	A	40.913071	-73.79063
Number_One_Chinese_Restaurant	B	40.895795	-73.805117
Chat_American_Grill	B	40.990533	-73.806352
Samantha_Slotnick_OD_FAAO_FCOVD	A	41.005352	-73.812504
The_UPS_Store	C	40.947203	-73.79531
PRO_Park_America	B	40.988346	-73.809112
Larchmont_Music_Academy	A	40.928684	-73.751057
Noblesse_Nail_&_Spa	B	40.985671	-73.810099
Lord_and_Taylor	C	40.971968	-73.803827
Cossifos_Constantine_MD_Chiropractic_Health_Center	A	40.960643	-73.795208
Scarsdale_Fire_Department_Station_1	A	40.97339	-73.802887
Jack's_Automotive_Larchmont	D	40.929612	-73.763289
Peridot_Fine_Jewelry	C	40.933306	-73.758889
Webster_Bank	C	40.989612	-73.807096
Hip_Cafe	B	40.915122	-73.807593
Ss_John_&_Paul_School	A	40.940895	-73.755505
Soriano_Bartolome_Nida_DDS	A	40.913095	-73.790634
Import_Sound_Tuning	D	40.914818	-73.771222
El_Herradura	B	40.907688	-73.78388
Prowash_of_New_Rochelle	D	40.905659	-73.788266
Krave	B	40.907919	-73.782241
CrossFit	B	40.92817	-73.771773
Yudi's_Beauty_Salon	B	40.906354	-73.785032
Susan_Marlowe_Fitness_Club_For_Women	B	40.973186	-73.804918
Garito_Manor_At_Union_Square	B	40.909454	-73.792723
Main_Chiropractic_and_Rehabilitation_Center	A	40.905772	-73.785938
Oggi_Adam_&_Eve_Salon_&_Day_Spa	B	40.996475	-73.817463
Gymboree_Play_and_Music	B	41.005703	-73.810613
Cooper's_Corner_Montessori_International_Inc	A	40.954519	-73.796509
Bangkok_City	B	40.912319	-73.808932
AT&T	C	40.933211	-73.759045
Scarsdale_Chiropractic_Associates	A	40.995388	-73.818135
The_Church_of_St_James_the_Less	A	40.989581	-73.799968
Ester's_Hair_Salon	B	40.917268	-73.778379
Proformance_Industries	C	40.928926	-73.769571
Scarsdale_Central_Shopping_Center	C	40.99982	-73.814744
Sal's_Italian_American_Market	B	40.973432	-73.804051
HSBC_Bank	C	40.946712	-73.795936
GT_Dental	A	40.988489	-73.807038
Our_Lady_Of_Perpetual_Help_School	A	40.897968	-73.80235
Lusardi's	B	40.933745	-73.758402
Chase	C	40.999673	-73.814843
State_Farm	C	40.915501	-73.771574
Heathcote_Barber_Shop	B	40.984323	-73.774735
Chat_19_American_Grill	B	40.930117	-73.751427
California_Pizza_Kitchen	B	41.008806	-73.809841
Ricci_Jean_DDS	A	40.979203	-73.807962
Quick_Stop_Caribbean_American_Cuisine	B	40.910841	-73.778069
Eblens	C	40.917185	-73.785837
Church_of_God_of_New_Rochelle_New_Testament	A	40.909268	-73.77951
Alex'_Barbering_and_Hairstyling	B	40.905235	-73.774734
Best_Plumbing_Tile_&_Stone	C	40.989113	-73.824602
Music_School_of_Westchester	C	40.936151	-73.747674
Crown_Trophy	C	40.914354	-73.77364
Zoffness_Math_Tutoring	A	40.935364	-73.756293
The_Vitamin_Shoppe	A	40.893006	-73.819324
Sribhud's_Thai_Tea	B	40.978426	-73.820643
Pilates_Therapy_&_Wellness	B	40.989014	-73.807504
Pizza_Centre	B	40.897095	-73.777714
Discovering_Me_Day_Care_Center_Inc	A	40.929919	-73.762802
Fig_and_Olive	B	40.969974	-73.805616
New_Rochelle_Auto_Body	D	40.926887	-73.773184
Westchester_County_Cell_Phone_Repair	C	40.912725	-73.781721
Speedway	C	40.996555	-73.818172
Eastern_Wellness_Acupuncture	A	40.979053	-73.807531
Massage_Envy	B	40.97472	-73.803726
K_Spa	B	40.902663	-73.789941
The_Kehillah_School_For_Early_Learning	A	40.965681	-73.780224
CVS	A	40.923333	-73.787298
Silhouettes_Hair_Salon	B	40.897018	-73.777768
Lucky_Star_Skin_Care_Spa	B	40.91815	-73.805834
Pelorus_Nail_Spa	B	40.908448	-73.782765
Java_Crave_Caffe	B	40.9873	-73.809825
SoulCycle	B	40.988916	-73.809241
Pet_Pantry_Warehouse	C	40.921823	-73.764468
Trinity_Cooperative_Nursry_Schl	A	40.909516	-73.784533
Scott_D_Bookner_MD	A	40.989048	-73.809128
D'Onofrio_Park	B	40.895668	-73.79271
Hodas_Arnold_J_MD	A	41.009475	-73.790645
Pine_Brook_Park	B	40.936016	-73.755415
Rajeev_Sindhwani	A	40.913104	-73.790662
Planned_Parenthood	A	40.911224	-73.781449
Marcello's_Wood_Fired_Pizza_&_Restaurant	B	40.911722	-73.809703
LUKOIL_North_America	C	41.007238	-73.809874
Andrene_A_Campbell_M_D	A	40.988319	-73.807128
Abraham_Zlatin_OD	A	40.984672	-73.777718
Fresh_Taco	B	40.905103	-73.787691
Scarsdale_Dental_Associates	A	40.969445	-73.806268
Curry_Acura	C	40.999932	-73.816064
Sominia	A	40.913987	-73.780412
Edgemont_Junior_Senior_High_School	A	41.001267	-73.807761
CVS	A	40.930152	-73.751564
Trader_Joe's	C	40.938338	-73.746529
Kiku_Sushi	B	40.896286	-73.778262
New_Roc_City	C	40.911737	-73.779673
Texas_Roadhouse	B	40.91229	-73.781857
The_Masters_Hand_Christian_Fellowship	A	40.906993	-73.779545
Liberty_Montessori_School_International	A	40.930359	-73.784619
Tony's_Nursery	D	40.924447	-73.757317
Arbre_D'Or	C	40.987525	-73.809813
New_York_Sports_Club	B	40.912681	-73.781654
Northwell_Health	A	40.981301	-73.813151
New_Rochelle_Better_Homes_and_Gardens_Rand_Realty	C	40.946766	-73.795344
Chase	C	40.911494	-73.783084
1088_Central_Park_Avenue	C	40.986897	-73.823998
Avanti_Associates	C	40.907018	-73.811589
United_Hebrew_of_New_Rochelle	B	40.897114	-73.779005
Diamond_Days	C	40.988315	-73.797442
Congregation_M'vakshe_Derekh	A	40.988101	-73.798864
RitaMarie_Salon	B	40.905791	-73.812029
R_Cafe_&_Tea_Boutique	B	40.90887	-73.784137
State_Farm	C	40.91271	-73.809234
Polo's_Auto_Body	D	40.928514	-73.768956
Caffe_Ammi	B	40.918471	-73.805218
Spring_Spa	B	40.92771	-73.752172
Allied_Healthcare_Physicians	A	40.912476	-73.79051
New_Millennium_Driving_School	C	40.907305	-73.784255
Wolf's_Lane_Delicatessen	B	40.905824	-73.81202
Fresh_Taco	B	40.9083	-73.783113
Ardsley_Musical_Instrument_Svce	C	41.000226	-73.838378
The_WorkRoom_Upholstery_&_Window_Treatments	B	40.905807	-73.785884
Amusement_Consultants	A	40.901055	-73.79201
Patrick_T_Daly_CPA	A	40.912351	-73.782539
Westchester_Budo	B	40.909415	-73.779943
Joey's_Cannoli_Espresso_Bar_&_Cafe	C	40.90866	-73.783399
Domino's_Pizza	B	40.916982	-73.785644
Healing_Life's_Losses	A	40.931761	-73.760123
Pequena_Taqueria	B	40.928453	-73.752894
Immaculate_Heart_Of_Mary_School	A	40.981428	-73.799303
Rosenblum_Edward_S_DDS	A	40.935342	-73.755883
Zach_Alexander	A	40.910501	-73.78377
Pelham_Public_Library	B	40.902401	-73.814269
Children's_Corner_Of_Larchmont_Mamaroneck_Inc	A	40.934307	-73.745624
The_Ursuline_School	A	40.949555	-73.797124
Modern_Restaurant_and_Lounge	B	40.908934	-73.784276
Sotheby’s_International_Realty	C	40.989251	-73.806294
Mama_Francesca	B	40.895919	-73.778669
Starbucks	B	40.990845	-73.823083
Ivy_Rehab_Physical_Therapy	A	40.913503	-73.786068
Harmon_Face_Values	A	40.948448	-73.792553
Direct_Mattress_&_Furniture	C	40.910919	-73.781948
Stephen_Nicholas_MD	A	40.988318	-73.807138
YMCA	B	40.90004	-73.79083
Hong_Kong_Restaurant	B	40.895828	-73.778763
El_Gran_Rodeo	B	40.915256	-73.785225
Albert_Leonard_Middle_School	A	40.948133	-73.781643
Ripped_Ride	B	40.973213	-73.804931
Renaissance_Bagel_Cafe	B	40.915641	-73.807735
The_Beechmont_Tavern	B	40.926908	-73.789396
Kahn_Jeffrey_P_MD_Westchester_Psychiatry	A	40.988929	-73.806481
Greenwich_Medical_Spa	B	40.98527	-73.77679
Eye_Surgery_Center_of_Westchester	A	40.925914	-73.804554
Wilmont_Pharmacy	A	40.979559	-73.801451
Holy_Light_House_Church	A	40.920135	-73.78722
Our_Smoke_Shop	C	40.92287	-73.787487
La_Parisienne_French_Bakery	E	40.927868	-73.75199
La_Dentelliere	C	40.989171	-73.807792
W_I_S_E_Agency	C	40.904724	-73.787496
Lowell_Shelton_Salon_&_Beauty_Bar	B	40.904757	-73.788208
Social_Security	A	40.912897	-73.779168
Greyhound	E	40.910954	-73.778025
Vision_Of_Tomorrow_Salon_&_Spa	B	40.927958	-73.752198
Salesian_Missions	B	40.915518	-73.766877
NY_Sports_and_Spinal_Physical_Therapy	A	40.986115	-73.808743
Empire_Foot_Care_PC	A	40.909571	-73.780185
Critter_Sitters	B	40.90213	-73.775657
Pediatric_Ophthalmology_Of_New_York	A	40.988036	-73.824923
Giacomo_Service_II	C	40.929003	-73.764078
Barbara_W_Gottlieb	A	40.932823	-73.749334
Educational_Tools_'N_Toys	C	40.907015	-73.784082
Janeth's_Salon	B	40.910512	-73.78254
Starbucks	B	40.932235	-73.759653
Benny's_Tree_Service	D	40.915844	-73.782765
Boys_&_Girls_Clubs_of_America	B	40.910097	-73.798206
Flowerbake_by_Angela	D	40.91315	-73.808485
Marshalls	C	40.890876	-73.821125
Fuji_Mountain_Japanese_Steakhouse_&_Sushi	B	40.922985	-73.76091
Davis_Park	B	40.97999	-73.795142
Hernan_Prada_Hair_&_Dry_Bar	B	40.977321	-73.806169
Quaker_Ridge_Chiropractic	A	40.96067	-73.795233
Hoff_Barthelson_Music_School	C	40.987628	-73.804237
Wolfs_Lane_Park	B	40.907736	-73.811129
Westchester_Floral_Decorators	C	40.905429	-73.812308
Elegance_Nails_&_Spa_NY	B	40.985675	-73.810304
Center_For_Counseling_&_Psychological_Svces	A	40.935372	-73.756314
Boston_Market	B	40.999852	-73.814643
Sammy's_New_York_Bagels	B	40.980347	-73.776492
Cosme_Jacqueline_MD	A	41.005354	-73.812476
Walk_In_Family_Dental_Office	A	40.910231	-73.788911
Central_Physical_Therapy_Assoc's_PC	A	41.00536	-73.812475
Cathy_Devore_Houlihan_Lawrence	C	40.929425	-73.751137
Verizon_Authorized_Retailer	C	40.890572	-73.818231
Carvel	B	40.923636	-73.787921
Lomonaco_S_MD	A	40.935323	-73.755876
Bel_Aqua_Pool_Supply	C	40.914004	-73.781208
A_Cut_Above_Color_Group	B	40.948591	-73.792334
Isaac_E_Young_Middle_School	A	40.902498	-73.777753
Provisions_Bake_Shop	E	40.906647	-73.811665
Cap's_Corner_Deli	C	40.977791	-73.806753
360_Huguenot	C	40.907231	-73.785086
Chico's	C	40.970985	-73.80672
Coldwell_Banker	C	40.98813	-73.808196
Queens_Wig_Corporation	A	40.908905	-73.781862
Citibank	C	40.995146	-73.819861
Jeffrey_N_Pike_DDS	A	40.976868	-73.80219
Mount_Tom_Day_School	A	40.894079	-73.789755
County_Beverages	C	40.905236	-73.788822
Hausen_Scott_Dpm	A	40.909559	-73.780198
Enterprise_Car_Sales	C	40.91319	-73.777306
Marine_Supply_&_Service	C	40.902193	-73.791632
Jay's_Wines_&_Liquors	C	40.932225	-73.763342
La_Flor_De_Michoan	B	40.9096	-73.794224
United_Gourmet_Deli	B	40.915522	-73.785105
Dunkin'	B	40.90666	-73.777612
Dubrovnik_Restaurant	B	40.903603	-73.789156
Valeriy_Kanatov_DDS	A	40.905856	-73.787093
Scarsdale_Dental_Specialists	A	40.995354	-73.818101
Matthew's_BBQ_Stand	B	40.935353	-73.759682
Synergy_Laser	B	40.908436	-73.782783
Larchmont_Chrysler_Jeep_Dodge	C	40.92037	-73.764494
Jennifer_Fischman_Houlihan_Lawrence	C	40.988478	-73.807958
Citibank	C	40.891086	-73.818739
Pizza_&_Brew_Scarsdale	B	40.995009	-73.819978
Prestige_Barber_Shop	B	40.922867	-73.788177
Sals_Pizza_Ii	B	40.947753	-73.79426
Crystal_Nail_Salon	B	40.907751	-73.779241
Peaceful_Living_Mental_Health_Counseling	A	40.97875	-73.80613
Zion_Evangelical_Baptist_Church	A	40.913877	-73.786534
Harbor_Hypnotherapy_&_Healing_Life's_Losses	A	40.931765	-73.760109
C_J_Cullen's_Tavern	B	40.906503	-73.773893
Larchmont_Deli	B	40.921324	-73.763349
Stamen_Animal_Hospital	A	40.948309	-73.793352
Dentserv_Dental_Services_PC	A	40.894494	-73.820811
Rebecca_Creation_And_Spa	B	40.97093	-73.795347
Edythe_Adler_Psy_D	A	40.981542	-73.8118
Cellar_39_Wine_&_Spirits	C	40.907724	-73.779377
Coleman_School_of_Dance	B	40.916282	-73.784743
Union_Japanese_Church_of_Westchester	A	41.010936	-73.793113
Advance_Auto_Parts	C	40.907679	-73.778542
Boost_Mobile	C	40.914936	-73.785076
Hommocks_Park_Ice_Rink	B	40.93341	-73.745463
A&d_Wireless_New_Rochelle	C	40.909052	-73.780899
Premier_Pilates_&_Yoga	B	40.909753	-73.780918
Scarsdale_Gallery	C	41.006078	-73.811923
Blanfil_A_Beauty_Lounge	B	40.978919	-73.808229
Primerica	A	40.907943	-73.782197
Tejeda_Deli_Grocery	B	40.909342	-73.796066
Wheel_Sport_Center	C	40.906512	-73.786491
Bodyware	B	40.915059	-73.807635
Mornaghi_Ricardo_A_PC	A	40.911751	-73.788019
KFC	B	40.918891	-73.786768
Twins_Star_Cafe	B	40.913621	-73.779315
LaGravinese_Jewelers_of_Pelham	C	40.912462	-73.8093
Phyllis'_Salon	B	40.915077	-73.807945
Open_Door_Educational_Consultants_LLC	A	40.959249	-73.777996
Green's_Natural_Foods	C	40.97452	-73.802815
Bango_Bowls_Scarsdale	B	40.989356	-73.807305
Pacia_Family_Dental	A	40.90208	-73.81174
Your_Wireless	C	40.915179	-73.807946
The_Glass_Room	C	40.908267	-73.781685
Four_Corners_Pizza	B	40.895822	-73.805163
Union_Taxi_Service	C	40.909361	-73.793913
Larchmont_Barber_Shop	B	40.931918	-73.759293
Westchester_Periodontics	A	40.976769	-73.804581
Joe_Carelli_Plumbing_&_Heating	C	40.922459	-73.763116
33_Lincoln_Avenue	C	40.91631	-73.810778
Excel_Martial_Arts	B	40.92922	-73.763746
Westchester_Collision_&_Recovery	D	40.88991	-73.817885
Antonio's_Barber_Shop	B	40.932039	-73.760492
Alain_A_Le_Guillou_Md	A	40.930033	-73.76265
Dream_Dry_Scarsdale	B	40.98898	-73.806538
Rothman's	C	40.989271	-73.807074
Bella_Nails_&_Spa	B	41.002166	-73.8137
PORSCHE_LARCHMONT	C	40.921285	-73.764733
24_Hour_Fitness	B	40.998935	-73.814859
Papyrus	C	40.969986	-73.805604
Supply_Field	B	40.986217	-73.776671
Michael_G_Mruz_LCSW_PC	A	40.98936	-73.807268
Candis_Nail_&_Hair	B	40.973155	-73.804207
SCARSDALE_FORD_INC	C	40.993641	-73.82089
Premier_Dog_Walking_of_Westchester	B	40.899972	-73.812198
Taco_Bell	B	40.912851	-73.775707
Larchmont_Temple_Inc	A	40.924792	-73.748891
Com_Fit_Shoes	C	41.006094	-73.811932
Lokesh_Reddy_MD	A	40.969433	-73.806122
Zero_Gravity_Moving	E	40.930413	-73.762049
Kahn_Max_MD	A	41.005364	-73.812493
Patriot_National_Bank	C	41.005415	-73.812281
Western_Dragon_Healing_Arts	B	40.93004	-73.762686
Squiggy's_Dugout	C	40.914888	-73.772439
TD_Bank	C	40.915463	-73.807815
Joel_Ross_Tennis_&_Sports_Camp	B	40.981232	-73.778571
Chopt_Creative_Salad_Co	B	40.984383	-73.777019
Acu_Nutrition	A	40.913098	-73.790624
Sherwin-Williams	C	40.921929	-73.772559
Ucabing_Taxi_Car_and_Limo_Service	C	40.918553	-73.76695
Montessori_School_Of_New_Rochelle_In_Pelham	A	40.88697	-73.791757
Bodyware_Personal_Training	B	40.915023	-73.807622
Westmed_Medical_Group	A	40.913011	-73.780396
Five_Islands_Park	B	40.91374	-73.765344
Scovotti_Insurance_Agency	C	40.916178	-73.806934
DeCicco_Family_Markets	C	40.990008	-73.807524
Barksdale_Home_Care_Services	B	40.913021	-73.808549
Bank_of_America	C	40.901727	-73.791603
Gisele's_Salon	B	40.928414	-73.752206
Reisfeld_Arnold_DDS	A	40.910535	-73.79457
Scarsdale_Clocks	C	40.932978	-73.759433
Lenny's_Bagels	B	40.895925	-73.805293
Faith_Temple_C_O_G_I_C	A	40.917343	-73.791686
Rosario_of_Westchester_Tailoring_and_Alterations	E	40.919689	-73.805181
Allstate_Insurance	C	40.914883	-73.772583
Signature_Bank	C	40.947004	-73.795284
Archway_Plaza	C	41.009102	-73.809542
WVS_Solutions	C	40.923165	-73.803934
Michael_and_Victoria_Sherman_DDS	A	40.909378	-73.779935
Petco	C	40.937429	-73.745841
Lane_Bryant	C	40.890601	-73.820943
New_Rochelle_Farmers_Market	C	40.909733	-73.782516
Jozef_M_Debiec_MD_NY_Pain_and_Spine	A	40.979023	-73.807491
Beautiful_Beginnings_3D_Imaging	A	40.991529	-73.823067
Quaker_Ridge_School	A	40.968026	-73.771243
Iris_Nail_&_Spa	B	40.989577	-73.807764
Scarsdale_Pediatric_Dental_Associates	A	40.974592	-73.803903
Stephanie's_Kloset	C	40.93241	-73.759478
Levi_Michael_MD	A	41.005347	-73.812504
Michaels_Stores	C	40.892947	-73.818066
Derek_Soohoo_MD_FACS	A	40.913616	-73.779306
Touche_Moi_Massage_of_New_Rochelle	B	40.911861	-73.782424
Mixed_Enerjy	B	40.928434	-73.751303
Carvel	B	40.946698	-73.794453
Henry_Cohen_DC	A	40.932864	-73.761829
Greenburgh_Nature_Center	B	41.00502	-73.807072
New_York_Sports_Club	B	40.969957	-73.805678
Aspen_Park	B	40.987698	-73.765172
Pelham_Collision_Center_Inc	D	40.915736	-73.808631
Boys_&_Girls_Clubs_of_America	B	40.930019	-73.753127
Lief_Erickson_Park	B	40.906514	-73.773377
Dudley's_Parkview_Restaurant	B	40.907902	-73.770769
Sweet_Potatoes_Restaurant	B	40.9157	-73.784826
Central_Square_Cafe	B	40.993814	-73.819415
VCA_Animal_Hospitals	A	40.935322	-73.74839
Pinebrook_Park	B	40.928932	-73.762901
Matthew_Kates_MD_FACS	A	40.913627	-73.779314
Orangetheory_Fitness	B	40.988749	-73.824697
Spencer_Management_Corporation	A	40.922308	-73.765374
Sue's_Corner	C	40.914961	-73.807665
Jewel_of_Himalaya	B	40.997208	-73.817574
Trocchia_Stanley_DDS	A	40.970127	-73.785537
Prospect_Hill_School	A	40.890112	-73.808466
Ridgewood_Savings_Bank	C	40.897121	-73.778065
Love_Music	C	40.914048	-73.784529
Spinous_Chiropractic_and_Spinal_Decompression	A	40.913411	-73.786196
Town_Pizza_House_Restaurant	B	40.910559	-73.781142
King_China_Buffet	B	40.986593	-73.826362
Jack's_Barber_Shop	B	40.928608	-73.752499
Monroe_College_New_Rochelle_Campus	A	40.911526	-73.776694
Standing_Room_Only_Fine_Foods_Fine_Catered_Events	B	40.981485	-73.776545
Cranial_Technologies	A	41.005363	-73.812509
George_M_Davis_Elementary_School	A	40.973989	-73.785346
Dave_&_Buster's	B	40.892678	-73.820396
Barre10	B	40.946953	-73.796877
Mattress_Firm	C	40.900166	-73.793944
Advanced_Urology_Centers_of_New_York_Scarsdale	A	40.969388	-73.806257
Wise_Hardware	C	40.912881	-73.809194
New_York_Liquor	C	40.928962	-73.764744
New_Golden_Wok	B	40.910599	-73.781771
Rosehip_&_Linnea	C	40.987628	-73.809868
Taqueria_El_Chino	B	40.907776	-73.784092
The_Pre_School_Learning_Center_Inc	A	40.927166	-73.794162
The_Tile_Shop	A	41.007697	-73.810782
Applebaum_Glen_M_DDS	A	40.948423	-73.792465
Agape_Leaders_Institute	A	40.947293	-73.795251
Mezzaluna_Pizzeria_&_Restaurant	B	40.996973	-73.817788
Billy_Shears_Hair_Studio	B	40.916387	-73.807384
New_Rochelle_Fire_Department_Station_3	A	40.92706	-73.789552
Brooks_Brothers	C	40.970005	-73.805604
Hartley_Field	B	40.918061	-73.789141
Tiso_Appliance	C	40.909638	-73.811008
Dunia_Ghabour_Brow_Design	B	40.911937	-73.782132
NEW_ROCHELLE_HYUNDAI	C	40.917621	-73.768979
Popeyes_Louisiana_Kitchen	B	40.918677	-73.777358
LensCrafters	A	40.96877	-73.807106
New_York_Athletic_Club_Travers_Island	B	40.886094	-73.791479
Lenny's_Auto_Clinic	C	40.977397	-73.805466
Presbyterian_Church_of_New_Rochelle	A	40.90481	-73.785143
Dunwoodie_Park	B	40.979792	-73.804605
Wynmor_Park	B	40.986781	-73.773548
Farmers_Insurance_Group	C	40.976028	-73.802598
Cosi	B	40.948776	-73.79205
Hommocks_School	A	40.935257	-73.747143
Christian_Bros_Inst	A	40.928108	-73.785232
Village_Mercantile	C	40.929869	-73.752103
Croen_Kenneth_D_MD	A	40.986387	-73.775612
Chop_Stix	B	40.987643	-73.809808
Starbucks	B	40.926615	-73.789378
European_Wax_Center_(EWC)	B	40.922399	-73.77333
Halpern_Judith_P_MD	A	40.988347	-73.807094
Lupitas_Tattoos	B	40.908688	-73.782433
Faith_Temple_Church_of_God_In_Christ	A	40.917325	-73.791711
Battaglia_Bros	B	40.90797	-73.779446
Ricardo_Arayata_MD_FACAAI	A	40.913545	-73.779513
La_Michoacana_Grocery	C	40.909657	-73.791081
Avis_Rent_A_Car	C	40.912224	-73.783926
Chicken_Joes	B	40.92721	-73.789475
Hair_Venture	B	40.985835	-73.8102
Foodtown	C	40.895586	-73.778952
BJ's_Wholesale_Club	C	40.894093	-73.817795
Youtherapy_Medical_Scarsdale	B	40.989009	-73.808982
Vintology_Wine_&_Spirits	C	40.984412	-73.774814
Bango_Bowls_Larchmont	B	40.928664	-73.751591
Scarsdale_Chinese_Internal_Martial_Arts_Center	B	41.004308	-73.813216
Larchmont_Nails	B	40.933109	-73.761722
Westchester_Fight_Club	B	40.920349	-73.788317
Scarsdale_Family_Dental	A	40.978204	-73.806292
Scaggs_Clifton_G_Dr_Poditrst	A	40.970679	-73.806144
Cheema_Mohan_MD	A	40.912976	-73.791621
Haiku	B	40.97958	-73.801582
Chase_Park	B	40.989661	-73.805709
Care_Plus_Solutions	A	40.990018	-73.806325
StarLight_Beauty_Salon	B	40.948584	-73.792336
Airohub	B	40.913944	-73.777795
Sports_Clubs_Network	B	40.912708	-73.781644
Escape_Latino	B	40.899091	-73.798457
Comfort_Keepers	B	40.920016	-73.785934
Dollar_Tree	C	40.917186	-73.785192
Lorenzen_Park	B	40.922799	-73.757782
Fred's_Beauty_Salon	B	40.908581	-73.782904
Sonny_Orza_Bread_Factory	E	40.908658	-73.788049
McKiernan's_Lawton_Street_Tavern	B	40.910549	-73.782395
Riordan_Timothy_G	C	40.905874	-73.789938
Scarsdale_Shopping_Center_Assocs	C	40.970729	-73.790412
Espresso_Cafeto	B	40.9384	-73.746454
Crown_Fried_Chicken	B	40.914721	-73.785029
Quest_Diagnostics	A	40.91247	-73.790518
Boys_&_Girls_Clubs_of_America	B	40.973941	-73.785354
Huntington_Learning_Centers	A	40.971535	-73.806161
Central_Park_Dance	B	41.006053	-73.809912
Catalano_Louis	A	40.988309	-73.80711
Autopart_International	C	40.89029	-73.818125
Labriola_Field	B	40.972917	-73.809326
Rooftop_Rhythms	B	40.908233	-73.782128
Lira's_Upholstery	C	40.902609	-73.790052
Iron_Vault	B	40.985763	-73.809976
NEW_ROCHELLE_CHEVROLET	C	40.913714	-73.774379
Trader_Joe's	C	40.972326	-73.804917
Tequila_Sunrise	B	40.928589	-73.752292
Beryl_M_Winston_LMT	B	40.948573	-73.792343
AutoZone	C	40.902064	-73.790942
Lucia's_Nail_Salon	B	40.906075	-73.785414
Papa_John's	B	40.906746	-73.785221
Ups	C	40.889528	-73.822012
Arias_Garment_Care	E	40.914234	-73.794442
Grace_Tabernacle_Church	A	40.903201	-73.789669
Macelleria_Italian_Steakhouse	B	40.913347	-73.808387
Benchmark_Education_Company	A	40.913589	-73.779312
Sherwood's	B	40.927161	-73.752375
Luxuria_Nail_Bar	B	40.977324	-73.806164
Trinity_St_Pauls_Episcopal_Church	A	40.90951	-73.784561
Alfredo's_Pizza_Cafe	B	40.920678	-73.787406
Shiloh_Baptist_Church	A	40.916717	-73.794566
Unforgettable_Pet_Salon	B	40.945847	-73.795062
Kelly_Lesa_MD	A	40.948575	-73.792366
Sal's_Auto_Service	C	40.977986	-73.806001
Sidoti_Eugene_J_Jr_MD	A	40.969316	-73.806323
New_York_Sports_Club	B	40.932076	-73.763233
Little_Mexican_Cafe	B	40.907277	-73.784481
Trails_End_Deli	B	40.917629	-73.803287
Pelville_Coffee_&_Pastry	B	40.915383	-73.80746
Ivis_M_Getz_DMD	A	40.913094	-73.790646
Larchmont_Family_Chiropractic	A	40.932922	-73.761884
Yumi	B	40.893771	-73.820547
North_American_Investigations	D	40.968585	-73.806294
Manor_Market	C	40.897153	-73.804461
Holy_Cross_Church	A	40.954193	-73.79798
Great_Stuff	C	40.98998	-73.807046
Westchester_Yoga_Arts	B	40.910643	-73.782427
Virtual_Montessori	A	40.908473	-73.783251
Holsten_Jewelers	C	40.988994	-73.807325
Liebmans	C	40.908539	-73.781627
Bethesda_Baptist_Church_of_New_Rochelle	A	40.917397	-73.789523
Meritage_Restaurant	B	40.981772	-73.77654
Village_Square_Shopping_Center	C	40.938367	-73.746114
Nail_Pro	B	40.972475	-73.804699
Scarsdale_Bagels	B	40.987529	-73.809848
Beechwood_Auto_Body	D	40.905812	-73.792878
San_Yama_Bushi_Judo_&_Ju_Jutsu_School	B	40.906159	-73.785268
Taqueria_San_Antonio	B	40.909002	-73.795798
Levine_Nanci_MD	A	40.923579	-73.759595
Hair_Beauty_Supply	B	40.90801	-73.790097
Gynocology_And_Obstetrics_Associates	A	40.932246	-73.762454
Creative_Playtime_Grace_Evangelical_Lutheran_Church	A	40.983179	-73.807418
New_York_Hair_Salon	B	40.913765	-73.808752
Wilmont_Pharmacy	A	40.976546	-73.803295
Lutheran_Church_of_St_Luke	A	40.92716	-73.794152
Viva_Ranch_Fruit_Market	C	40.909606	-73.780965
Levy_Joel_DDS	A	40.925659	-73.761004
Greenvale_School	A	40.973288	-73.805995
Scarsdale_Pastry_Center	E	40.981354	-73.776542
Cynthia_B_Yalowitz_MD_Larchmont_Dermatology	A	40.932808	-73.759701
J_Cafe	B	40.908667	-73.811335
Greenacres_Playground	B	41.011928	-73.783781
Sweeets	C	40.932101	-73.759711
Creative_Learning_Center	A	40.911248	-73.780811
The_Color_Salon	B	40.979215	-73.807957
Bagel_Zone	B	40.914808	-73.772763
Vericker_Joseph_Photographer	A	40.977693	-73.80943
Kohli_Kavita	A	41.005347	-73.812498
Gandhi_Anjani_Dmd_Pc	A	40.979545	-73.801459
Dream_Clean_Auto_Spa	D	40.915278	-73.807312
Glam_Beauty_Bar	B	40.928483	-73.752892
Scarsdale_Children's_Hair_Salon	B	41.006051	-73.809938
S_H_Laufer_Vision_World	A	40.896045	-73.805008
Steven_J_Lee_MD	A	40.98828	-73.806666
Ko_Ko_Sushi	B	40.990201	-73.806782
Gjoko_Spa_&_Salon	B	40.933104	-73.761735
Habib's_Atmosphere_Is_Hair	B	40.908525	-73.782383
Westchester_Institute_of_Computer_Tech	A	40.910042	-73.78017
Patsy's_Pizzeria	B	40.908689	-73.772104
Mattress_Firm	C	40.938986	-73.745053
Performance_Title_Agency	C	40.933668	-73.747902
AT_Equipment_Sales	C	40.976249	-73.804164
Las_Palmas_Restaurant	B	40.908305	-73.78178
New_Roc_Foods	C	40.905759	-73.788683
Ortho_Rite	B	40.929102	-73.769215
Ray_Catena_Lexus	C	40.932409	-73.748455
Manor_Park_Deli	B	40.928302	-73.752044
El_Trigal	B	40.909303	-73.794035
New_Natural_Nail	B	40.908952	-73.780997
Scarsdale_Medical_Group	A	40.986382	-73.775614
Walgreens	A	40.99366	-73.81956
Chase	C	40.905873	-73.774154
Relig	A	40.911081	-73.786032
Hibachi_Express	B	40.910403	-73.780899
Boulder_Brook_Field_And_Winston_Field	B	40.980678	-73.76348
Center_for_Montessori_Education_NY	A	40.913925	-73.77774
Keller_Williams	C	40.973629	-73.803279
Panera_Bread	B	40.891444	-73.818976
Fresenius_Kidney_Care	A	40.912879	-73.787431
HSBC_Bank	C	40.912079	-73.809016
St_Paul's_F_B_H_Church	A	40.91651	-73.790781
10538_Bicycles	C	40.928442	-73.752741
La_Esquina_Salvadorena	B	40.908396	-73.78268
Robert_M_Schwarcz_MD_FACS	A	40.989366	-73.807286
Camp_Gan_Israel_of_Westchester_Chabad	A	40.988954	-73.807366
Bubble_Shop	B	41.009047	-73.809641
Wine_Stop_&_Spirits	C	40.969968	-73.805912
Subway	B	40.923572	-73.787923
Adams_Paiva_Elizabeth_DDS	A	40.988049	-73.824941
JayWay_Travel	B	40.888547	-73.790751
Best_In_Show_Dog_Training	B	40.935689	-73.770179
Flint_Park	B	40.931088	-73.744904
ConocoPhillips	C	40.929638	-73.763299
Vernon_Place_Shops	C	40.970987	-73.80658
Lily_Nail_Spa	B	40.920478	-73.765205
J&K_Healthcare_Services	B	40.913057	-73.778911
Roosevelt_Park	B	40.943952	-73.796603
Maestro's	B	40.946987	-73.795477
Mobile_Rescue_Larchmont	C	40.932462	-73.75954
Raymond_Opticians	A	40.908627	-73.782488
Hyatt_Field	B	40.982787	-73.801862
Divine_Beauty	A	41.004264	-73.813217
Klein_Steven_S_MD	A	40.912474	-73.790508
Irene_Yu_MD	A	40.913625	-73.779325
Lupe's_Deli	B	40.909534	-73.794577
FedEx	C	40.974624	-73.803899
Highridge_Bagels	B	41.007795	-73.810738
Union_Baptist_Church_Office	A	40.910174	-73.778867
Sound_Bound_Fishing_Charters	C	40.907967	-73.770673
Loupino's_Delicatessen	B	40.905676	-73.774342
Chase	C	40.934819	-73.748242
Ethnika_H_Decor_&_Antiques	C	40.92872	-73.771448
Larchmont_Manor_Park	B	40.917298	-73.746274
Madison_Kitchen	B	40.932359	-73.762859
HomeGoods	C	40.922866	-73.77292
XS_Studios	A	40.916514	-73.785601
Sports_Clubs_Network	B	40.932145	-73.763285
Dental_Arts_of_Scarsdale	A	40.979212	-73.807965
Ann_Taylor	C	40.970037	-73.80584
New_Rochelle_Physical_Therapy	A	40.909542	-73.780177
Henry_S_Levin_MD	A	40.90585	-73.787109
Mona_Lisa_Salumeria	B	40.979596	-73.801572
SIA_Tax_Relief	A	40.915458	-73.785117
Dominic's_Fine_Cigars	C	40.929316	-73.751206
Quality_Sewer_and_Drain_Service_Inc	C	40.915814	-73.810531
Bank_of_America	C	40.984534	-73.776753
Ainsworth_Larosa_Diane_MD	A	40.970655	-73.806152
Kitchen_Design_Studio_of_Pelham	C	40.915854	-73.807635
Fidelity	A	40.995889	-73.819068
Caridad_&_Louie's_Restaurant	B	40.911036	-73.781536
BP	C	40.890822	-73.817451
Kennedy_Fried_Chicken	B	40.914715	-73.785032
Freshreno_New_York	B	40.898821	-73.799039
Calligaris	C	41.009682	-73.809182
Lazarus_Herbert_MD	A	41.005336	-73.812486
Richard's_Passport	C	40.910159	-73.810591
Mattys_Auto_Body	D	40.97798	-73.805974
Beldoro	B	40.904823	-73.773891
Achieve_Physical_Therapy_and_Performance_Enhancement	B	41.011034	-73.808346
PURE_Salon	B	40.981214	-73.776579
All_Makes_Leasing	C	40.927846	-73.766029
Sound_Shore_Dialysis_Center	A	40.912777	-73.787499
STS_Tire_&_Auto_Centers	D	40.926738	-73.75206
Scarsdale_Metro	B	40.988306	-73.808209
American_Legends	C	40.986452	-73.826572
Blue_Dog_Wine_&_Spirits	C	40.90657	-73.811559
TD_Bank	C	40.994867	-73.818563
Achievement_Learning_Center	A	40.927099	-73.752459
Parras_Antonio_MD	A	40.983397	-73.788272
Menken_Norman_DDS	A	40.943219	-73.799729
FedEx	C	40.997499	-73.817658
Cosi	B	40.937086	-73.747311
Profile_by_Sanford_Scarsdale	B	40.980498	-73.776528
Vernon_Hills_Center	C	40.971421	-73.804215
Crossway_Field	B	40.979688	-73.764839
Gourmet_Express	B	40.890439	-73.817497
GameStop	C	40.893083	-73.819657
Ted_Herrmann's_Auto_Body	D	40.977567	-73.804649
St_Augustine's_Religious_Education	A	40.927069	-73.750652
Pizzarelli's_Pizza_&_Pasta	B	40.989068	-73.808962
Guttenberg_Jane_MD	A	41.005349	-73.812471
Contemporary_Dental_Implant_Centre	A	40.988029	-73.824912
Annie_Sez	C	40.992355	-73.823039
Dale_M_Karp_Lcsw	A	40.982158	-73.811902
United_States_Postal_Service_(USPS)	C	40.929853	-73.751078
Grow_Your_Revenue	C	40.920962	-73.787147
Dunkin'	B	40.936228	-73.746751
Action_Computer	C	40.930838	-73.761689
Spectators_Sports_Pub	B	40.910523	-73.780983
Momotaro	B	40.989625	-73.807571
New_Great_Wall	B	40.91437	-73.77355
Chase	C	40.911833	-73.809694
DeCicco_and_Sons	B	40.91208	-73.809601
East_Coast_Auto_Body_Inc	D	40.931	-73.766977
Mckenna_Family_Chiropractic	A	40.919931	-73.804626
Buon_Amici_Delicatessen	B	40.985682	-73.808831
Kids_Are_People_2	A	40.982556	-73.779726
Kidz_Korner_Of_New_Rochelle	A	40.893768	-73.776739
Dogtopia	B	40.928997	-73.770486
Holy_Name_Of_Jesus	A	40.918379	-73.772001
Hartz_Cindi_MD	A	40.933155	-73.748292
Shooters_Lounge	B	40.908605	-73.77942
Shore_Road_Diner	B	40.897219	-73.777752
Lucente_Nursery	D	40.924297	-73.802367
Caracas_Fusion	B	40.908765	-73.782462
Juicy_Chicken_Peruvian_Rotisserie_Bar_&_Grill	B	40.908344	-73.78312
Agostino's_Italian_Ristorante	B	40.898781	-73.777848
Pel_Rochelle_Driving_School	C	40.92097	-73.787131
Total_Fitness_Center	B	40.977053	-73.80446
Eastco_Manufacturing	E	40.916081	-73.807603
Salesian_High_School	A	40.916708	-73.768387
Chase	C	40.984582	-73.77435
Jewels_by_Joanne	C	40.984433	-73.774779
TGI_Fridays	B	40.995309	-73.819719
Eye_Q_Optometrist	A	40.98474	-73.77781
Soleil_Beauty	B	40.948396	-73.792472
Shoe_Inn	C	40.984759	-73.777779
Chipotle_Mexican_Grill	B	40.893626	-73.821013
Dumont_Center_For_Rehabilation_and_Nursing	B	40.890094	-73.787155
Enchanted_Flower_Boutique	C	40.909147	-73.784056
Rescigno_Park	B	40.978389	-73.806625
St_James_the_Less_Nursery_School	A	40.989555	-73.79993
Anne_Eckhoff_DMD	A	41.006087	-73.811909
Joel_Wolfson_MD	A	40.939004	-73.795581
Standard_Parking	B	40.911553	-73.784096
Super_Seven_Hair_Salon	B	40.932921	-73.759307
Co_Co's_Unisex_Beauty_Salon	B	40.90101	-73.788258
Le_Comte_A_Co	C	40.889336	-73.785168
Spotlight_Gymnastics	B	40.895408	-73.80576
No_Limit_Home_Care_Agency	B	40.907757	-73.779269
Davenport_Park	B	40.896191	-73.771409
Larchmont_Pharmacy	A	40.92861	-73.765001
Marcello's_Hair_Secrets_Salon	B	40.986501	-73.826434
Main_Street_Deli	B	40.903411	-73.789404
Our_Lady_Of_Fatima_Church	A	40.980028	-73.816599
B&A_Froyo	B	40.923058	-73.788056
Computer_Perfect	C	40.913493	-73.78606
Planet_Fitness	B	40.910427	-73.779647
Surf_Club	B	40.897735	-73.770616
St_Gabriel's_High_Schl	A	40.911427	-73.787246
Mikvah_of_New_Rochelle	A	40.943929	-73.795499
Hart_Marion_MD	A	40.990569	-73.758948
My_Wild_Child_Nature_School	A	40.957588	-73.783575
Candlelight_Inn	B	41.004618	-73.812779
Radiant_Light_Skin_Care	B	40.913015	-73.778977
Villaggio_Ristorante_&_Pizzeria	B	40.906143	-73.811882
Atit_Thai_Restaurant	B	40.907373	-73.77916
Fantics_Photo	A	40.909139	-73.7816
Dr_Maxine_Helman	A	41.004303	-73.813191
Setsuko_At_Jean_Claude	B	40.984517	-73.774472
Merle_Norman_Cosmetics	A	40.988791	-73.807374
Fidelity_Investments	A	41.005187	-73.79084
Beth_El_Synagogue_Of_New_Rochelle_Inc	A	40.946621	-73.79648
USA_Car_Wash	D	40.891611	-73.817608
Salon_Pure	B	40.930577	-73.762208
New_Rochelle_Barber_Shop	B	40.927338	-73.789546
Electric_Beach	B	40.97466	-73.803882
D'Alba_IT_Services	C	40.935309	-73.756316
Boys_&_Girls_Clubs_of_America	B	40.902946	-73.775271
Chabelitas	B	40.916876	-73.778546
Visionique_Family_Eye_Care	A	40.913316	-73.789463
Columbus_Elementary_School	A	40.910126	-73.79798
Golden_Krust_Caribbean_Bakery_and_Grill	B	40.910614	-73.78102
New_China	B	40.928579	-73.753097
La_Fattoria	B	40.919362	-73.766584
Aspirations_Cafe	B	40.910751	-73.778174
Panera_Bread	B	40.99305	-73.822269
Mason_C_Alan	A	40.947308	-73.763184
Emanuel_A_M_E_Church	A	40.930089	-73.767382
Hour_To_Exit_Escape_Games	E	40.909479	-73.779993
L_&_R_Auto_Services_LLC	D	40.979888	-73.776374
Buglione_Stephen_PHD	A	40.989362	-73.807278
Ed_Morand_Muscle_Activation_Techniques_MATrx_Specialist	B	40.988318	-73.809709
Charlie's_Auto_Body	D	40.978606	-73.805363
Scarsdale_Ortho	A	40.986402	-73.775595
Tease_Hair_Studio	B	40.929444	-73.752369
Supersol_of_Westchester	C	40.984403	-73.777663
El_Jalisco	B	40.909456	-73.794908
Eastchester_Fish_Gourmet	C	40.976802	-73.802782
Mark_R_Weigle_MD	A	40.913093	-73.790644
Swan_Beauty_Spa	B	40.91432	-73.784584
L_Train_Cycling_Studio	B	40.930556	-73.762206
Prime_16	B	40.913766	-73.808249
Vogue_Nails	B	40.945725	-73.796063
Rosarito's_Deli_&_Grill	B	40.923761	-73.758715
The_Nurtury_Montessori_School	A	40.94082	-73.794602
Yum_Ice_Cream&Bubble_Tea	B	40.910647	-73.780982
Cooper_Field	B	40.975926	-73.800517
Ellen_Cohen_Lewis_DC	A	40.932821	-73.761854
Talbots	C	40.969324	-73.80648
Nordic_Edge	B	40.990152	-73.806671
ShopRite	C	40.991489	-73.823099
Webster_Bank	C	40.990009	-73.808142
West_Harbor_Yacht_Svce	C	40.889146	-73.785253
Stan'z_Cafe	B	40.929805	-73.752088
Pet_Goods	C	40.986962	-73.826073
Palmer_Avenue_Towing	C	40.927262	-73.773202
J_Mclaughlin	C	40.932076	-73.759727
Wallauer_Paint_&_Design	C	40.947619	-73.795357
Bmk_Stationery_&_Luncheonette	B	40.904223	-73.788519
Talbots	C	40.96932	-73.80647
Haagen_Dazs	B	40.990034	-73.807249
Coco_Nails	B	40.928525	-73.753007
Metropolitan_Japanese_Ministry	A	40.992684	-73.800553
Joseph_Genesi_RE_MAX_PRIME_PROPERTIES	C	40.98576	-73.808871
Glen_M_Applebaum_DDS	A	40.913948	-73.777835
LMC_Car_Wash	D	40.922731	-73.787778
76	C	40.907917	-73.811517
Danny's_Pelham_Manor	C	40.895371	-73.817653
Town_of_Mamaroneck	B	40.936604	-73.759725
Northeast_Acupuncture_Center	A	40.930556	-73.762168
Victory_Roofing	D	40.912718	-73.78157
T-Mobile	C	40.908197	-73.782383
The_Avenue_Deli_Cafe	B	40.925596	-73.788799
Dorchester_Fuel_Oil_Co	C	40.894227	-73.821101
Mezzaluna	B	40.977668	-73.806713
Iyengar_Yoga_Scarsdale	B	41.004292	-73.788941
Boys_&_Girls_Clubs_of_America	B	40.938097	-73.747612
Larchmont_Tavern	B	40.932386	-73.75817
Frank_&_Joe's_Deli_Of_Scarsdale	B	40.998324	-73.815272
VIP_Country_Club	C	40.892332	-73.776725
Boys_&_Girls'_Club_Of_New_Rochelle_Inc	A	40.974001	-73.78533
Cynthia_McIntyre_Photography	A	40.912685	-73.781606
Meringueshop	E	40.977048	-73.804282
Accu_Weight_Loss	B	40.974303	-73.802978
Best_Buy_Auctioneers	A	40.988324	-73.80714
Five_Below	C	40.892633	-73.818353
Pretty_Nail_Spa	B	40.988445	-73.809646
Buy_Buy_Baby	C	40.98909	-73.824685
J_&_F_Chatsworth_Autobody	D	40.935458	-73.758353
Sky_Zone	B	40.911044	-73.779652
Scarsdale_Synagogue	A	40.996544	-73.80371
Audiology_Associates_of_Westchester	A	40.986371	-73.775595
The_Revel_Studio	A	40.923256	-73.761704
Sapori_of_Scarsdale	B	40.988927	-73.806466
Public_Storage	C	40.890065	-73.816976
Nana's_Attic	C	41.007424	-73.809836
Hunan_Larchmont	B	40.931455	-73.760591
Clarke_Auction	C	40.923529	-73.761125
Shell_Oil	C	40.891567	-73.817902
Roc_Insurance_New	C	40.921327	-73.788101
Barbara_Gottlieb_ED_D	A	40.932822	-73.749333
Pasqua_Stephen_DDS	A	40.934525	-73.790638
Martine's_Fine_Bake_Shoppe	B	40.989678	-73.80775
AB's_cafe_&_grill	B	40.97606	-73.802612
RB_Fitness	B	40.904977	-73.787789
Chopt_Creative_Salad	B	40.984338	-73.777
Westchester_Sports_Physical_Therapy_PC	A	40.968568	-73.807034
Falvey_Kevin_J_DDS	A	40.896679	-73.806
Xanadu_Hair_Cutters	A	40.984915	-73.825373
GNC_(General_Nutrition_Centers)	A	40.909238	-73.780508
Dunkin'	B	40.897103	-73.804196
Greenacres_School	A	41.010376	-73.784556
New_Rochelle_Diner	B	40.900921	-73.793016
McDonald's	B	40.913489	-73.773511
Henry_Barnard_School	A	40.932781	-73.773185
Tai_Chi_School_of_Eternal_Energy	B	40.979136	-73.807751
Radisson	B	40.913966	-73.777882
Barry's_Bootcamp	B	40.985311	-73.776759
French_Speaking_Baptist_Church	B	40.908355	-73.781373
Michael_Mazzilli_Ameriprise_Financial_Advisor	A	40.978178	-73.806349
Jennifer_Pichardo_DDS_PC	A	40.913096	-73.790649
New_Rochelle_Fire_Department_Station_2	A	40.909268	-73.791746
Lord_and_Beauty_Salon	B	40.906369	-73.785055
Deanna's_Pizzeria_&_Restaurant	B	40.945782	-73.795944
Laser_Frame_&_Body_Repair	D	40.925891	-73.77221
Scarsdale_Library	B	40.99786	-73.789876
New_Rochelle_Seventh_Day_Adventist_Church	A	40.918654	-73.796826
Montefiore_New_Rochelle_Hospital	A	40.912775	-73.787598
Seth_Greenbergs_Just_Desserts	C	40.933659	-73.758477
Usmex	B	40.914573	-73.79459
Barnes_and_Noble	C	40.969299	-73.80674
Aventura_Deli_&_Grocery	C	40.914126	-73.794404
John_F_Como_DDS	A	40.913086	-73.790646
SLT	B	40.984952	-73.775014
Alpiar_&_Papa	C	40.931223	-73.761787
Ira_Berman_DMD	A	40.93083	-73.761692
Specialty_Photographic	A	40.920895	-73.804766
Estelle_Gourmet	B	40.931258	-73.761028
Talner_Fine_Jewelry_and_Giftware	C	40.90757	-73.783913
New_York_Fitness_Professionals	B	40.913336	-73.786075
Peridot_Fine_Jewelry_Inc	C	40.928071	-73.752248
Successful_Vision	A	40.912446	-73.808849
Fox_Meadow_School	A	41.002545	-73.791307
Beth_Emeth_Synagogue	A	40.928003	-73.751392
Bonasera's	B	40.929691	-73.751766
Kenneth_M_Trotta_Chiropractor	A	41.005341	-73.812511
New_Rochelle_Fire_Department_Station_1	A	40.912768	-73.778797
Muscolino_Paul_A_Dc	A	40.983026	-73.779117
Barnes_&_Noble_Iona_College	C	40.926576	-73.786549
Global_Coverage	C	40.935404	-73.756285
Branches_of_Beauty	A	40.976512	-73.803536
Kosterich_Steven_E_Dr_Chirprctr	A	40.904678	-73.775152
Alborada_Florist	C	40.914245	-73.774031
United_States_Postal_Service_(USPS)	C	40.911662	-73.781728
Chase	C	40.968663	-73.807466
Boys_And_Girls_Club_Of_New_Rochelle_Ward_Elem_School	A	40.955935	-73.783643
Wyatt_Lily	C	40.988924	-73.807382
Scarsdale_Florist	C	40.909447	-73.783684
Sports_Clubs_Network	B	40.969949	-73.80566
Giacomo_Service_Center	C	40.932973	-73.764722
Boost_Mobile	C	40.907329	-73.784289
Flowers_by_Sutton	C	40.909699	-73.783551
GameStop	C	40.910815	-73.779863
El_Sabor_De_Mi_Tierra_Restaurant	B	40.908477	-73.784431
L_and_R_Auto_Service	C	40.979882	-73.776365
Arnold_K_Davis_Insurance	C	40.916178	-73.806943
Boys_&_Girls_Clubs_of_America	B	40.955549	-73.783761
Westchester_Jewelers_&_Pawnbrokers	C	40.91009	-73.780649
Leonardo's_Restaurant_&_Pizzeria	B	40.928988	-73.764742
Rubin_Mitchell_DPM	A	40.923386	-73.760283
North_Dental_General_&_Cosmetic_Dentistry	A	40.921134	-73.787094
Dermatology_Associates_of_Westchester_P_C	A	40.913078	-73.790647
North_River_Deli	B	40.92458	-73.787743
Lakeshore_Learning_Store	C	40.991344	-73.822903
Susan_Klugman_MD	A	40.923553	-73.759518
Westchester_Tile_&_Marble_Corp	C	40.976404	-73.804678
Glen_Island_Park	B	40.885262	-73.784541
DCAP_New_Rochelle_BIC	C	40.910912	-73.781916
M_&_S_Men's_Hair_Styling	B	40.914769	-73.808209
Cousins_Cigars_&_Hookah_Lounge	C	40.914607	-73.77271
McDonald's	B	40.926155	-73.789133
Joyce_Nail_&_Foot_Spa	B	41.002181	-73.813712
Station_Cafe	B	40.911361	-73.784245
Trustco_Bank	C	40.912952	-73.808586
Elite_Life_&_Fitness	B	40.981402	-73.776563
Denny's_Fashion_Style_For_All	C	40.991453	-73.823061
Joel_F_Levy_DDS	A	40.93007	-73.762668
Wine_Bazaar	C	40.922313	-73.773714
Great_Play	A	40.991574	-73.823089
Colonial_Village_Flowers	C	40.981531	-73.776543
Joseph_Cara	B	40.979008	-73.807275
Bezer_Holiness_Church	A	40.906991	-73.785872
Greenville_School	A	40.997914	-73.826662
Michael's_Barber_Shop	B	40.987124	-73.810227
Ny_Athletic_Boat_Club	C	40.887445	-73.787574
Hudson_Valley_Bank	C	40.914409	-73.773353
The_Aesthetic_Medic	B	40.975802	-73.802604
Richard_D_O'Donnell	A	40.977221	-73.814917
Tiffany's_Nail_&_Spa	B	40.947221	-73.795225
Tower_Cafe	B	40.911959	-73.782149
Honda_of_New_Rochelle	C	40.919939	-73.765985
Larchmont_Meateria	C	40.929294	-73.752347
The_Guidance_Center_Of_Westchester_Inc	A	40.911232	-73.780825
State_Farm	C	40.932606	-73.762248
Gulf_Oil	C	40.90625	-73.785996
Noto's_Auto_Repair	D	40.926609	-73.771902
AT&T	C	40.912495	-73.809304
Lighthouse_Grill	B	40.908854	-73.782623
SOOP_Theatre_Company	A	40.919543	-73.804864
342_Family_Food_Market	C	40.91376	-73.784357
Greenville_Church_Nursery_School	A	40.992972	-73.81853
M&T_Bank	C	40.910161	-73.79666
Jade_Spoon_Asian_Cuisine	B	40.980533	-73.776597
Kinetic_Sports_Club	B	40.891853	-73.818166
North_End_Tavern	B	40.946454	-73.795273
Medi_Tresse_Westchester	B	40.988354	-73.80711
D'errico_jewelry	C	41.004906	-73.812765
Mariachi_Loco_II	B	40.998083	-73.815351
State_Farm	C	40.909064	-73.784155
Sutton_Real_Estate	C	40.903054	-73.776617
Todd_Wortman_DDS	A	40.913097	-73.790658
The_Men's_Wearhouse	C	40.997566	-73.817581
Grin_and_Bare_It	A	41.005333	-73.812482
HSBC_Bank	C	40.911026	-73.782102
Ward_Acres_Park	B	40.958586	-73.781673
Viking_Sewing_Gallery	C	40.991783	-73.823033
Tree_Of_Chocolate	C	40.932503	-73.759416
Westchester_Area_School	A	40.918553	-73.796649
Scarsdale_Towing	C	40.986328	-73.809616
Chris_Mongiello_and_The_Rock_Academy	C	40.906858	-73.783118
Trinity_Lutheran_Church	A	40.991487	-73.802583
Gennaros_Pizza_&_Pasta	B	40.997023	-73.817752
City_Cuts	B	40.915906	-73.807572
Kids_In_Sports	B	41.009263	-73.809525
Palmer_Jewelers	C	40.932347	-73.759516
Stonebridge_Pharmacy	A	40.895666	-73.81764
Boys_&_Girls_Clubs_of_America	B	40.910105	-73.79966
Viva_Grande_Ranch_Fruit_Market	C	40.908678	-73.785274
New_Roc_Deli	B	40.910372	-73.78103
Ramen_Musashi	B	40.975859	-73.802638
Infuse_Life	A	40.988355	-73.807121
Lineas_de_Naska	B	40.908066	-73.779565
FedEx	C	40.947225	-73.794021
Mike_Diffley_Golf_Shop	B	40.896111	-73.801015
Subway	B	40.896139	-73.778424
C_B_G_Investment_Advisors	A	40.973032	-73.773581
Butler_Field	B	40.993522	-73.795737
Julianne_Steiner_Studio	B	40.98443	-73.774734
Fratelli_Pizzeria	B	40.914348	-73.773627
Shake_Rattle_&_Roll_Music	C	40.976404	-73.803058
Village_Paint_Supply_Inc_01	C	40.929024	-73.751402
uBreakiFix	C	40.946411	-73.795211
The_Corner_Store	C	40.932656	-73.758693
Edis_Gloria_MD	A	40.989072	-73.809121
La_Placita_Fresh_Market	C	40.902427	-73.79027
Jennifer_Battaglino_LCSW	A	40.932837	-73.761839
Garth_Road_Park	B	40.980333	-73.812212
The_Wooden_Spoon	B	40.908529	-73.783317
Sunshine_Coffee_Roasters	B	40.931944	-73.759375
Deli_Mart	C	40.924576	-73.787732
Manor_Veterinary_Clinic	A	40.91558	-73.807332
Bradley's_Desserts_&_Cafe	B	40.929463	-73.75122
MC_Travel_Management	B	40.92837	-73.794334
Kids'_B_A_S_E_&_The_Little_School	A	40.979297	-73.761749
Therapeutic_Glamour	A	40.960302	-73.784271
Alan_M_Dattner_MD	A	40.901477	-73.770495
TNT_Auto_Sales	C	40.920345	-73.764521
Pelham_Plaza_Gourmet	B	40.920113	-73.805148
Dunkin'	B	40.916347	-73.810826
Balance_Yoga_&_Wellness	B	40.921491	-73.764346
The_UPS_Store	C	40.916118	-73.770389
Scarsdale_Health_And_Wellness	A	40.974312	-73.802939
Bayberry_Care_Center	B	40.891694	-73.784344
Lorusso_Guitar_Studio	C	40.924243	-73.792729
Winkler_Alan_MD	A	40.96936	-73.806367
Coughlin_Insurance_Services	C	40.932827	-73.761819
Southside_Dental_PC	A	40.913103	-73.79063
St_Catherine's_Parochial_Schl	A	40.912117	-73.812613
Hiren_J_Dave_MD	A	40.913347	-73.789457
House_Of_Wine	C	40.909788	-73.780928
Cermele_Bros_Garage	D	40.977978	-73.805964
Scarsdale_Board_of_Education	A	40.994901	-73.792929
Maisonette	C	40.933484	-73.761413
Holy_Family_Ccd	A	40.924214	-73.791358
Davenport_Club	B	40.897854	-73.772859
Rio_Bravo_Tacos_and_Tequila	B	40.933791	-73.758211
Ellen's_Spa	B	40.909826	-73.779706
The_Dicker_Reading_Method	A	40.979215	-73.808001
Walk2fit_Usa	B	40.985952	-73.81001
Advanced_Dentistry_of_Scarsdale	A	40.988506	-73.808066
Gymtime_Place	B	40.989769	-73.79514
New_York_Athletic_Club	B	40.887457	-73.787557
Searingtown_Dental_PC	A	40.913245	-73.789418
Shell_Oil	C	40.896406	-73.778388
Sun_Nail_&_Spa	B	40.946798	-73.794415
Paparazzi_Ready_NY	C	40.907746	-73.779233
Westchester_Speech_&_Language_Services	A	40.987905	-73.772338
Charles_Schwab	A	41.010259	-73.808519
Ashley_Furniture_HomeStore	C	40.897453	-73.79589
Alka_East_Electronics	C	40.980141	-73.809997
Repertoire_Dance_Shop	C	40.987168	-73.810242
Family_Christian_Center	A	40.90656	-73.784462
Vision_World	A	40.991461	-73.822998
Flywheel	B	40.985537	-73.808941
Midway_Wine_&_Liquor	C	40.990227	-73.823163
Zachys_Wine_&_Liquor_Store	C	40.989038	-73.807788
Iona_Preparatory_School	A	40.963773	-73.794139
Siam_Orchid_Thai_Restaurant	B	40.996878	-73.817197
Miss_Andrea's_Dance_Studio	B	40.976388	-73.803009
FunFuzion	B	40.911468	-73.779564
Downtown_Gold_City_Inc	A	40.902743	-73.789791
Raffi's_Red_Hot_Grill	B	40.987748	-73.837531
Daniel_DeSimone_RE_MAX_Prime_Properties	C	40.985761	-73.808849
Berta's_Deli_&_Grocery	B	40.914632	-73.78439
Starbucks	B	40.990115	-73.808114
Thelma_Jones_MD	A	40.975895	-73.787795
Jess_Nails	B	40.915431	-73.807468
Cave_Gail_Dr_DDS	A	40.98783	-73.825144
Sound_Shore_Pharmacy_Outpatient	A	40.912838	-73.787537
T-Mobile	C	40.934061	-73.748651
Pelhamwood_Taxi	C	40.910597	-73.810509
Master_Kim's_Scarsdale_Taekwondo	B	40.991415	-73.823121
Ahn_Stanley_S_DDS	A	40.988061	-73.824944
Yacine's_Place	B	40.910008	-73.780366
Mayfair_Dental_Associates	A	40.978735	-73.806162
New_Roc_Yamaha	C	40.906532	-73.786463
Salon_Camaj	B	40.947111	-73.795392
Sprint	C	40.915353	-73.807459
Jennifer_Convertibles	C	40.999266	-73.816318
Chiropractic_Health_Centers	A	40.960657	-73.795226
Wood_&_Fire	B	40.977686	-73.806675
Carpenter'S_Pond_Park	B	40.977322	-73.778797
Brook_Street_Hot_Bagels_&_Deli	B	40.978166	-73.807432
Neil_Kanner_DMD	A	40.987857	-73.82518
La_Casona_Mexican_Fusion_Cuisine	B	40.910039	-73.795884
Boys_&_Girls_Clubs_of_America	B	40.94324	-73.76234
Caribbean_Jerk_&_Juices	B	40.915354	-73.771656
Scarsdale_Integrative_Medicine	A	40.988356	-73.807131
Painting_with_a_Twist	A	41.009255	-73.809463
Saxon_Grill	B	40.977885	-73.759196
Early_Childhood_Center_Westchester_Reform_Temple	A	40.985446	-73.765161
Hynes_Athletics_Center	A	40.926498	-73.784709
Apple_Pro_Rehab	A	40.97958	-73.801594
Arteffects	C	40.919701	-73.805141
Blooming_Nail_&_Spa	B	40.897204	-73.77764
Weinstein_Harry_MD	A	40.987817	-73.825142
Sergio's_Ristorante	B	40.91883	-73.805795
Trax_Deli	B	40.933148	-73.759063
Constitution_Park	B	40.92655	-73.751199
Scarsdale_Congregational_Church	A	40.989653	-73.795077
Jinny's_Nails	B	40.914418	-73.793826
Caffe_Regatta	B	40.90865	-73.811367
Larchmont_Vision_Care	A	40.932506	-73.758362
Choice_Pet	C	40.984927	-73.775003
Kevin_Meacham_MD	A	40.929249	-73.750742
Posto_22	B	40.908681	-73.783499
Options_For_Wellness	A	40.975873	-73.78784
Ocean_Ridge_Capital_Advisors	A	40.912748	-73.779505
Pelham_Bakery	E	40.91299	-73.80913
Costco_Wholesale_Corp.	C	40.89605	-73.794913
Project_Rise_Adult_Learning_Center	A	40.907006	-73.779537
CVS	A	40.990674	-73.823088
Motion_Industries	C	40.915755	-73.808624
The_Juice_Shack	B	40.910133	-73.789873
Aztec_Sports	C	40.914206	-73.784641
Bernhardt_Bernard	A	40.913541	-73.787868
Sprint	C	40.892383	-73.820991
State_Farm	C	40.993784	-73.822548
Damm_Nice_Tattoos_and_Body_Art	B	40.996977	-73.817113
Richard_Kennedy_DDS	A	41.004291	-73.8132
Scarsdale_Dental_Team	A	41.005342	-73.812478
RLN_Advisors_&_Consultants	A	40.913621	-73.779319
Prime_Time_Cafe	B	40.946749	-73.795417
Pamela_Young_LCSW	A	40.988058	-73.763749
Sakana_Japanese_Cuisine	B	40.946022	-73.795091
Integrative_Rheumatology_of_Westchester	A	40.926286	-73.803915
Scoop_Shop	B	40.984351	-73.777561
Weight_Watchers	B	40.89823	-73.81378
Central_Physical_Therapy	A	41.005352	-73.812468
The_Mexican_Corner_Restaurant	B	40.909039	-73.781587
Total_Image_Hair_Salon	B	40.898802	-73.798928
Dualities_Antiques_&_Art	C	40.930054	-73.750787
U-Haul	C	40.90631	-73.794056
Supercuts	B	40.999756	-73.814788
Overton_Valarie_MD	A	40.96948	-73.806275
The_Wagon_By_the_Wooden_Spoon	B	40.908525	-73.783318
Mexico_Alegre	B	40.903107	-73.789697
A_Touch_of_Polish	B	40.98063	-73.776509
Augie's_Restaurant	B	40.932115	-73.757737
Edward_Jones	A	40.978759	-73.806136
Herbert_S_Smith_D_M_D	A	40.929133	-73.750797
True_Value_Hardware	C	40.911885	-73.774548
Central_Animal_Hospital	A	40.993112	-73.821544
Pro_Sports_Physical_Therapy_of_Weschester	A	40.988271	-73.806652
Great_Generations	A	40.933154	-73.758238
Meridian_Risk_Management	C	40.910541	-73.810425
Nduka_Ijeoma_MD	A	40.91342	-73.786183
Gap	C	40.935747	-73.747875
H&R_Block	A	40.909667	-73.780103
Greenburgh_Family_And_Cosmetic_Dentistry	A	40.895457	-73.782491
Village_Square_Bagels	B	40.938555	-73.746214
The_New_Rochelle_Day_Nursery	A	40.920698	-73.793272
Afif_Juan_MD	A	40.994327	-73.83427
Total_Dental_Care	A	40.917783	-73.787508
ShopRite	C	40.916479	-73.77893
Cohen_Martin_S_PHD	A	40.935339	-73.756309
Parras_Mary_MD	A	40.923525	-73.759629
County_Tennis_Club_of_Westchester	B	41.012871	-73.792836
Sun_Hing_Chinese_Take_Out	B	40.927355	-73.789517
Adam_&_Eve_Hair_Replacement_Center	B	40.996462	-73.817479
Nick's_Hair_Cutting_Salon	B	40.908959	-73.780979
Healthy_Kids_Extended_Day_Program	A	40.982769	-73.820083
Roberto's_Pizza_&_Pasta	B	40.900049	-73.787028
Academic_Security	A	41.002745	-73.814035
Scarsdale_Oral_Surgery	A	40.98804	-73.824926
M&J_Auto_And_Truck_Clinic	D	40.916685	-73.80732
Pediatric_&_Adolescent_Medicine_LLP	A	41.005351	-73.812492
La_Lettera_Calligraphy_NYC	A	40.89949	-73.803843
Simplee_Beautiful	B	40.948568	-73.792373
AccuCare_Wellness_&_Acupuncture	A	40.923211	-73.761665
Klar_Tobi_B_MD_PC	A	40.923563	-73.75959
Health_Street	A	40.913346	-73.78946
Double_Rainbow	B	40.906798	-73.811532
Playful_Wonders_Inc	A	40.898693	-73.809292
Smoke_&_Spice_NY_Grill	B	40.911058	-73.781153
Rosario's_Hair_Salon	B	40.946784	-73.794398
Golden_Day_Spa	B	40.985297	-73.776711
Downtown_Gold_&_Jewelry_Pawn	C	40.914308	-73.784178
Pepe's_Place	B	40.920923	-73.787631
NQ_Salon	B	40.977998	-73.806382
Choice_of_NY	A	40.916516	-73.785784
Auray_Gourmet	B	40.928371	-73.752791
Citibank	C	40.971916	-73.805583
Pop's_Espresso_Bar	B	40.914366	-73.773617
AT&T	C	40.909049	-73.78091
Smashburger	B	40.890118	-73.820601
Pediatric_Group_of_New_Rochelle_PC	A	40.913078	-73.790654
Scarsdale_Board_of_Ed	A	40.990108	-73.767263
Eyad_M_Hijazin_MD	A	40.923287	-73.760215
The_Vivid_Touch	B	40.948755	-73.792056
24_Hour_Fitness	B	40.892293	-73.820652
Go_Greenly	B	40.986975	-73.82411
Top_2_Nail	B	40.912967	-73.808639
St_Augustine's_Church	A	40.926608	-73.750079
360_Health_&_Performance	B	40.927399	-73.752262
Yoga_Haven_2	B	40.979029	-73.807263
Renee_M_Levine_DMD	A	40.995353	-73.818102
Richard_Langiulli_DMD	A	40.969515	-73.806271
The_Home_Depot	C	40.898974	-73.792708
Blakeman_Earle_C_DDS	A	40.896654	-73.806018
Allstate_Insurance	C	40.979552	-73.801448
Chase	C	40.988969	-73.807873
Russell_Cellular	C	40.915433	-73.771621
NDH_Mobile_Notary_Services	A	40.912722	-73.781689
Robert_Perler_DDS	A	40.913503	-73.786077
A_&_G_Happy_Kids	B	40.985746	-73.808848
Jay_Lippman_MD	A	40.92588	-73.804567
Mixwell_World	C	40.907485	-73.784204
Family_Chiropractic_&_Wellness_Center	A	40.9329	-73.761865
Safeguard_Self_Storage	C	40.898686	-73.791474
Dunkin'	B	40.980823	-73.776552
Home_Fair_Camera	C	40.936093	-73.747523
Harbor_One	C	40.896648	-73.78553
La_Piazza_di_Carolina_Italian_School	A	40.992975	-73.818535
Wells_Fargo	C	40.946541	-73.79525
Carlyn's_Cove	B	40.927746	-73.752059
Remi's_Place	B	40.898757	-73.799049
Amazing_Savings	C	40.992235	-73.823045
Iona_Preparatory_Lower_School	A	40.965778	-73.787955
German_Car_Svce	D	40.977892	-73.805604
Growing_Minds	A	40.909487	-73.779978
BLD_Diner	B	40.922483	-73.761774
Artisanal_Shoe_Shiners	D	40.986467	-73.806888
Rossi_Custom_Tailoring	E	40.906743	-73.779702
Margie_Lelia_RE_MAX_Prime_Properties	C	40.985756	-73.808871
Best_Friends_Pet_Grooming	C	40.996727	-73.817324
Foley_Hardware	C	40.928939	-73.751518
IHOP	B	40.934247	-73.747901
United_States_Postal_Service_(USPS)	C	40.911129	-73.812509
Pawl_Nancy_MD	A	40.923571	-73.759618
Ashraf_Manny_DDS_FICOI	A	40.946955	-73.795594
Marie's	B	40.990532	-73.806466
Total_Dental_Care	A	40.913437	-73.786199
Empire_Automobile_Sports	C	40.922734	-73.788376
Zambetti_George	A	40.988333	-73.807131
St_Johns_Episcopal_Church	A	40.954532	-73.796496
Lord_and_Andra_Gallery	A	40.908462	-73.783247
Cirillo_Vincenzo_MD	A	40.912967	-73.791629
Center_for_Vein_Restoration	A	40.970847	-73.804712
Svetlana_Bridal_Couture	C	40.931058	-73.761247
Via_Forno_Wood_Fired_Pizza_&_Vinoteca	B	40.988564	-73.809582
Wingstop	B	40.890481	-73.818375
Pelham_Jewish_Center	A	40.898224	-73.813759
Rocbody_Fitness_Cafe	B	40.922936	-73.788123
Ace_Hardware	C	40.902807	-73.78933
Avis_Rent_A_Car	C	40.98677	-73.808441
Advocate_Brokerage_Corp	C	40.984835	-73.809052
Christ_United_Methodist_Church	A	40.942816	-73.795155
Pat's_Hair_Salon	B	40.909013	-73.811207
CVS	A	40.989088	-73.809288
Daum_Frederick_MD	A	40.919996	-73.75191
Paws_on_Fifth	C	40.915528	-73.807373
Silva_Hair_Design	B	40.988045	-73.809706
Avon_Coffee_Shop	B	40.933246	-73.759339
St_Nicholas_Greek_Orthodox_Church	A	40.898277	-73.770345
Audio_Help_Hearing_Centers	A	40.97953	-73.801445
FedEx	C	40.922132	-73.772453
Mona_Real_Estate_Agent	C	40.998873	-73.816313
Cws_Pelham	C	40.912471	-73.809314
Village_of_Larchmont	B	40.931371	-73.747679
Salon_Firefly	B	40.927277	-73.752314
Wynnewood_Planning	C	40.932858	-73.76185
Larchmont_Avenue_Church_Pre_School	A	40.929904	-73.75448
Mathnasium	A	41.006074	-73.809911
Wine_&_Spirits_Discount_Warehouse	C	40.917288	-73.778401
Subway	B	40.915052	-73.772301
Huntington_Learning_Centers	A	40.999901	-73.814794
Colombian_House	B	40.907146	-73.784632
Complete_Medical_Chiropractic_&_Rehabilitation	A	40.922729	-73.787555
Allstate_Insurance	C	40.928521	-73.751199
Wisdom_Way_Martial_Arts	B	40.908556	-73.811445
Beauty_Lounge_&_Brow_Bar	B	40.978388	-73.804636
French_American_School	A	40.927096	-73.750426
Creative_Playthings	C	41.005917	-73.810842
STS_Tire_&_Auto_Centers	D	40.917649	-73.785386
Abraham_S	A	40.914454	-73.784754
Budget_Rent_A_Car	C	40.911954	-73.784415
Stop_&_Shop	C	40.922042	-73.774016
U_S_F_Movers_&_Cleaning_Services	D	40.905886	-73.792794
Send_A_Tee	E	40.908347	-73.781824
Taconic_Counseling_Group	A	41.008998	-73.789904
C_Town_Supermarkets	C	40.90798	-73.782667
New_York_Sports_Clubs	B	40.912477	-73.781307
Flynn_Financial_Partners	A	40.912865	-73.779651
The_Glass_Protector	C	40.911055	-73.791326
Kapel_Saul_E_MD	A	40.998262	-73.767673
The_Cut_Above	C	40.93349	-73.76143
Summit_Sports_&_Spinal_Physical_Therapy	A	40.933298	-73.74888
Tsai_Albert_H_DDS	A	41.006056	-73.8119
Red_Mango	B	40.896496	-73.778409
United_States_Postal_Service_(USPS)	C	40.985159	-73.777479
Joon_Lee_MD	A	40.988305	-73.806695
Immunoclarity_Naturals_&_Assoc	A	40.901446	-73.77047
A_H_Magic_Salon	B	40.911209	-73.809972
Pelham_Middle_School	A	40.90342	-73.811787
The_Big_Slice	B	40.906014	-73.785601
Koji_Salon	B	40.906358	-73.789448
U_Haul_Moving_&_Storage_of_New_Rochelle	C	40.906196	-73.793573
Cariangel's	B	41.006059	-73.811928
Juliano's_Caterers	B	40.904149	-73.787868
New_Rochelle_Racquet_Club	B	40.917657	-73.776579
Wonder_eyelash_Extension	B	41.006095	-73.811914
Marshalls	C	40.923111	-73.772858
Westchester_foot_care	A	40.90881	-73.78251
Exotic_Nail_4_You	B	40.908936	-73.78186
Shell_Oil	C	40.987547	-73.797237
The_Dark_Horse	C	40.98909	-73.807093
The_Church_of_St_Simon_the_Cyrenian	A	40.915435	-73.794096
Applebee's	B	40.911227	-73.780337
Ward_Acres	B	40.952888	-73.783903
Kearns_Larchmont_Deli	B	40.933187	-73.758986
Kunitachi_Gakuin_Yobiko	A	40.973236	-73.804201
Steam_Works_Studio	A	40.998561	-73.816107
Buffalo_Wild_Wings	B	40.911321	-73.780296
Henry's_Barber_Shop	B	40.987988	-73.808221
Devra_Bader_Skin_Care_&_Beauty_Spa	B	40.987832	-73.809742
Little_Thai_Kitchen	B	40.988965	-73.809018
The_Tai_Chi_School	B	40.92979	-73.776346
Oblivion_Photography	B	41.004483	-73.787933
Jcc_Of_Mid_Westchester_Nur_Schl	A	40.982963	-73.777833
Longford's_Ice_Cream	B	40.931898	-73.759967
Mamaroneck_Board_of_Education	A	40.938034	-73.747358
Sophia's_Nail_Salon	B	40.98516	-73.776829
Peking_Restaurant	B	40.909438	-73.795115
M_&_M_Automotive_Service	C	40.91821	-73.806472
Dynamic_Personal_Training	B	40.968627	-73.806147
Nicky's_Pizzeria_Restaurant	B	40.933018	-73.759695
Mtech_Motorsports	D	40.912795	-73.774801
T-Mobile	C	40.892606	-73.818392
TD_Bank	C	40.93268	-73.757914
Phillips_66	C	40.887343	-73.791275
White_River_Auto_Sales	C	40.91099	-73.792503
Pelham_Children's_Center_Inc	A	40.911239	-73.809347
People's_United_Bank	C	40.911476	-73.778896
Tatiana_Borinos_DDS_PC	A	41.006064	-73.811912
Numi_Co	B	40.980128	-73.809963
Maciel's_Barbershop	B	40.910157	-73.789567
Wilson_&_Son_Jewelers	C	40.989108	-73.806597
Mike's_Barber_Place	B	40.915919	-73.807556
Huguenot_Park	B	40.929217	-73.791158
Danny's_Card_&_Gift	C	40.891916	-73.820758
Marano_Phil_Hair_Design	B	40.973633	-73.803281
Shoyu_Sushi	B	40.980305	-73.776592
NAPA_Auto_Parts	C	40.902651	-73.790763
Farmers_Insurance_Group	C	40.927661	-73.752149
Atpgroup	C	40.932603	-73.762252
Sandra_Fields_Midwifery_&_Home_Birth_Svce	A	40.916886	-73.798178
Iona_College	A	40.926778	-73.785426
New_Beginnings	B	40.916163	-73.784865
La_Renaissance_Bakery	B	40.988979	-73.807545
Siwanoy_School	A	40.898689	-73.809262
1_Of_1_Nyc	C	40.90827	-73.78298
Empire_Footcare	A	40.909596	-73.780155
Chatsworth_Avenue_School	A	40.93005	-73.753064
Toy_Discount_Center	C	40.909142	-73.780357
Remedy_Bar_Spa	B	40.933627	-73.758701
Happy_Days_Pizza_Place	B	40.976587	-73.802797
Turquoise	B	40.933397	-73.758776
Westchester_Burger_Company	B	40.987427	-73.809837
Little_Blessings_Child_Development_Center	A	40.921091	-73.773654
Arteaseta_Salon	A	40.946466	-73.79522
Madison_&_Park_Appraisal	C	40.953552	-73.793651
New_Rochelle_Grand_Market	C	40.910414	-73.779642
Sunningdale_Country_Club	B	41.010453	-73.819705
Harley_Davidson	C	40.89823	-73.792073
Larchmont_Chamber_Of_Commerce	B	40.929899	-73.751097
Hibba_Beauty_Scarsdale	A	40.98802	-73.809717
Hudson_Country_School_Inc	A	40.954118	-73.783298
Colonial_Acres_Park	B	40.972706	-73.759228
Ai_Vinyl_Graphics_&_Mobile_Electronics	C	40.907619	-73.785424
North_End_Fitness_&_Training	B	40.946246	-73.795153
Kirari_Sushi	B	40.988009	-73.8097
Linx_Partners	A	40.9684	-73.806443
Garth_Road_Senior_Center	B	40.982423	-73.812961
Scarsdale_Wines	C	41.006057	-73.811899
Metapan_Restaurant	B	40.914337	-73.794479
Young_Israel_Of_New_Rochelle	A	40.941366	-73.793756
Party_City	C	40.898035	-73.792356
Techdaddy_Wireless_Repairs	C	40.917274	-73.778377
Edgewood_School	A	40.984085	-73.796065
Sindy's_Nails	B	40.913811	-73.808222
Mancino_Custom_Tailors	C	40.932167	-73.759624
MAZDA_OF_NEW_ROCHELLE	C	40.917116	-73.769414
TuttaBella_Trattoria	B	40.973405	-73.80347
Sycamore_Park	B	40.902302	-73.795333
C_&_C_Auto_Repair	D	40.90552	-73.793309
True_ChampionZ_Martial_Arts	B	40.947005	-73.794298
Ardsley_Orthodontics	A	40.987838	-73.825144
Behr_Insurance	C	40.916135	-73.770324
Cafe_Alaia	B	40.987175	-73.809823
Eden_French_Speaking_Seventh_Day_Adventist_Church	A	40.909662	-73.790969
Halstead_Station	C	40.910375	-73.783572
Northwell_Health_GoHealth_Urgent_Care	A	40.948669	-73.792232
Tutoring_Solutions_Learning_Center	A	40.946406	-73.795176
Generations_Auto_Body	D	40.902473	-73.791275
Andersons_Larchmont	C	40.932135	-73.757714
High_Ridge_Books	C	40.951708	-73.769753
Willow_Towers	B	40.898234	-73.778647
Authentic_Cafe	B	40.911062	-73.779645
Carol_E_Tetenbaum_MD	B	40.97577	-73.802586
Weiman_Park	B	40.895804	-73.806931
Ganz_Gene_MD	A	40.942065	-73.754985
Robert_A_Horowitz_DDS	A	40.988317	-73.807137
Hyler_Irene_G_Dr_MD	A	41.016353	-73.78748
Personal_Care_Dental_of_Westchester	A	41.006064	-73.81192
Capital_One	C	40.973786	-73.803218
Thomas_E_Lundy_DMD	A	40.988283	-73.806716
Scarsdale_Community_Bapt_Church	A	40.988832	-73.80579
Sakura_Sushi	B	40.984624	-73.777743
Amari_Clinic_Westchester	A	41.006093	-73.811892
Immaculate_Heart_of_Mary_Church	A	40.9817	-73.79926
Subway	B	40.907438	-73.784166
WholesalePhoneAccessories	C	40.913926	-73.77784
Bosch_Service	D	40.976965	-73.803906
Charismatic_Renewal_Ofc_Archdiocese_of_New_York	A	40.981177	-73.798592
HomeGoods	C	40.890965	-73.821051
Paper_Source	C	40.971173	-73.806528
808_Social	B	40.9772	-73.803195
The_Nook_Eatery	B	40.915078	-73.77223
Gary_M_Scharoff_DDS	A	40.944979	-73.794799
CubeSmart	C	40.916847	-73.780413
Parkway_Coffee_Shop	B	40.989542	-73.807614
Score_Education_Centers	A	41.006064	-73.809955
Young_At_Art_Workshop_Inc	C	40.986962	-73.824141
Dunkin'	B	40.918094	-73.767633
Ainslie	A	40.924329	-73.759238
Shake_Rattle_&_Roll_Music	C	40.908476	-73.81135
Horizon_Capital_Research	A	40.937383	-73.762277
Rug_Cleaner_Scarsdale	D	40.987757	-73.808283
Sally_Beauty_Supply	A	40.891964	-73.821257
Huguenot_Nursery_School	A	40.895322	-73.805698
New_Elegant_Nail_&_Spa	B	40.931993	-73.759328
Manor_Auto_Service_Center	C	40.887402	-73.791271
Unitel_Verizon_Wireless_Premium_Retailer	C	40.979579	-73.801604
Saltzstein_Sylvia_PHD	A	41.015827	-73.78664
914_Training_Center	B	41.010942	-73.808004
Lisa's_Nail_&_Spa	B	40.908174	-73.779662
Westchester_Center_For_Dermatology	A	40.989378	-73.807247
Pelham_Lube	D	40.891592	-73.817621
Scarsdale_Senior_High_School	A	40.994881	-73.792929
Landmark_Realty_Capital	A	40.970859	-73.804703
GoGreek	B	40.912436	-73.808833
A_Little_Nibble	B	40.902061	-73.78919
A_T_Becker_&_Associates	A	40.984968	-73.81039
Chabad_Pelham	A	40.914775	-73.805403
Mamaroneck_Acupuncture_Oriental_Healthcare	A	40.926125	-73.753568
Pechman_Paul_MD	A	40.986406	-73.775601
New_Day_Vitality_Psychotherapy	A	40.9305	-73.762278
Joey's_Delicatessen	B	40.915147	-73.77212
Scarsdale_Chateaux	A	40.991444	-73.806707
Jmw_Group	C	40.931661	-73.760353
Pelham_Manor	C	40.892284	-73.819795
Three_Goms	C	40.930407	-73.762081
North_Avenue_Getty	C	40.91563	-73.784591
Lash_to_Lens	A	40.908824	-73.780155
Scarsdale_Agency	C	40.987771	-73.808268
MOOYAH	B	40.93187	-73.760066
Sunoco	C	40.908344	-73.811526
Merlos_Auto_Detailing	D	40.92394	-73.758674
Westchester_Taco_Grill	B	40.925683	-73.788889
Sills_Lester_B_DVM	A	40.993142	-73.82157
E_Trade	A	41.006652	-73.810183
La_Tapatia_Deli	B	40.909825	-73.789578
State_Farm	C	40.923109	-73.788031
Safeway_Towing_&_Haulage	C	40.928236	-73.769463
Scarsdale_Bone_And_Joint_Specialists	A	40.988351	-73.807092
United_States_Postal_Service_(USPS)	C	41.007051	-73.811216
Larchmont_Family_Practice	A	40.933208	-73.7584
Select_Insurance_Agency	C	40.979543	-73.801461
Seely_Place_School	A	40.994496	-73.81662
Kumon_Institute_of_Education	A	40.921172	-73.787167
LIT_Sports_Lounge_&amp_Grill	B	40.910579	-73.781762
AAMCO_Transmissions	D	40.914944	-73.771231
Badger_Sports_Club	B	40.948143	-73.756177
Cindy_By_Nature	B	40.943875	-73.757692
Denise_Delph_LCSW	A	40.913317	-73.789419
Achieve_Martial_Arts	B	41.002259	-73.813636
St_John's_Church	A	40.919932	-73.750415
Harbour_House_Coffee_Shop	B	40.932396	-73.759599
Sweet_Spice	B	40.916206	-73.785526
Acupuncture_New_Rochelle	A	40.905846	-73.78709
Skinny_Buddha_Organic_Cafe	B	40.989149	-73.809336
Danny's_Cycles_Scarsdale	C	41.000092	-73.814637
Chili_Dog_Restaurant	B	40.912773	-73.783124
Mobil	C	40.924028	-73.787413
Rinconcito_Luncheonette	B	40.911709	-73.77759
B_N_Auto	C	40.908635	-73.7939
American_Laser_Center	A	40.988989	-73.808968
Scarsdale_Fresh_&_Natural	C	40.987155	-73.809811
Pension_Maxima_Investment_Advisory	A	40.994821	-73.829454
Carvel	B	40.914263	-73.793774
Bank_of_America	C	40.89685	-73.804845
Pine_Brook_Fitness	B	40.91778	-73.776996
Alpiar_&_Papa_Insurance_Agency	C	40.931201	-73.761761
Pelham_Gourmet_Deli_&_Catering	C	40.890423	-73.817488
Katz_Russell_Dr_Vet	A	40.915386	-73.808834
Teicher_Stuart	A	40.978759	-73.806138
Gottlieb_Educational_Associates	A	40.932834	-73.749343
Fidelity_Capital	C	40.933799	-73.74784
Pedro_Sanchez_Cycling	C	40.901488	-73.788189
Cws_Larchmont	C	40.933146	-73.759087
Alfa_Romeo_of_Larchmont	C	40.930353	-73.750672
Pelham_Dental	A	40.896042	-73.804704
The_Redeemed_Christian_Church_of_God	A	40.914388	-73.785016
Chugger's	B	40.9106	-73.781819
Dino_M_DeFilippis_DDS	A	40.913309	-73.789438
Primerica	A	40.909396	-73.779961
Heisler_Laura_Dr_Chirprctr	A	40.961466	-73.778875
Premiere_Audiology	A	40.929778	-73.7504
Rob's_Automotive	D	40.922923	-73.762175
William_B_Ward_Elementary_School	A	40.955939	-73.783641
Eden_Wok	B	40.946948	-73.795511
Scarsdale_Physical_Therapy	A	40.979077	-73.807488
Canzius_Tax_Consultant	A	40.912501	-73.781519
Lenny's_Seafood_and_Steakhouse	B	40.930463	-73.749885
Beauty_Bar_Lounge	B	40.931236	-73.760991
Sutton_Park_Center_For_Nursing_&_Rehabilitation	B	40.914652	-73.78617
New_Rochelle_Radiology	A	40.913074	-73.79071
Encore_Esports	C	40.907689	-73.782727
Marilyn_Tucker_Viselli_MS_RD_CDN	A	40.913087	-73.790624
Gibraltar_Financial	C	40.935393	-73.756322
Westchester_Torah_Academy	A	40.965648	-73.780254
Salon_De_Voeu	B	40.987038	-73.809826
Starlite_II	B	40.908563	-73.782334
St_Pius_X_Church	A	40.989086	-73.766479
Gulf_Oil	C	40.930184	-73.750057
Restaurant_Tecalitlan	B	40.910111	-73.79007
The_Green_House_Smoke_Shop	C	40.907791	-73.779252
Essien_Ralph	A	40.921124	-73.788911
Cardillo_Pools_&_Spas	C	40.925	-73.791289
Alfredo's_Pizza_Cafe	B	40.907482	-73.782209
Candida_R_Diaz_Life_LCSW_R_Coach_for_Highly_Motivated_Women	A	41.004292	-73.813209
Pelham_Manor_Plaza	C	40.897024	-73.804539
Baskin_Robbins	B	40.9181	-73.76764
Center_For_Movement	B	40.98551	-73.808812
SelfieStationNYC	C	40.988752	-73.82473
CrossFit	B	40.921788	-73.7883
Danny's_Cycles_Wolfs_Lane	C	40.909474	-73.810937
Splendid_Diner	B	40.911233	-73.780807
Apple_Bank_for_Savings	C	40.987823	-73.825171
Big_Three_Barber_Shop	B	40.91161	-73.777583
Makeup_By_Allymartinn	A	40.981508	-73.804717
Chase	C	40.947828	-73.79429
Plaster_Palace_Pottery	C	40.930576	-73.762188
Surgeon_Thoulton_W_DVM	A	40.914425	-73.782061
Stratton_Pharmacy	A	40.980459	-73.776521
Charles_Fazzino_Museum_Editions	B	40.90801	-73.785747
NY_Orthopedics	A	40.988309	-73.807139
Allstate_Insurance	C	40.946361	-73.795209
Loupino's_Delicatessen	B	40.906655	-73.77603
State_Farm	C	40.974322	-73.803028
NISSAN_OF_NEW_ROCHELLE	C	40.919336	-73.776984
7_Days_Auto_Care	C	40.910556	-73.792306
Hudson_Country_Montessori_School	A	40.954244	-73.783333
Red_Lotus_Thai_Restaurant	B	40.915112	-73.772032
Batting_Cages_USA	C	40.906854	-73.788646
Bagel_Power	B	40.984489	-73.7777
Climate_Shield_Heating_and_Cooling	A	40.910653	-73.794058
Mathnasium	A	40.97325	-73.804186
Healthy_Choice	C	40.929642	-73.751639
Waterproofing_ContractorLLC	E	40.983375	-73.803262
Cellar_Bar	B	40.933604	-73.758693
Value_Electronics	C	40.988846	-73.807602
Gulf_Oil	C	40.987137	-73.808448
Banfield_Pet_Hospital	A	40.893053	-73.817777
Young's_Nails	B	40.970469	-73.807057
Scarsdale_Coin	C	40.939107	-73.744926
Meineke_Car_Care_Centers	D	40.923456	-73.78798
Sorelle's_Pizza	B	40.908517	-73.779359
Write_On	C	40.931383	-73.760571
Once_Upon_a_Child	C	41.00631	-73.811613
Yuki's_Pit_In	C	40.985468	-73.810088
Urgent_Care_Dental	A	40.986973	-73.824121
Peel_Facial_Spa	B	40.970483	-73.807025
Gershanok_Michael_DDS	A	40.981261	-73.812959
Cornerstone_Children's_Center	A	40.986498	-73.809998
Lew_Arthur_MD	A	40.940778	-73.781243
