occupation	latitude	longitude	zipcode
Minuteman_Press	E	40.946375	-73.795236
Hutchinson_School	A	40.916035	-73.809391
New_York_Family_Dental_Arts	A	40.910164	-73.810561
Jo-Ann_Fabric_and_Craft_Stores	C	40.991466	-73.823074
Korean_BBQ_Grill	B	40.908895	-73.781193
Viva_Ranch_Fruit_Market	C	40.909597	-73.780956
76	C	40.907881	-73.811653
Danny's_Pelham_Manor	C	40.895371	-73.817653
Town_of_Mamaroneck	B	40.936604	-73.759725
Health_Insurance_Specialists_Scarsdale	C	41.005698	-73.782753
DeCicco_and_Sons	B	40.91208	-73.809601
East_Coast_Auto_Body_Inc	D	40.931	-73.766977
Dunkin'	B	40.902327	-73.791284
Webster_Bank	C	40.938145	-73.745086
Pediatric_Associate_Of_So_West	A	40.913629	-73.779303
Dominic's_Fine_Cigars	C	40.929299	-73.751181
All_Tangled_Up	B	40.948589	-73.792331
Sound_Shore_Medical_Center_of_Westchester	A	40.912996	-73.787518
Kota_African_Hair_Braiding	B	40.917581	-73.788549
El_&_Ella_Hair_Salon	B	40.910607	-73.782423
Duck_Egg_Blue	C	41.004521	-73.794259
Blessed_Sacrament_St_Gabriel_High_School	A	40.905955	-73.784358
Rhodes_Kajukenbo_Karate	A	40.909263	-73.7945
Lubrano	A	40.932644	-73.750799
Cara_Nail	B	40.895743	-73.778833
ZinLash	B	40.921827	-73.772173
Merissa_Blais_DDS_Blais_Orthodontics	A	40.988316	-73.807121
Post_Road_Veterinary_Hospital	A	40.919396	-73.766584
El_Gran_Rodeo	B	40.915297	-73.785158
Beanberry's_Cafe_&_Yogurt_Bar	B	40.910316	-73.783565
Michaels_Stores	C	40.892947	-73.818066
Indique_Hair	B	40.91346	-73.808778
Health_Street	A	40.937066	-73.74755
AJ_Nail_Spa	B	40.933464	-73.761416
Tri_State_Archers	B	40.909767	-73.805882
Jos._A._Bank_Clothiers	C	40.970648	-73.807068
El_Sabor	C	40.911508	-73.777837
Russell_Cellular	C	40.946837	-73.794315
Enhanced_Health_Coaching	A	40.988333	-73.807099
Chico's	C	40.970985	-73.80672
Madelyn_Jordon_Fine_Art	C	40.988836	-73.807505
Starbucks	B	40.969551	-73.806426
The_Public_House	B	40.913501	-73.808856
Autobahn_Motors	D	40.888443	-73.78937
La_Herradura_Inc_II	B	40.946894	-73.795455
Cullen_Gail_Marie_DDS	A	40.989107	-73.807154
King_Gold_and_Pawn_of_New_Rochelle	A	40.910464	-73.780923
Mavis_Discount_Tire	D	40.917713	-73.785373
Abraham_S	A	40.914454	-73.784754
The_Alcott_School	A	40.991484	-73.802593
Saltzstein_Sylvia_PHD	A	41.015827	-73.78664
Mona_Lisa_Salumeria	C	40.979557	-73.801446
SIA_Tax_Relief	A	40.915443	-73.785112
Masonry_Garden_Supplies	C	40.985669	-73.83413
Joe's_Deli	C	40.911274	-73.796694
Alexdidmyhair	B	40.973415	-73.804268
KUMO_Japanese_Restaurant	B	40.974568	-73.803824
Family_Chiropractic_&_Wellness_Center	A	40.932843	-73.761819
Athleta	C	40.97094	-73.80457
Feuerbach_John_W_DDS_FACP	A	40.934346	-73.761029
St_Gabriel's_Church	A	40.911585	-73.786448
Spotlite_Cafe	B	40.986453	-73.826463
Golding_Academy_of_Movement_and_Dance	B	40.985774	-73.809975
Olshansky_Phyllis_PHD	A	40.943018	-73.801165
Krave	B	40.907968	-73.782242
CrossFit	B	40.928169	-73.771729
Krinick_Nolan_DDS	A	40.926559	-73.773022
Hudson_Park_Bait_&_Tackle	C	40.907987	-73.770674
Club_Pilates	B	41.009223	-73.809488
Western_Union	C	40.902745	-73.79038
Harbor_One	C	40.896434	-73.785375
Fairway_Market	C	40.891948	-73.820894
Freshreno_New_York	C	40.898821	-73.799039
Calligaris	C	41.009682	-73.809182
Richard's_Passport	C	40.910159	-73.810591
Audrey_Ramsay_DDS	A	40.893373	-73.784601
Billy_&amp_Pete's_Social	B	40.935357	-73.75972
Bronx_River_Books	C	40.989935	-73.806895
O2_Hair	B	40.987004	-73.810294
Tranquility_Dental	A	40.91332	-73.789447
Vietnam's_Central	B	40.998324	-73.815272
Mckenna_Family_Chiropractic	A	40.91992	-73.804636
Magen_David_Sephardic_Congregation	A	40.972707	-73.774965
Larchmont_Temple_Inc	A	40.924729	-73.749245
Glickman_Henry_PHD	A	40.982812	-73.788786
B&A_Froyo	B	40.923058	-73.788056
Bahais_Of_Scarsdale	A	40.967483	-73.76789
Glover_Field	B	40.898575	-73.81687
Queen_City_Super_Buffet	B	40.907194	-73.783433
Hong_Kong_Restaurant	B	40.895828	-73.778763
Juliannes_Park	B	40.91898	-73.807327
Sabrosa_Deli_Juice_Bar	B	40.910514	-73.781697
Community_Financial_Services_Center_(CFSC)	C	40.90966	-73.78087
Julius_Michael_Scarsdale	B	40.990565	-73.80719
Sylvia_Blessings_Ministries	A	40.906969	-73.785929
Clarence_E_Shelton_Jr_DDS	A	40.917949	-73.787583
Pinebrook_Park	B	40.928938	-73.762954
Red_Lobster	B	40.990286	-73.823028
The_Fuller_Center_for_Housing	A	40.905255	-73.787428
Venecias_Pizzeria	B	40.909317	-73.781304
Drake_Road_Park	B	40.986879	-73.793972
Cameron_Sharkey_Park	B	40.891694	-73.781329
Kenneth_M_Trotta_Chiropractor	A	41.005341	-73.812512
Klein_Pharmacy	A	40.913044	-73.809135
New_Rochelle_Fire_Department_Station_1	A	40.912826	-73.778836
Muscolino_Paul_A_Dc	A	40.983026	-73.779117
Maria	B	40.91433	-73.773802
Sunoco	C	40.977363	-73.80557
Pretty_Nail's_Salon	B	40.905896	-73.785701
The_Avenue_Deli_Cafe	C	40.925608	-73.788841
Dorchester_Fuel_Oil_Co	C	40.893998	-73.821447
The_Applestone_Meat	C	40.972487	-73.804658
Sotheby’s_International_Realty	C	40.931451	-73.759857
Gulf_Oil	C	40.984048	-73.775027
Allstate_Insurance	C	40.91056	-73.810299
Tai_Chi_School_of_Eternal_Energy	B	40.979136	-73.807751
Radisson	B	40.913967	-73.77788
Primerica	A	40.908023	-73.78211
Lake_Innisfree	E	40.958436	-73.800539
Sang_Myung_Church_Of_New_York_Inc	A	41.005942	-73.810074
Main_Street_Boxing_&_Fitness	B	40.912815	-73.774688
Winetasters_of_Larchmont	C	40.932252	-73.758064
Sneaker_Lounge	C	40.979542	-73.801452
Dunia_Ghabour_Brow_Design	B	40.911812	-73.782237
Motorcycle_Center	C	40.907194	-73.793915
Salon_421	B	41.002297	-73.813612
The_Ambassador_of_Scarsdale	B	40.988637	-73.74849
Schaffer_Extended_Care_Center	B	40.912285	-73.788042
Beautiful_Beginnings_3D_Imaging	A	40.991529	-73.823067
Juliet_C_Lesser_PhD	A	40.927978	-73.752203
Seasons_Too_Ltd	C	40.935475	-73.747346
Candlelight_Inn	B	41.004618	-73.812779
Radiant_Light_Skin_Care	B	40.913015	-73.778977
AT&T	C	40.99518	-73.819832
Profile_by_Sanford_Scarsdale	B	40.980498	-73.776528
Fytt_Four_Lyfe	B	40.914357	-73.784834
Eye_Designs_of_Westchester	A	40.973435	-73.804256
Kidz_Korner_Of_Scarsdale	A	40.974564	-73.803938
LaGravinese_Jewelers_of_Pelham	C	40.912462	-73.8093
Western_Union	C	40.947259	-73.79403
Ben's_of_Scarsdale	C	40.997965	-73.816248
Asia_Arts	C	40.985776	-73.809993
John_Pacia_DDS	A	40.902074	-73.81175
Thrive_Fitness_And_Nutrition_Studio	B	40.886983	-73.791762
Starbucks	B	40.945854	-73.795803
Bella_Bella_Italian_Restaurant	B	40.907194	-73.784578
Main_Street_Deli_&_Grocery	C	40.914617	-73.772716
Sun_Hing_Chinese_Take_Out	B	40.927318	-73.789577
Catalano_Louis	A	40.988309	-73.80711
Manor_Service_Station	C	40.930184	-73.750057
Best_Friends_Pet_Grooming	C	40.996727	-73.817324
IHOP	B	40.934239	-73.747874
United_States_Postal_Service_(USPS)	C	40.911129	-73.812509
Henry_Barnard_School	A	40.932865	-73.773311
Shaarei_Tikvah_The_Scarsdale_Conservative_Congregation	A	40.995661	-73.80227
Cherry_Lawn_Nursery	C	40.958961	-73.77294
Permanent_Cosmetics_by_Jennifer_at_Branches_of_Beauty	B	40.976506	-73.80357
World_of_Wireless	C	40.914345	-73.773555
Cohen_Louis_D	A	40.976864	-73.816822
HomeGoods	C	40.922995	-73.772433
Anel_barbershop_&amp_Salon	B	40.910017	-73.78044
Skinny_Buddha_Organic_Cafe	B	40.989149	-73.809336
Coco_Nails	B	40.928525	-73.753007
Elizabeth_Pacia_DDS	A	40.902095	-73.811756
Metropolitan_Japanese_Ministry	A	40.992684	-73.800553
Glen_M_Applebaum_DDS	A	40.913948	-73.777835
Advance_Auto_Parts	C	40.907766	-73.778513
Boost_Mobile	C	40.914951	-73.785084
Sticks_&_Strings	C	40.989924	-73.806827
Citibank	C	40.995146	-73.819861
Giovanni_Photographic_Artist	A	40.906112	-73.789796
MK_Discount_Tire_Center	D	40.919682	-73.765181
Crystal_Nail_Salon	B	40.907751	-73.779241
Devra_Bader_Skin_Care_&_Beauty_Spa	B	40.987832	-73.809742
CubeSmart	C	40.91904	-73.788532
Tzatziki_Greek_Grill	B	40.914436	-73.773304
Great_Peking_Restaurant	B	40.915846	-73.807576
Alborada_Florist	C	40.914264	-73.774044
Banana_Republic	C	40.970524	-73.804994
Nu_Mint_Nail_&_Spa	B	40.984472	-73.774638
Fjord_Fish_Market	C	40.932921	-73.759461
Starbucks	B	40.98443	-73.777035
New_Rochelle_Fire_Department_Station_4	A	40.898248	-73.786151
Loki_Powersports	C	40.931672	-73.749898
The_Bar_Method	B	40.989024	-73.809537
For_Pet's_Sake_Grooming	C	40.914823	-73.77253
Librett_Real_Estate_Group	C	40.918574	-73.76697
Side_Door_Donuts	B	40.935389	-73.759687
Cricket_Wireless	C	40.908461	-73.781989
US_1_Auto_Sales	C	40.918037	-73.768353
New_Rochelle_Animal_Hospital	A	40.90653	-73.778205
Antonio's_Barber_Shop	B	40.932039	-73.760492
Amari_Medical	B	40.988024	-73.824959
Chiropractic_Center_of_Pelham	A	40.909431	-73.811042
Bird_Jungle	C	41.00903	-73.809665
PizzaCo	B	40.927363	-73.789702
Plaster_Palace_Pottery	C	40.930576	-73.762188
Surgeon_Thoulton_W_DVM	A	40.914425	-73.782061
Larchmont_Village_Police_Department_Larchmont_New_York	A	40.927278	-73.751542
Budget_Rent_A_Car	C	40.912237	-73.783879
Stop_&_Shop	C	40.922026	-73.774036
Lincoln_Avenue_Service_Station	D	40.915775	-73.810067
Seven_Woks	B	40.985239	-73.777289
Village_Paint_Supply_Inc_01	C	40.92898	-73.751351
uBreakiFix	C	40.946409	-73.795228
Central_Square_Cafe	B	40.993666	-73.819555
Madison_Nail	B	40.974468	-73.803855
Allied_Healthcare_Physicians	A	40.912455	-73.790511
Saxon_Woods_Golf_Course	B	40.983847	-73.759892
Gabrielle's_NY	B	40.893199	-73.819898
Scaping_Gardens	C	40.985711	-73.834607
REP_Athletics	B	40.923609	-73.758946
Spotlight_Gymnastics	B	40.895408	-73.80576
Holy_Sepulchre_Cemetery	B	40.903646	-73.798009
No_Limit_Home_Care_Agency	B	40.907757	-73.779269
Davenport_Park	B	40.896112	-73.771898
Larchmont_Pharmacy	A	40.92861	-73.765001
Green's_Natural_Foods	C	40.97452	-73.802815
The_Fountainhead	E	40.948027	-73.793515
Bango_Bowls_Scarsdale	B	40.989358	-73.807302
Huntington_Learning_Centers	A	40.97956	-73.801438
GoHealth_Urgent_Care	A	40.948687	-73.792242
L_and_R_Auto_Service	C	40.979964	-73.776409
Sunoco	C	40.908344	-73.811526
Merlos_Auto_Detailing	D	40.92394	-73.758674
Westchester_Taco_Grill	B	40.925666	-73.788886
East_Avenue_Cafe	B	40.931943	-73.76011
UNL_Solutions	C	40.913914	-73.777808
Derek_A_Lewis_DDS	A	40.91332	-73.78944
Allstate_Insurance	C	40.920846	-73.787536
Arielle_Chassen_Jacobs_DMD	A	40.989394	-73.807269
Gap	C	40.970867	-73.804771
Infinite_Yoga_Center	B	40.931772	-73.760107
Boys_&_Girls'_Club_Of_New_Rochelle_Inc	A	40.973924	-73.785481
Cynthia_McIntyre_Photography	A	40.912685	-73.781606
Meringueshop	E	40.977048	-73.804282
Casa_Amore	A	40.910958	-73.810463
Chase	C	40.968708	-73.807449
PetSmart	C	40.974245	-73.803814
Kyle_Lipton_MD_FACOG_FACS	A	40.913494	-73.786096
Kohli_Kavita	A	41.005347	-73.812499
Gandhi_Anjani_Dmd_Pc	A	40.979545	-73.801459
Danny's_Cycles	C	40.911144	-73.777715
B_&_N_Automotive	D	40.908621	-73.793972
Westmed_Medical_Group	A	40.912996	-73.780343
Five_Islands_Park	B	40.913548	-73.765528
NY_Sports_and_Spinal_Physical_Therapy	A	40.986115	-73.808743
Cantina_Lobos	B	40.906552	-73.811653
New_Ro_Suds_Laundromat	E	40.908645	-73.779964
Pink_On_Palmer	A	40.9332	-73.759017
Avanti_Associates	C	40.907018	-73.811589
United_Hebrew_Geriatric_Center	B	40.896642	-73.779034
A_N_C_Veterinary_Center	A	40.914455	-73.782071
WellSpring_Holistic_&_Green_Health_Center	A	40.933111	-73.74825
The_Laura_Miller_Team	C	40.988492	-73.808031
Wells_Fargo	C	40.989188	-73.806472
Galloway's_Bakery	E	40.980089	-73.809854
Anshe_Sholom_Synagogue	A	40.90527	-73.777
Silkie's_Saloon	B	40.909822	-73.779781
24_Hour_Fitness	B	40.998935	-73.814859
Papyrus	C	40.969986	-73.805604
Destination_XL	C	40.994468	-73.819051
CITGO	C	40.910656	-73.792244
Goosehead_Insuance_Chris_Burton_Goosehead_Insurance_Agent	C	40.918554	-73.766976
Di_Palate_Restaurant	B	40.907798	-73.77922
Western_Union	C	40.906009	-73.785517
El_Tio	B	40.911211	-73.780875
Bagel_Zone	B	40.914818	-73.772727
Metro_Deli	C	40.984426	-73.774859
Tutoring_Solutions_Learning_Center	A	40.946375	-73.795267
Generations_Auto_Body	D	40.902473	-73.791275
Patrias_Restaurant	B	40.909162	-73.781632
Java_Crave_Caffe	B	40.9873	-73.809825
Tropical_Lights_Tanning_Salon	B	40.926851	-73.789306
Shell_Oil	C	40.98676	-73.80855
The_Nook_Eatery	B	40.91504	-73.772298
Gary_M_Scharoff_DDS	A	40.945032	-73.794625
Eastern_Wellness_Acupuncture	A	40.979031	-73.807502
Massage_Envy	B	40.974723	-73.803748
Jennifer_Fischman_Houlihan_Lawrence	C	40.988478	-73.807958
Citibank	C	40.891159	-73.818779
New_Rochelle_Metro_North_Railroad_Station	E	40.912244	-73.783965
Zambetti_George	A	40.988333	-73.807131
Robert_A_Horowitz_DDS	A	40.988317	-73.807137
Personal_Care_Dental_of_Westchester	A	41.006064	-73.81192
Bellini_Baby_&_Teen_Furniture	C	41.005192	-73.81261
Arteaseta_Salon	C	40.946489	-73.795128
Madison_&_Park_Appraisal	C	40.953552	-73.793651
TD_Bank	C	40.994867	-73.818563
Village_of_Larchmont	B	40.930891	-73.761684
Achievement_Learning_Center	A	40.927099	-73.752459
Sprainbrook_Nursery	C	41.009327	-73.828191
Trader_Joe's	C	40.972255	-73.804977
Jane_Goodrich_Photography	A	40.935301	-73.756324
Fig_and_Olive	B	40.969974	-73.805616
Scarsdale_Tan_Spa	B	41.007818	-73.80986
Electrolysis_by_Caroline_Del_Juidice	D	41.004269	-73.813221
Carlo's_Restaurant	B	40.915813	-73.770814
Boys_&_Girls_Club_Of_New_Rochelle	A	40.91106	-73.799152
Sound_Shore_Pharmacy_Outpatient	A	40.912986	-73.787486
T_Mobile_Store	C	40.934061	-73.748651
Scarsdale_Family_Dental	A	40.978204	-73.806292
Klar_Tobi_B_MD_PC	A	40.923563	-73.75959
Double_Rainbow	B	40.906724	-73.811552
Playful_Wonders_Inc	A	40.898693	-73.809292
Fred's_Beauty_Salon	B	40.908563	-73.782908
New_York_Dialysis_Services_Inc	A	40.91225	-73.786829
Tengda_Asian_Bistro	B	40.987448	-73.809865
The_English_Group	B	40.930417	-73.762088
Westchester_Homes_Realty	C	40.927228	-73.781202
Nailphomaniac_Beauty_Dungeon	B	40.948557	-73.792361
Infinity	C	40.98513	-73.777483
Barney_T_McClanahan_Funeral_Home_Inc	B	40.918656	-73.788027
Hair_Dreams_Studio	B	40.948589	-73.792376
Greenville_Center	C	40.995003	-73.819851
Amore_Pizza	B	40.980716	-73.776547
D'Chef_Restaurants	E	40.914763	-73.79464
Station_Cafe	B	40.911468	-73.784169
Trustco_Bank	C	40.912952	-73.808586
Immaculate_Heart_of_Mary_Church	A	40.981738	-73.799306
Subway	B	40.907452	-73.78416
WholesalePhoneAccessories	C	40.913926	-73.77784
Bosch_Service	D	40.976965	-73.803906
Julianne_Steiner_Studio	B	40.98443	-73.774734
Fratelli_Pizzeria	B	40.914345	-73.773625
Shake_Rattle_&_Roll_Music	C	40.976386	-73.803003
French_American_School_Of_New_York	A	40.927066	-73.750641
Creative_Playthings	C	41.005917	-73.810842
Jaguar_New_Rochelle	C	40.898811	-73.794855
Sky_Brokerage	B	40.920587	-73.796406
L_Train_Cycling_Studio	E	40.930556	-73.762206
Prime_16	B	40.913746	-73.808233
Alfredo's_Pizza_Cafe	B	40.920678	-73.787406
Pelville_Coffee_&_Pastry	B	40.915286	-73.807522
Ivis_M_Getz_DMD	A	40.9131	-73.790648
Larchmont_Family_Chiropractic	A	40.932865	-73.761838
Yumi	B	40.893771	-73.820547
Jvit	C	40.903823	-73.779857
Manor_Park_Deli	C	40.928363	-73.751991
El_Trigal	B	40.909336	-73.794044
Shell_Oil	C	40.919185	-73.766037
Summerfield_Pediatric_Dentistry	A	40.976903	-73.803543
Westchester_Budo	A	40.909555	-73.780165
Joey's_Cannoli_Espresso_Bar_&_Cafe	B	40.90866	-73.783399
State_Farm	C	40.915559	-73.771539
Heathcote_Barber_Shop	B	40.984407	-73.774755
YR_Blossom_Nails	B	40.990902	-73.823034
Chat_19_American_Grill	B	40.930159	-73.751398
John_F_Como_DDS	A	40.913081	-73.790708
Sills_Lester_B_DVM	A	40.993126	-73.821543
E_Trade	C	41.006652	-73.810183
Tarot_Readings_with_Karyn	C	40.946788	-73.79254
The_Aesthetic_Medic	B	40.975786	-73.802601
Bronx_River_Parkway_Reservation	B	40.947522	-73.833849
United_States_Postal_Service_(USPS)	C	40.911686	-73.781671
Caribbean_Jerk_&_Juices	B	40.915435	-73.771648
Scarsdale_Integrative_Medicine	A	40.988356	-73.807131
Rainbow_Custom_Apparel	C	40.909375	-73.79174
Mount_Zion_House_Of_Prayer	A	40.918271	-73.786464
Bank_of_America	C	40.901649	-73.791588
Iona_College_Bookstore_Bookstore	C	40.926754	-73.7866
Scarsdale_Bagels	B	40.987529	-73.809848
Beechwood_Auto_Body	D	40.90594	-73.792697
New_Golden_Village_Oriental_Supermarket	B	41.009233	-73.809494
Cheers_Wine_&_Spirits	C	40.984786	-73.777785
White_Glory_Cloud_Ministries_Inc	A	40.916956	-73.793896
Manor_Market	C	40.89701	-73.804413
Wave_Hill_Cafe	B	40.933315	-73.759343
Holy_Cross_Church	A	40.954193	-73.79798
Great_Stuff	C	40.989941	-73.807039
Habib's_Atmosphere_Is_Hair	B	40.908524	-73.782384
Westchester_Institute_of_Computer_Tech	C	40.910042	-73.78017
Patsy's_Pizzeria	B	40.908887	-73.771937
Mattress_Firm	C	40.939103	-73.745098
Missionaries_On_The_Move_Christian_Outreach_Center	A	40.92648	-73.76776
Wykagyl_Svce_Sta	C	40.948317	-73.793086
Fromm_Tennis	B	40.935136	-73.769616
Applied_Behavioral_Interventions	A	40.909426	-73.779948
North_Ave	B	40.933651	-73.791144
Alex'_Barbering_and_Hairstyling	B	40.905235	-73.774734
Shoprite_Plaza	C	40.917412	-73.778396
New_Rochelle_Farms	C	40.917998	-73.785888
New_Day_Vitality_Psychotherapy	A	40.9305	-73.762278
Joey's_Delicatessen	C	40.915167	-73.772089
A_Little_Nibble	B	40.902023	-73.789221
A_T_Becker_&_Associates	A	40.984968	-73.81039
Mamaroneck_Acupuncture_Oriental_Healthcare	B	40.926125	-73.753568
Peking_Restaurant	B	40.909438	-73.795096
M_&_M_Automotive_Service	C	40.918149	-73.806384
Weinberg_Nature_Center	B	40.975239	-73.754797
Shake_Rattle_&_Roll_Music	B	40.908453	-73.8114
Horizon_Capital_Research	A	40.937383	-73.76228
Joyce_Leslie	C	40.893102	-73.819585
Beckwith_Pointe	E	40.890272	-73.778408
Christopher_J_Digiorgio_OD	A	40.896529	-73.794535
Buglione_Stephen_PHD	A	40.989362	-73.807278
Ed_Morand_Muscle_Activation_Techniques_MATrx_Specialist	B	40.988301	-73.809607
Trocchia_Stanley_DDS	A	40.970117	-73.785529
Prospect_Hill_School	A	40.890176	-73.808527
Westchester_Reform_Temple	A	40.985423	-73.764957
Pelham_Plaza_Gourmet	C	40.919997	-73.805247
DHL	C	40.930425	-73.762092
Dunkin'	B	40.91633	-73.810833
King_China_Buffet	B	40.986593	-73.826362
Abba_Antiques_&_Art_Gallery	C	40.889785	-73.788601
Tig_&amp_Peach	B	40.909086	-73.811371
Maestro's	B	40.947003	-73.79556
Mobile_Rescue_Larchmont	D	40.932462	-73.75954
Larchmont_Family_Practice	A	40.933252	-73.758368
Select_Insurance_Agency	C	40.979543	-73.801461
Elite_Life_&_Fitness	B	40.981383	-73.776545
Denny's_Fashion_Style_For_All	C	40.991249	-73.822875
Central_Physical_Therapy	A	41.005352	-73.812469
The_Mexican_Corner_Restaurant	B	40.909039	-73.781587
Enterprise_Car_Sales	C	40.931732	-73.749898
Arnold_K_Davis_Insurance	C	40.916178	-73.806943
Rose_Hill_Nurseries	C	40.936068	-73.797407
AJ's_Burgers	B	40.920543	-73.787237
Pizza_Hut	B	40.992556	-73.822861
D_C_L_Karen_Morgan	C	41.000556	-73.819828
Master_Kim's_Scarsdale_Taekwondo	A	40.991415	-73.823121
Ahn_Stanley_S_DDS	A	40.98803	-73.824909
Charles_Schwab	A	41.010458	-73.80837
Ashley_Furniture_HomeStore	C	40.897323	-73.796067
Alka_East_Electronics	D	40.980142	-73.809972
Patty_Pops	E	40.916066	-73.807517
GoGreek	B	40.912432	-73.808872
Relig	A	40.911081	-73.786032
Hibachi_Express	B	40.910397	-73.780865
El_Barrio	B	40.97721	-73.803194
Beauty_by_Dombrie	B	40.905842	-73.787112
Fishermans_Net_of_Pelham	B	40.918031	-73.804265
Stayfit_NY	B	40.994283	-73.769091
Presbyterian_Church	A	41.010912	-73.793111
A_Cut_Above_Color_Group	B	40.948591	-73.792334
NMC_Property_Management	C	40.920933	-73.805211
Lash_to_Lens	B	40.908824	-73.780155
Scarsdale_Agency	C	40.987771	-73.808268
Westchester_Torah_Academy	A	40.964845	-73.782493
The_Salon_at_Westchester	B	40.975089	-73.802715
Smile_Dental_of_New_Rochelle	A	40.913501	-73.786074
Paul_S_Roberts_DDS	A	40.908931	-73.781
Holy_Trinity_Greek_Orthodox_Church	A	40.954192	-73.797979
Mattress_Firm	C	40.974668	-73.80389
Equinox_Fitness_Clubs	B	40.975057	-73.802165
Ss_John_&_Paul_School	A	40.940999	-73.755458
Soriano_Bartolome_Nida_DDS	A	40.913101	-73.790636
Import_Sound_Tuning	A	40.914829	-73.771255
Gjoko_Spa_&_Salon	B	40.933104	-73.761735
Boost_Mobile	C	40.908256	-73.782126
Chugger's	B	40.910597	-73.781795
G_Soul	E	40.906323	-73.78945
Shoppes_At_Eastchester_The	C	40.974608	-73.804372
Scarsdale_Dental_Associates	A	40.969456	-73.806264
Ruchi_Jain_MD_Opening_Soon	A	40.988311	-73.807139
Iona_Grammar_School	A	40.965897	-73.787944
Fidelity_Capital	C	40.933799	-73.74784
Embroider_This	C	41.006879	-73.823197
Hillman_Linda_PHD	A	40.984812	-73.809076
Century_21_Real_Estate	C	40.920585	-73.787378
Rustico_Ristorante	B	40.99721	-73.817589
Bellasera_ristorante	B	40.931678	-73.760349
Seely_Place_School	A	40.994437	-73.816636
Kumon_Institute_of_Education	A	40.921155	-73.787182
LIT_Sports_Lounge_&_Grill	B	40.910574	-73.78179
Your_Wireless	C	40.890505	-73.818293
Constitution_Park	B	40.926534	-73.751229
Five_Nines_Consulting	C	40.930502	-73.762242
Talbots	C	40.969419	-73.806474
Mom's_Cigar_Warehouse	C	40.986732	-73.826257
Shore_Park	B	40.88459	-73.791454
Nature_Study_Woods	B	40.933272	-73.80147
Jackie_B's	B	40.98826	-73.809593
Siam_Orchid_Thai_Restaurant	B	40.9968	-73.817262
Scarsdale_Synagogue_Temples_Tremont_And_Emanu_El	A	40.996512	-73.803709
Dream_Clean_Auto_Spa	D	40.915255	-73.807437
Glam_Beauty_Bar	B	40.928483	-73.752892
Lupe's_Deli	B	40.909534	-73.794577
Sycamore_Park	B	40.902417	-73.795629
Stellman_Michael_R_Acsw	A	40.968413	-73.786228
New_Rochelle_High_School	A	40.929164	-73.793805
Rogalski_Lois_Dr_PHD	A	40.963321	-73.771981
O'Donnell_&amp_Cullen_Property_Tax_Consultants	A	40.993792	-73.822639
Sorelle's_Pizza	B	40.908517	-73.779359
Bikram_Yoga_Scarsdale	B	41.005919	-73.810068
Write_On	C	40.931238	-73.761092
Once_Upon_a_Child	C	41.006353	-73.811786
Trinity_Elementary_School	A	40.90303	-73.775231
Sugar_Mama_By_Kim's_Bakeshop	E	40.931059	-73.76124
Century_21_Real_Estate	C	40.998873	-73.816317
NY_Sports_and_Spinal_Physical_Therapy	A	40.933977	-73.758088
Jiraporn's_Salon	B	40.930589	-73.762183
Bella_Glo_Beauty_Spa	B	40.921294	-73.788076
Villa_Maria_Pizza	B	40.929512	-73.751321
Palmer_Cemetery	B	40.942304	-73.753978
Children's_Creative_Corner	C	40.929458	-73.752383
Aiello_Park	B	40.90279	-73.773882
St_Augustine's_Religious_Education	A	40.927069	-73.750652
John_Deer_Landscapes	C	40.932382	-73.764405
Alice's_Silver_Canvas	C	40.929582	-73.751495
Nonna's_Pizza_Bar_Restaurent	B	40.907736	-73.77924
Temple_Israel_Of_New_Rochelle	A	40.964714	-73.782362
Teri_B_Weinstock	A	40.9337	-73.758524
Quality_Sewer_and_Drain_Service_Inc	A	40.91584	-73.810518
The_Home_Depot	C	40.898819	-73.792849
Blakeman_Earle_C_DDS	A	40.896654	-73.806018
Davis_Park	B	40.979883	-73.794969
Pure_Bliss_Yogurt_&_Juice_Bar	B	40.912429	-73.808853
New_Rochelle_Barber_Shop	B	40.927338	-73.789546
Pediatric_Group_of_New_Rochelle_PC	A	40.913096	-73.790653
Grab_Ly's_Banh_Mi	B	40.987274	-73.8098
Eye_Do_Hair_and_Makeup	B	40.915295	-73.804008
De_Lima_Park	B	40.988728	-73.804921
New_Rochelle_Toyota	C	40.914728	-73.778576
BP	C	40.915491	-73.784748
Scherr_Martin_R_Dr_Poditrst	A	40.9334	-73.752394
GNC_(General_Nutrition_Centers)	A	40.891204	-73.821041
Larchmont_Doggie_Beach	B	40.916591	-73.749711
The_Learning_Experience	A	40.91346	-73.781179
Total_Performance_Communications	C	40.908384	-73.78271
New_Rochelle_Diner	B	40.900896	-73.793034
Fedex_Office_Print_&_Ship_Center	C	40.9976	-73.817641
Vincenzo's_Family_Style_Italian_Restaurant_&_Bar	B	40.922415	-73.787869
Svetlana_Bridal_Couture	C	40.931058	-73.761247
Via_Forno_Wood_Fired_Pizza_&_Vinoteca	B	40.988582	-73.809524
2ND_Time_Around	C	40.989962	-73.806902
Pelham_Picture_House	A	40.907454	-73.811699
Safavieh_Home_Furnishings	C	40.89881	-73.794858
Dr_Elisa_Kavanagh_Podiatric_Medicine_Foot_Surgery	A	40.970103	-73.805528
Dream_Dry_Scarsdale	B	40.98898	-73.806538
Glenwood_Lake	B	40.919389	-73.800784
Carvel	B	40.915021	-73.772332
Chase	C	40.988969	-73.807873
La_Riserva	B	40.923226	-73.761405
Jeffrey_H_Jablon_MD_FACS	A	40.913623	-73.779318
Zach_Alexander	A	40.910637	-73.783883
Pelham_Public_Library	B	40.902401	-73.814269
F45_Training	B	40.998424	-73.815227
Mathnasium	A	41.006074	-73.809911
ShopRite	C	40.916852	-73.778646
Magnolia_Rheumatology_Opening_Soon	A	40.988314	-73.807138
Michael_A_Ficazzola_MD_FACS	A	40.969488	-73.806225
B_&_A_Barbershop	B	40.915051	-73.77228
A_B_C_Tutors	A	40.910636	-73.783778
Co_Co's_Unisex_Beauty_Salon	B	40.90101	-73.788258
Le_Comte_A_Co	D	40.889338	-73.78517
Contemporary_Dental_Implant_Centre	A	40.988029	-73.824912
Annie_Sez	C	40.992355	-73.823039
Dale_M_Karp_Lcsw	A	40.982158	-73.811902
New_York_Sports_Clubs	B	40.912477	-73.781307
Pizza_Hut	B	40.912946	-73.776549
Flynn_Financial_Partners	A	40.912865	-73.779651
Jessica_Gonzalez	C	40.928165	-73.752445
BGES_Group	C	40.941197	-73.748146
NY_Auto_Quotes	C	40.914868	-73.772566
A_V_Desio's_Future_Automotive	D	40.893994	-73.82145
Gisele's_Salon	B	40.928383	-73.752062
Reisfeld_Arnold_DDS	A	40.910535	-73.79457
Scarsdale_Municipal_Pool	B	40.980067	-73.761285
Farmers_Insurance_Group	C	40.91483	-73.784479
Kramer_Seymour_DDS	A	40.969877	-73.795199
Rebecca's_Cafe	B	40.90505	-73.787715
The_Deli_Counter	C	40.985914	-73.81016
Northeast_Acupuncture_Center	A	40.930556	-73.762168
T_Mobile_Authorized_Retailer	C	40.908197	-73.782383
Eye_Q_Optometrist	A	40.984863	-73.777827
Hellenic_Orthodox_Community_Of_Westchester_Inc	A	40.954202	-73.797976
AccuCare_Wellness_&_Acupuncture	A	40.923211	-73.761665
A_Game_Sports	B	40.900384	-73.793906
Julie_Alcee_BHHS_Westchester_Properties	C	40.988895	-73.806478
H_&_R_Bialy	B	40.947562	-73.794204
Buffalo_Wild_Wings	B	40.911278	-73.780151
Henry's_Barber_Shop	B	40.987994	-73.808274
Planet_Fitness	B	40.910413	-73.779623
Nordic_Edge	B	40.990106	-73.806738
ShopRite	C	40.991489	-73.823099
Joy_Temple_Of_The_Apostolic_Faith_Inc	A	40.905094	-73.787585
Taqueria_El_Chino	B	40.907827	-73.784063
Central_Physical_Therapy_Assoc's_PC	A	41.00536	-73.812476
Cathy_Devore_Houlihan_Lawrence	C	40.929458	-73.751207
Verizon_Authorized_Retailer	C	40.890585	-73.818097
Carvel	B	40.923636	-73.787921
Surf_Club	C	40.897928	-73.770752
Shell_Oil	C	40.987377	-73.823962
Bank_of_America	C	40.990627	-73.80753
Heisler_Pastry	E	40.946895	-73.795437
Cold_Stone_Creamery	B	40.990488	-73.823062
Mister_Chen_Express	B	40.98589	-73.810158
Stan'z_Cafe	B	40.929804	-73.75202
Scarsdale_Florist	C	40.909424	-73.783741
A_&_G_Happy_Kids	B	40.985746	-73.808848
Lopez's_Auto_Repair	D	40.914691	-73.794046
Plastic_Works	C	40.914128	-73.782876
Cws_Pelham	C	40.912479	-73.809301
Salon_Aventine	B	40.915318	-73.808503
Jcc_Of_Mid_Westchester_Nur_Schl	A	40.982916	-73.777917
People_Global_Travel	B	40.977591	-73.774893
AT&T	C	40.912495	-73.809304
Lighthouse_Grill	B	40.908821	-73.782673
SOOP_Theatre_Company	A	40.919543	-73.804864
342_Family_Food_Market	C	40.913757	-73.784366
Current_Home	C	40.984902	-73.777837
Coco_Nail_Spa	B	40.970487	-73.807028
Caren_Osten_Coaching	A	40.927941	-73.752206
The_Soroban_School	A	41.004291	-73.813184
Ethnika_H_Decor_&_Antiques	C	40.92872	-73.771448
Best_Buy_Auctioneers	C	40.988324	-73.80714
Japanese_Weekend_School	B	40.912711	-73.77955
Sam_Lehr_Designs	C	40.989613	-73.807174
Salsa_Y_Brasa_Restaurant	B	40.906201	-73.784839
New_Roc_Cafe	B	40.911144	-73.781054
Ivy_Rehab_Physical_Therapy	A	40.913503	-73.786068
Larchmont_Floral_Designs	C	40.932502	-73.758501
Larchmont_Tavern	B	40.932378	-73.758143
Camp_Hillard_Westchester_Summer_Day_Camp	E	41.012542	-73.811894
Verizon_Wireless_Your_Wireless	C	40.915354	-73.807444
Lineas_de_Naska	B	40.908066	-73.779565
Walgreens	A	40.935141	-73.747031
Salon_Antonio	B	40.898834	-73.777889
Xanadu_Hair_Cutters	B	40.984627	-73.825064
GNC_(General_Nutrition_Centers)	A	40.909238	-73.780508
Dunkin'	B	40.897103	-73.804196
Union_Sports_Bar_Restaurant	B	40.909697	-73.790827
Bagels_on_the_Run	B	40.895637	-73.778904
Howard_Baskin_DMD	A	40.912777	-73.809152
Compass	C	40.906755	-73.811538
Bible_Presbyterian_Church_In_Ny_Inc	A	40.909509	-73.784539
Hair_Factor	B	40.946646	-73.79541
Baker_Quaker_Burial_Grounds	B	40.927003	-73.752986
Jefferson_Field	B	40.89628	-73.790748
Phyllis'_Salon	B	40.915035	-73.807972
Mike's_Barber_Place	B	40.915919	-73.807556
CITGO	C	40.896442	-73.804172
El_Sombrero	B	40.908987	-73.795867
Zabidury_Freestyle_Cuisine	B	40.908032	-73.782126
Dunkin'	B	40.947431	-73.795276
Synergy_Business_Brokers	A	40.923378	-73.775205
Larchmont_Animal_Hospital	A	40.929724	-73.763089
Vfw_Tot_Lot	B	40.896172	-73.779482
United_States_Postal_Service_(USPS)	C	40.946659	-73.794558
D'Avanti_Hair_&_Beauty_Salon	B	40.978537	-73.807752
Wash_Up_Xpress	E	41.007629	-73.809379
Mitul_Patel_DDS	A	40.979553	-73.801445
Midea_Shoe	C	40.909399	-73.781211
Language_For_Living	A	40.993011	-73.818545
Donald_Bernstein_DDS_Scarsdale_Dental_Associates	A	40.969458	-73.806235
Scovotti_Insurance_Agency	C	40.916178	-73.806934
DeCicco_Family_Markets	C	40.990159	-73.807559
Unforgettable_Pet_Salon	B	40.945807	-73.795099
Pepe's_Place	B	40.920923	-73.787631
NQ_Salon	B	40.978239	-73.806292
Freedom_Assembly_Of_God	A	40.91015	-73.810576
Aventura_Deli_&_Grocery	C	40.914126	-73.794404
Viking_Sewing_Gallery	C	40.991783	-73.823033
Tree_Of_Chocolate	C	40.932503	-73.759472
Navas_AV_Solutions	D	40.980478	-73.819662
Pinkberry	B	40.911227	-73.780844
Empty_Hand_Zen_Center	A	40.910516	-73.782079
Station_Flowers	C	40.988451	-73.809633
CVS	A	40.900877	-73.791997
Visionique_Family_Eye_Care	A	40.913316	-73.789463
Columbus_Elementary_School	A	40.910139	-73.797948
Alef_Bet_Preschool	A	40.943968	-73.795506
Body_&_Brain_Yoga_Tai_Chi	B	41.002002	-73.813752
Phenix_Salon_Suites	B	40.948762	-73.792064
Salon_Seventy_Six	B	40.906175	-73.777867
Studio_Capelli	B	40.986296	-73.808747
67Garth_Rd	B	40.987128	-73.810248
Texas_Chicken_&_Burgers	B	40.90957	-73.780726
Blais_Orthodontics	A	40.988333	-73.807092
New_East_Nail_Spa	B	40.933462	-73.761434
Union_Ave_Liquor	C	40.909116	-73.794851
Rosen_Robert_C_Dr	A	40.972631	-73.794704
Magno's_Grill	B	40.906899	-73.783239
Larchmont_Orthodontic_Group	A	40.933245	-73.758366
Lala's_Grill	B	40.907128	-73.78464
Jungle_Gym_Martial_Arts_New_Rochelle	A	40.925724	-73.788904
Patio_com	C	41.001704	-73.814019
State_Farm	C	40.932606	-73.762248
Gulf_Oil	C	40.906497	-73.785795
Noto's_Auto_Repair	D	40.92657	-73.772062
Chat_American_Grill	B	40.99042	-73.80631
Samantha_Slotnick_OD_FAAO_FCOVD	A	41.005352	-73.812505
The_UPS_Store	C	40.947231	-73.795273
Natural_Care_Of_Westchester	A	40.931022	-73.762011
Radiate_Yoga	B	40.911817	-73.812664
New_Roc_Pizza	B	40.907467	-73.782207
St_John's_Church	A	40.919932	-73.750403
Harbour_House_Coffee_Shop	B	40.932396	-73.759599
Exotic_Nail_4_You	B	40.908936	-73.78186
Shell_Oil	C	40.987547	-73.797237
Humble_Pie_Specialty_Cakes	E	40.914398	-73.773268
D_&_A_Smokehouse	B	40.99719	-73.817584
Salesian_Provincial_Hse	A	40.91549	-73.767832
The_Sadkhin_Complex_of_New_Rochelle	B	40.945752	-73.795187
Pizzeria_La_Rosa	B	40.901858	-73.790894
Unitel_Verizon_Wireless_Premium_Retailer	C	40.979535	-73.801464
Happy_Days_Pizza_Place	B	40.97659	-73.802806
Vogue_Nails	B	40.945725	-73.796063
Rosarito's_Deli_&_Grill	B	40.92388	-73.758794
Altman_Jill_P_MD_PC	A	40.978301	-73.786474
Knotz_Hair_Studio	B	40.914859	-73.772695
Fratelli_Pizza	B	40.914344	-73.773636
Iona_College	A	40.898139	-73.788961
Sandwich_King	B	40.898674	-73.777799
Savona	B	40.988803	-73.806747
Mikvah_of_New_Rochelle	A	40.943929	-73.795499
Alcott_School	A	40.991487	-73.802583
Panera_Bread	B	40.99305	-73.822269
Mason_C_Alan	A	40.947308	-73.763184
Emanuel_A_M_E_Church	A	40.930089	-73.767382
Hour_To_Exit_Escape_Games	B	40.909479	-73.779993
MAG_Tricotes	C	40.990186	-73.806729
Highridge_Bagels	B	41.007795	-73.810738
Sally_Beauty_Supply	A	40.891964	-73.821257
Huguenot_Nursery_School	A	40.895322	-73.805698
CITGO	C	40.91225	-73.775155
New_Rochelle_Fire_Department_Station_5	A	40.971365	-73.776537
Eldorado_Diner	B	40.99612	-73.817768
MG_Martins_Auto	D	40.923989	-73.781976
Scarsdale_Personal_Dental_Care	A	41.002297	-73.813652
One_River_School_of_Art_&_Design	C	40.92887	-73.750815
New_Roc_Dental	A	40.911959	-73.782141
G_Bakery	E	40.907503	-73.779184
Amazing_Savings	C	40.992235	-73.822885
Sakura	B	40.912832	-73.808675
Quinn_Tessential_Wine_&_Spirits	C	40.914575	-73.773132
Costco_Tire	C	40.89649	-73.794513
Sunoco	C	40.929026	-73.763996
Cannone's_Pizza	B	40.924143	-73.78808
Sea_Flame_Restaurant	B	40.971053	-73.806647
Green_Harvest	C	40.987156	-73.809809
Fred's_Firewood	C	40.927225	-73.771611
Xpress_Salon	B	40.988458	-73.809643
Humane_Society_of_Westchester	A	40.927146	-73.770812
Steve_Sohn's_Krav_Maga_Training_Center	A	40.979142	-73.807783
Durian	B	40.933316	-73.759389
Harwood_Park	B	40.997859	-73.790182
EuroTech_Auto_Repair	D	40.923847	-73.758808
Golden_Duck	B	40.985924	-73.810176
Scarsdale_Acupuncture	A	41.004287	-73.813177
Ecco_Agency	C	40.987085	-73.824158
SafeSplash_Swim_School_Pelham	B	40.892402	-73.820731
The_Kehillah_School_For_Early_Learning	A	40.965681	-73.780224
Yum_Ice_Cream&Bubble_Tea	B	40.910621	-73.781011
Cooper_Field	B	40.975926	-73.800517
Ellen_Cohen_Lewis_DC	A	40.932821	-73.761854
Pelham_Cafe	B	40.913173	-73.808413
The_Rock_Club	A	40.917693	-73.77658
North_American_Investigations	A	40.968597	-73.80631
Fuji_Mart_Scarsdale	C	40.975878	-73.80256
Supply_Field	B	40.986557	-73.776752
Michael_G_Mruz_LCSW_PC	A	40.98936	-73.807268
Sun_Nail_&_Spa	B	40.946798	-73.794415
Eastgate_Church_Of_The_Nations_Inc	A	40.91458	-73.798955
Paparazzi_Ready_NY	C	40.907682	-73.779315
Westchester_Speech_&_Language_Services	A	40.987905	-73.772338
Center_Food_Mart	C	40.910553	-73.792299
Children's_Corner_Of_Larchmont_Mamaroneck_Inc	A	40.934338	-73.744803
The_Ursuline_School	A	40.947887	-73.797756
The_Meeting_House_Zen_Group_Inc	A	40.910548	-73.782054
Wings_Over_Westchester_Air_Museum	B	40.992052	-73.811135
Stop_&_Shop	C	40.911502	-73.779043
Allstate_Insurance	C	40.910316	-73.78079
Spiritual_Development_Institute	A	40.921147	-73.799402
Critter_Sitters	B	40.902005	-73.775515
Pediatric_Ophthalmology_Of_New_York	A	40.988036	-73.824923
Giacomo_Service_II	C	40.929004	-73.764039
Barbara_W_Gottlieb	A	40.932823	-73.749334
The_Gnarly_Vine_Wine_Bar	B	40.909018	-73.781684
Inknovation	C	40.908602	-73.784202
Mark_D_Rosenstein_DDS	A	40.923293	-73.76023
Stamen_Animal_Hospital	A	40.948292	-73.793317
Dentserv_Dental_Services_PC	A	40.894491	-73.820831
Rebecca_Creation_And_Spa	B	40.970942	-73.795379
Edythe_Adler_Psy_D	A	40.981379	-73.812036
Campus_USA	B	40.924127	-73.788058
Aspirations_Cafe	B	40.910751	-73.778174
Colombian_House	B	40.907118	-73.784648
Complete_Medical_Chiropractic_&_Rehabilitation	A	40.922729	-73.787555
Cousins_Cigars_&_Hookah_Lounge	C	40.914607	-73.77271
McDonald's	B	40.926118	-73.789134
Joyce_Nail_&_Foot_Spa	B	41.002181	-73.813712
The_Salvation_Army	C	40.908107	-73.78109
Subway	B	40.923572	-73.787923
Adams_Paiva_Elizabeth_DDS	A	40.988031	-73.82491
JayWay_Travel	B	40.888435	-73.7905
Rubin_Mitchell_DPM	A	40.923386	-73.760283
The_Glass_Room	C	40.908244	-73.781726
Hernan_Prada_Hair_&_Dry_Bar	B	40.97738	-73.806091
Quaker_Ridge_Chiropractic	A	40.96067	-73.795233
El_Herradura	B	40.907682	-73.783873
Prowash_of_New_Rochelle	D	40.905659	-73.788266
Seasons_Kosher	C	40.985029	-73.777758
La_Fattoria	C	40.919325	-73.766566
Allstate_Insurance	C	40.976208	-73.802469
Cherry_Blossom	C	40.945999	-73.795196
Sapori_of_Scarsdale	B	40.988927	-73.806466
Public_Storage	C	40.890148	-73.817147
Marano_Phil_Hair_Design	B	40.973633	-73.803281
Shoyu_Sushi	B	40.980317	-73.776583
Trader_Joe's	C	40.9384	-73.746456
Kiku_Sushi	B	40.896286	-73.778262
Momotaro	B	40.989625	-73.807571
New_Great_Wall	B	40.914366	-73.773548
Roc_Insurance_New	C	40.921327	-73.788101
Barbara_Gottlieb_ED_D	A	40.932822	-73.749333
Pasqua_Stephen_DDS	A	40.934553	-73.790682
James_DeMeo_DPM_FACFAS_CWS	A	40.988033	-73.824953
Thornton_Donovan_School	A	40.933223	-73.781997
Flourish_Baking_Company	E	40.977091	-73.804264
United_States_Postal_Service_(USPS)	C	40.990096	-73.806296
Champion_Dental	A	40.99377	-73.822603
Escape_Latino	B	40.899091	-73.798457
Diamond_Stone_Outsourcing	C	40.908037	-73.778326
Comfort_Keepers	B	40.920125	-73.786215
Dollar_Tree	C	40.91718	-73.785161
Wilson_&_Son_Jewelers	C	40.989108	-73.806597
Computer_Perfect	D	40.913493	-73.78606
Golden_Imperial_Chinese_Restaurant	B	40.909925	-73.788543
Katelyn_Vargas_RE_MAX	C	40.985756	-73.808847
New_Millennium_Driving_School	A	40.907316	-73.784281
Speedway	C	40.996526	-73.818192
Chiropractic_Health_Centers	A	40.960657	-73.795226
Berta's_Deli_&_Grocery	B	40.914632	-73.78439
Starbucks	B	40.990115	-73.808114
Westchester_Yoga_Arts	B	40.91066	-73.782328
Clutch_Palmer_&_Purchase	C	40.933244	-73.758949
Monroe_College_New_Rochelle_Campus	A	40.911726	-73.776428
Aura_Wine_&amp_Bar	B	40.908977	-73.781703
Standing_Room_Only_Fine_Foods_Fine_Catered_Events	E	40.981464	-73.776539
Sweeets	C	40.932101	-73.759711
BISE_Automotive	C	40.916156	-73.770309
Police_Tutorial_Svc	A	40.976535	-73.803575
GMazza_Salon	B	41.000377	-73.814674
Style_Society_Barbershop_&_Salon	B	40.927353	-73.789573
Pediatric_Associates_of_Westchester	A	40.969422	-73.806026
Performance_Title_Agency	C	40.933668	-73.747902
AT_Equipment_Sales	C	40.976249	-73.804164
Kids'_B_A_S_E_&_The_Little_School	A	40.97926	-73.761742
Therapeutic_Glamour	A	40.960285	-73.784301
Queens_Nail	B	40.905666	-73.774389
Chase	C	40.999687	-73.814867
POP_IN_Play_Space_&_Cafe	B	40.930997	-73.761448
AT&T	C	40.933196	-73.759055
R_&_G_Enterprises	C	40.974821	-73.77339
Clean_Cuts_Barbershop	B	40.927874	-73.752054
J&amp_J_Backflow_Device_Testers	A	40.900453	-73.785953
Westchester_Psychoanalytic_Society	A	40.940783	-73.781285
Quaker_Ridge_Shopping_Center	C	40.946644	-73.794565
Spadaro	B	40.997116	-73.817693
AAMCO_Transmissions_&_Total_Car_Care	D	40.914999	-73.771298
Cindy_By_Nature	B	40.943875	-73.757692
Scarsdale_Community_Bapt_Church	A	40.988832	-73.80579
Sakura_Sushi	B	40.984624	-73.777743
B_N_Auto	C	40.908636	-73.793942
American_Laser_Center	B	40.988989	-73.808968
New_York_Sports_Club	B	40.96998	-73.805692
Giacomo_Service_Center	C	40.933026	-73.76469
Hibba_Beauty_Scarsdale	B	40.988025	-73.809716
Hudson_Country_School_Inc	A	40.954095	-73.783275
Andersons_Larchmont	C	40.932135	-73.757714
High_Ridge_Books	C	40.951679	-73.769694
Willow_Towers	B	40.898246	-73.778642
Authentic_Cafe	B	40.911354	-73.780318
Bella_Fiora	C	40.930902	-73.760877
Nail_City_One	B	40.909268	-73.781315
American_Legion_Larchmont_Post_347	B	40.93179	-73.747811
Chatsworth_Avenue_School	A	40.93005	-73.753064
Toy_Discount_Center	C	40.909142	-73.780357
Crab_Du_Jour_Cajun_Seafood_&_Bar	B	40.893215	-73.819894
Lane_Bryant	C	40.891281	-73.820988
New_Rochelle_Farmers_Market	C	40.909801	-73.782589
Audiology_Associates_of_Westchester	B	40.986371	-73.775595
Brooks_Brothers	C	40.970181	-73.805394
Western_Union	C	40.9874	-73.808288
Eastchester_Medical_Group	A	40.986385	-73.77566
Hartley_Field	B	40.91785	-73.788931
Popeyes_Louisiana_Kitchen	B	40.917259	-73.778421
Paraiso_Nutricional	B	40.908957	-73.796241
Daniel_Webster_Elementary_School	A	40.918294	-73.798052
Pelham_Funeral_Home	B	40.915488	-73.809281
Caffe_Regatta	B	40.908655	-73.811405
Manor_Auto_Service_Center	C	40.88735	-73.791279
Starbucks	B	40.926549	-73.786273
Sweet_&_Social	E	40.93206	-73.759681
Insmed_Insurance_Agency	C	40.978174	-73.806343
Wok_King	B	40.914932	-73.784543
New_Rochelle_Chiropractic	A	40.904685	-73.77516
Christian_Bros_Inst_St_Josephs	A	40.929152	-73.78869
Sominia	A	40.913987	-73.780412
Safeway_Collision	D	40.928244	-73.769465
Edgemont_Junior_Senior_High_School	A	41.001136	-73.807004
CVS	A	40.930198	-73.751453
Quatro_Technologies	C	40.913044	-73.789753
Proudian_Rugs	C	40.939869	-73.798261
The_UPS_Store	C	40.916118	-73.770389
Sals_Pizza_Ii	B	40.947745	-73.794167
Coughlin_Insurance_Services	C	40.932827	-73.761819
The_Standard	C	40.911528	-73.781075
Southside_Dental_PC	A	40.913109	-73.790632
The_Redeemed_Christian_Church_of_God	A	40.914388	-73.785016
Beth_Emeth_Synagogue	A	40.928003	-73.751392
Bonasera's	B	40.929682	-73.751768
Longford's_Ice_Cream	B	40.931898	-73.759967
DOnofrio_Park	B	40.89566	-73.793056
Scarsdale_Clocks	C	40.932928	-73.759453
Cestra's_Pizza_4	B	40.905989	-73.785592
Lenny's_Bagels	B	40.895901	-73.80526
Trio_Salon	B	40.990186	-73.806726
The_Scarsdale_Village_Flower_Shop	C	40.989081	-73.807439
Barry's_Bootcamp	B	40.985304	-73.776731
French_Speaking_Baptist_Church	A	40.908355	-73.781373
Premier_Dog_Walking_of_Westchester	B	40.899972	-73.812198
Larchmont_Temple_Inc	A	40.924764	-73.749228
Com_Fit_Shoes	C	41.006094	-73.811932
Empire_Tax_Svces	A	40.994123	-73.811751
Lucia's_Nail_Salon	B	40.906114	-73.785442
Burger_King	B	41.002981	-73.812835
The_Hallen_School	A	40.906865	-73.783905
Peel_Facial_Spa	B	40.970483	-73.807025
Gershanok_Michael_DDS	A	40.981292	-73.812952
Apple_Pro_Rehab	A	40.979536	-73.801454
Arteffects	C	40.919701	-73.805141
State_Farm	C	40.974365	-73.802952
Plushblow_Scarsdale	B	40.989273	-73.807301
RiskBlock	C	40.915216	-73.784265
Pelham_Animal_Hospital	A	40.91537	-73.808843
Alfredo's_Pizza_Cafe	B	40.907511	-73.782209
Candida_R_Diaz_Life_LCSW_R_Coach_for_Highly_Motivated_Women	C	41.004303	-73.813201
Downtown_Gold_City_Inc	A	40.902743	-73.789791
Hali_Theodore_F_DPM	A	40.913521	-73.786059
Raffi's_Red_Hot_Grill	C	40.987783	-73.837559
Center_For_Movement	B	40.985475	-73.808715
Bonsera's	B	40.929686	-73.751793
Lily_Nail_Spa	B	40.920478	-73.765205
Pro_Sports_Physical_Therapy_of_Weschester	A	40.988271	-73.806652
Great_Generations	A	40.933154	-73.758238
Toriano's_Pizzeria	B	40.90873	-73.782468
Ty_Hunter_Better_Homes_&amp_Gardens_Rand_Realty	C	40.94677	-73.795355
Scarsdale_Aesthetic_Medicine	B	40.988327	-73.807125
Flandreau_Cemetery	B	40.920269	-73.76303
Murray_Schoen_&_Homer_Inc	C	40.906156	-73.777186
TT's_Rainbow_Nail	B	40.928903	-73.764823
Baraud_Rd_Lake_Area	B	40.979325	-73.78088
Villaggio_Ristorante_&_Pizzeria	B	40.906143	-73.811882
Atit_Thai_Restaurant	B	40.907375	-73.779157
Fantics_Photo	A	40.909139	-73.7816
Falvey_Kevin_J_DDS	A	40.896679	-73.806
Azure_Stages	C	40.977837	-73.805472
Ionian_Grill_&_Cafe	B	40.92238	-73.787862
Coromandel_Cuisine_of_India	B	40.908939	-73.783707
Surf_Club_on_the_Sound	E	40.89773	-73.770574
Empire_Foot_Care_PC	A	40.909571	-73.780185
Vision_Of_Tomorrow_Salon_&_Spa	B	40.927958	-73.752198
Salesian_Missions	A	40.91552	-73.766791
Salsa_Express	B	40.915036	-73.772223
Sydney's_Furniture	C	40.908153	-73.782934
Western_Union	C	40.935306	-73.74713
Sunoco	C	40.915759	-73.810061
7-Eleven	C	40.987414	-73.808298
Orthodontic_Center_of_Scarsdale	A	40.974567	-73.80394
Pro_Tech_Benz	D	40.887373	-73.791346
Smile_Scarsdale_Pediatric_Dentistry_&amp_Family_Orthodontics	A	40.988032	-73.824942
John_J_Fox_Funeral_Home_Inc	B	40.929187	-73.751392
Chipotle_Mexican_Grill	B	40.993072	-73.822097
Tatiana_Borinos_DDS_PC	A	41.006064	-73.811912
American_Legends	C	40.986445	-73.826578
Blue_Dog_Wine_&_Spirits	C	40.90657	-73.811559
Mazel_Tot	A	40.996511	-73.803726
Supercuts	B	40.922128	-73.772454
Spiritual_Assembly_Of_The_Bahais_Of_New_Rochelle	A	40.899392	-73.78423
Paulie's_Pizzeria	B	40.927388	-73.789705
Muller's_Delicatessen	C	40.985898	-73.810184
D_Gloria_Hernandez_J_Philip_Real_Estate	C	40.913133	-73.808435
La_Renaissance_Catering	E	40.988977	-73.807524
Olaniyi_Epemolu_DDS	A	40.893373	-73.78464
Roc_N_Ramen	B	40.911121	-73.780988
I_Got_The_Juice	B	40.907361	-73.784272
Brightstone_Insurance	C	40.913606	-73.779324
Oneills_Performance	D	40.97773	-73.805037
The_Time_Leisure_Beauty_Spa	B	40.91348	-73.808358
The_Men's_Wearhouse	C	40.9976	-73.817467
Grin_and_Bare_It	B	41.005333	-73.812483
HSBC_Bank	C	40.911025	-73.782104
Ward_Acres_Park	B	40.958294	-73.782347
Chipotle_Mexican_Grill	B	40.893626	-73.821013
Enchanted_Flower_Boutique	C	40.909147	-73.784056
Rescigno_Park	B	40.978413	-73.806696
LYNN_Academy_of_Irish_Dance	A	40.917739	-73.776279
Empire_Cinema_2u	C	40.98697	-73.784988
Bank_of_America	C	40.984534	-73.776753
Lisa_Petite_Nails	B	40.895809	-73.779916
Direct_Property_Management	C	40.917276	-73.806932
ML_Bruenn_Co	C	40.910768	-73.781995
Village_Park	B	40.934307	-73.755178
Beth_El_Synagogue_Of_New_Rochelle_Inc	A	40.946886	-73.796776
Menken_Norman_DDS	A	40.943219	-73.799729
Siwanoy_School	A	40.898675	-73.809349
1_Of_1_Nyc	C	40.908239	-73.783034
Paul_Williams_DDS	A	40.986944	-73.824025
Empire_Footcare	A	40.909596	-73.780155
Four_Corners_Pizza	B	40.895823	-73.80516
St_Nicholas_Greek_Orthodox_Church	A	40.898266	-73.770351
DeCicco_and_Sons	B	40.974621	-73.803901
Audio_Help_Hearing_Centers	B	40.97953	-73.801445
Symmetry_Physical_Therapy	A	40.916588	-73.806747
Pinnacle_Performance_PT	A	40.985785	-73.809984
Nordone_&_Sons_Auto_Body	D	40.922146	-73.763327
All_County_Endodontics	A	40.99372	-73.8222
Kulltured_Kandy	C	40.906654	-73.785479
Seth_Greenbergs_Just_Desserts	E	40.933659	-73.758477
Usmex	B	40.914573	-73.79459
Barnes_and_Noble	C	40.969299	-73.80674
LMC_Car_Wash	D	40.922731	-73.787778
Farida_Parveen	A	40.913148	-73.790337
Cheryl's_Closet	C	40.984836	-73.777726
Fresh_Taco	B	40.908336	-73.783105
Empire_Wok	B	40.905247	-73.774743
Modern_Restaurant_and_Lounge	B	40.908934	-73.784276
Sotheby’s_International_Realty	C	40.989251	-73.806294
Scarsdale_Ford_Service	D	40.993666	-73.820869
Flowerbake_by_Angela	B	40.913142	-73.808498
Marshalls	C	40.890699	-73.821038
Kiddiversity	C	40.899095	-73.800183
Blooming_Nail_&_Spa	B	40.897204	-73.77764
Sergio's_Ristorante	B	40.918828	-73.805796
Trax_Deli	C	40.933124	-73.75903
Chase	C	40.911833	-73.809694
CVS	A	40.921456	-73.787646
Fordham_Wigs_Of_Westchester	B	40.911792	-73.782359
M4_Interiors	D	40.897148	-73.792588
St_Pauls_Refuge_Tabernacle	A	40.929365	-73.769594
Great_American_Photo	A	40.913128	-73.808465
Bel_Aqua_Pool_Supply	C	40.913532	-73.781697
Allstate_Insurance	C	40.932097	-73.758782
Marathon's_Gold_City	C	40.890996	-73.821011
Pelham_Family_Dental_Arts	A	40.910169	-73.810559
Watermark_Pointe	A	40.891073	-73.778485
Pop's_Espresso_Bar	B	40.914357	-73.773533
CVS	A	40.937007	-73.747363
Pearle_Vision	A	40.97434	-73.803923
Super_Mercado_Mexico_Incorporated	C	40.909774	-73.788888
Tedesco_Auto_Body	D	40.91255	-73.775041
Pookie_and_Sebastian	C	40.989358	-73.807762
Trinity_Lutheran_Church_Of_Scarsdale	A	40.991803	-73.803323
County_Tennis_Club_of_Westchester	B	41.01288	-73.792771
The_Vivid_Touch	B	40.948565	-73.792334
La_Lettera_Calligraphy_NYC	C	40.899501	-73.803845
Scent_Fluence	C	40.989532	-73.807254
Mattys_Auto_Body	D	40.97798	-73.805974
Westchester_Fight_Club	A	40.920368	-73.78828
New_Rochelle_Prescription_Center	A	40.907948	-73.783411
Reb_Sports_Complex	A	40.894285	-73.821264
Diner_Brew_Co	D	40.909148	-73.783986
Electric_Beach	B	40.97466	-73.803882
D'Alba_IT_Services	C	40.935309	-73.756316
Chabelitas	B	40.917046	-73.778871
PurePoint_Financial	C	40.99425	-73.819343
Steiner_Sports_Marketing	C	40.913402	-73.779434
Weiss_Raymond_B_DMD	A	40.995386	-73.818011
Quaker_Ridge_School	A	40.968192	-73.771167
Iris_Nail_&_Spa	B	40.989577	-73.807764
Mount_Carmel_A_M_E_Church	A	40.908328	-73.789913
Tres_Magnifique	C	40.93251	-73.758585
MyUSACorporation	A	40.913918	-73.777831
AT&T	C	40.909061	-73.780912
Sindy's_Nails	B	40.913745	-73.808239
Mancino_Custom_Tailors	C	40.932167	-73.759624
MAZDA_OF_NEW_ROCHELLE	C	40.917027	-73.769461
Exterior_Measures	A	40.913108	-73.781097
Dental_Implants_Dynamics_&_Smile_Experts	A	40.987791	-73.825098
Katie_OLeary_LCSW	A	40.978715	-73.806137
Pinebrook_Blvd	B	40.958855	-73.77886
USA_Car_Wash	D	40.891628	-73.817626
Salon_Pure	B	40.930588	-73.76219
Gileade_Biblical_Community	A	40.921992	-73.79968
Larchmont_Acupuncture	A	40.933154	-73.748218
Accent_Nail	B	40.989026	-73.80751
CrossFit	B	40.921788	-73.7883
Taco_Bell	B	40.912851	-73.775707
Ardsley_Musical_Instrument_Svce	C	41.000226	-73.838378
The_WorkRoom_Upholstery_&_Window_Treatments	D	40.905807	-73.785884
Amusement_Consultants	A	40.901044	-73.792031
Patrick_T_Daly_CPA	A	40.912351	-73.782539
Eblens	C	40.917185	-73.785837
Church_of_God_of_New_Rochelle_New_Testament	A	40.90921	-73.779551
Ramsay_Farm	A	40.989276	-73.765837
Buy_Buy_Baby	C	40.98909	-73.824685
J_&_F_Chatsworth_Autobody	D	40.935395	-73.758322
Sky_Zone	B	40.911044	-73.779652
Scarsdale_Synagogue	A	40.996544	-73.80371
Greentree_Country_Club	B	40.893041	-73.795667
Edo_Japanese_Steakhouse	B	40.897136	-73.804091
BeAti_Acupuncture_Wellness_Clinic	A	40.988026	-73.82491
Wolfs_Lane_Park	B	40.908066	-73.811147
Westchester_Floral_Decorators	C	40.905422	-73.812299
Wash_&amp_Dry	E	40.939088	-73.744926
Floors_To_Go	C	40.913793	-73.78451
County_Beverages	C	40.905236	-73.788822
Hausen_Scott_Dpm	A	40.909559	-73.780198
Mount_Tom_Day_School	A	40.894048	-73.789718
Mezzaluna	B	40.977668	-73.806713
Iyengar_Yoga_Scarsdale	B	41.004292	-73.788941
Western_Union	C	40.922061	-73.77399
Styl_N_Lux_Cafe	B	40.905838	-73.787125
Pizzarelli's_Pizza_&_Pasta	B	40.989065	-73.808895
Twins_Star_Cafe	B	40.913621	-73.779315
Ottavio's_Studio	C	40.904002	-73.788794
Futterman_Carol	A	40.935338	-73.755881
Colangelo_Group	C	40.920177	-73.776308
Residence_Inn_by_Marriott	B	40.911973	-73.780819
Beast_Seasonings	C	40.904311	-73.806471
Lange's_of_Scarsdale	B	40.989947	-73.806761
Waffle_Cafe	B	40.922867	-73.788177
Jozef_M_Debiec_MD_NY_Pain_and_Spine	A	40.979023	-73.807491
Flowers_Park	B	40.9301	-73.772151
Lulu_Cake_Boutique	E	40.987816	-73.809824
Stock_Cabinet_Express	C	40.915854	-73.807608
Webster_Bank	C	40.913608	-73.777269
Milbrandt_&_Co	C	40.916834	-73.769767
The_Dance_School_at_the_JCCMW	A	40.982959	-73.777889
Scarsdale_Fire_Department_Station_1	A	40.97339	-73.802887
Hot_Yoga_Pelham	B	40.916319	-73.810738
Jack's_Automotive_Larchmont	D	40.929705	-73.763276
Charlie's_Auto_Body	D	40.978579	-73.805373
Scarsdale_Ortho	A	40.986402	-73.775595
Lala's_Beauty_Salon	B	40.906561	-73.784805
United_Hebrew_of_New_Rochelle	B	40.896656	-73.779034
North_End_Quality_Meats	C	40.976659	-73.802779
Bodyware_Personal_Training	B	40.915039	-73.807617
Scarsdale_Farmers'_Market	C	40.988305	-73.797441
Smoke_&_Spice_NY_Grill	B	40.911058	-73.781153
Rosario's_Hair_Salon	B	40.946784	-73.794398
Golden_Day_Spa	B	40.985297	-73.776711
Vapen_Up	C	40.922187	-73.787841
Blvd	B	40.988999	-73.806516
La_Piazza_di_Carolina_Italian_School	A	40.992996	-73.818523
Wells_Fargo	C	40.946518	-73.795324
Carlyn's_Cove	B	40.927776	-73.752097
Remi's_Place	C	40.898769	-73.799086
San_Yama_Bushi_Judo_&_Ju_Jutsu_School	A	40.906159	-73.785268
Taqueria_San_Antonio	B	40.909002	-73.795798
Japanamerica_Learning_Center	A	40.978895	-73.807042
Moscato	B	40.988172	-73.808211
Glen_Island_Center_For_Nursing_And_Rehabilitation	B	40.894747	-73.781733
Wallauer_Paint_&_Design	C	40.908536	-73.784469
Be_True_Yoga	B	40.9894	-73.807273
Smokehouse_Tailgate_Grill	B	40.922553	-73.788335
Elder_Care_Homecare	B	40.970838	-73.804681
Alleyway_Boutique	C	40.946863	-73.795258
Webster_Bank	C	40.989023	-73.809112
Hip_Cafe	B	40.915122	-73.807593
Swirl_Coffee_&_Tea_Room	B	40.946484	-73.795202
Patriot_National_Bank	C	41.00539	-73.812359
Huguenot_Park	B	40.929217	-73.791158
Danny's_Card_&_Gift	C	40.891916	-73.820758
Kumon_Institute_of_Education	A	40.980658	-73.776545
BJ's	C	40.893887	-73.821369
Delicias_El_Dorado	B	40.909156	-73.781681
Goldman_H_Debra_PhD	A	40.988038	-73.824912
Smallcakes	E	40.997177	-73.817666
BCBG	C	40.971972	-73.803835
The_Snackery_Bakeshop	E	40.931045	-73.761218
uBreakiFix	C	40.997283	-73.817515
2_Sisters_Nails_&amp_Spa	B	40.90842	-73.782781
Lily_Spa	B	40.92291	-73.787375
Nathan's_Famous	B	40.980131	-73.761622
Little_Mexican_Cafe	B	40.907229	-73.784473
Trails_End_Deli	C	40.917629	-73.803287
Manor_Veterinary_Clinic	A	40.915599	-73.807347
Bradley's_Desserts_&_Cafe	B	40.929505	-73.751308
MC_Travel_Management	B	40.92837	-73.794334
Cermele_Bros_Garage	D	40.977978	-73.805964
Maisonette	D	40.933484	-73.761413
Holy_Family_Ccd	A	40.924214	-73.791358
Davenport_Club	B	40.897854	-73.772859
Ny_Athletic_Boat_Club	C	40.887445	-73.787574
Hudson_Valley_Bank	C	40.914407	-73.773345
Joel_Ross_Tennis_&_Sports_Camp	B	40.981232	-73.778571
Gynocology_And_Obstetrics_Associates	A	40.932246	-73.762454
Creative_Playtime_Grace_Evangelical_Lutheran_Church	A	40.983237	-73.807452
New_York_Hair_Salon	B	40.913765	-73.808752
Bruckner_Cash_Register_Sales_&amp_Service	D	40.909284	-73.780458
Cuatro_Caminos_Deli	C	40.909984	-73.796236
Fairway_Wines_&_Spirits	C	40.891471	-73.820498
Post_Road_Gallery	C	40.927468	-73.752223
Tiso_Appliance	D	40.909638	-73.811008
Joy_Nails	B	40.929473	-73.751545
Numi_Co	B	40.980128	-73.809963
Maciel's_Barbershop	B	40.910157	-73.789567
American	C	40.973699	-73.803873
Northwell_Health	A	40.948685	-73.792247
North_Dental_General_&_Cosmetic_Dentistry	A	40.921134	-73.787094
Dermatology_Associates_of_Westchester_P_C	A	40.913073	-73.790709
North_River_Deli	B	40.924583	-73.787804
Weiman_Park	B	40.896223	-73.806414
Wells_Fargo	C	40.929722	-73.750355
Shell_Oil	C	40.915773	-73.810097
The_808_Bistro	B	40.984401	-73.809281
Active_Physical_Therapy	A	40.929041	-73.764631
Edgewood_School	A	40.984085	-73.796065
Billy_Shears_Hair_Studio	B	40.916387	-73.807384
New_Rochelle_Fire_Department_Station_3	A	40.927049	-73.789622
CVS	A	40.895979	-73.804569
Well_Haus_of_Westchester	A	40.908648	-73.81136
Integrity_Sales	C	40.909523	-73.781022
ABTsolute_Training_Systems	B	40.928189	-73.771726
Encore_Bistro_Francais	B	40.929749	-73.751916
El_Mofongo_Serie_56	B	40.907133	-73.784671
The_Corner_Store	C	40.932638	-73.758794
La_Placita_Fresh_Market	C	40.902488	-73.790211
Jennifer_Battaglino_LCSW	A	40.932837	-73.761839
Opex_Blue	B	40.920356	-73.804915
LUKOIL_North_America	C	41.007254	-73.809977
Andrene_A_Campbell_M_D	A	40.988319	-73.807128
The_Salon_de_Lash	B	40.989635	-73.807581
Adama's_African_Hair_Braiding	B	40.915443	-73.785338
Dualities_Antiques_&_Art	C	40.930054	-73.750787
Pedro_Sanchez_Cycling	C	40.901593	-73.788163
Larchmont_Gourmet	B	40.93333	-73.759358
Alfa_Romeo_FIAT_of_Larchmont	C	40.930353	-73.750672
Pelham_Dental	A	40.896075	-73.804884
Anna_Maria's_Restaurant	B	40.929686	-73.751745
Love_Music	C	40.914048	-73.784529
Metro_by_T_Mobile_Authorized_Dealer	C	40.915174	-73.784623
YMCA	B	40.90004	-73.79083
BoConcept_Scarsdale	C	41.009638	-73.809082
DHL	C	40.90905	-73.795687
Floor_Coatings	A	40.918682	-73.806069
HomeGoods	C	40.995133	-73.819872
Sunshine_Coffee_Roasters	B	40.931944	-73.759375
Deli_Mart	C	40.924599	-73.787746
Larchmont_Women's_Center	A	40.923569	-73.75958
West_Harbor_Yacht_Svce	C	40.889146	-73.785253
Chopt_Creative_Salad	B	40.984383	-73.777019
Acu_Nutrition	B	40.913104	-73.790626
Sherwin-Williams	C	40.921952	-73.772555
The_Children's_Place	C	40.969367	-73.806323
the_Image_Maker	A	40.895782	-73.782056
Pelham_Lube	D	40.891609	-73.817639
Total_Image_Hair_Salon	B	40.898802	-73.798928
New_Roc	B	40.905246	-73.77475
Roma_Landscape	C	40.970216	-73.7829
West_Chester_Family_Dentist	A	40.988341	-73.807123
Lippman_Eye_Care_Center	A	40.925911	-73.804556
New_Roc_City	C	40.911028	-73.780216
Aqua_Play_Pool_&_Spa	C	40.902802	-73.789321
Eastchester_Fire_Department_Station_5	A	40.965308	-73.795629
Prime_Time_Cafe	B	40.946801	-73.795405
Pamela_Young_LCSW	A	40.988058	-73.763749
Salon_De_Voeu	B	40.987038	-73.809826
Bank_of_America	C	40.89685	-73.804845
Pine_Brook_Fitness	B	40.917955	-73.776885
Clearview_Larchmont_Playhouse	A	40.931279	-73.761289
Allstate_Insurance	C	40.928521	-73.751199
Wisdom_Way_Martial_Arts	A	40.908518	-73.811427
European_Wax_Center_(EWC)	B	40.922336	-73.773273
BNZ_Group	C	40.976903	-73.80352
Diamond_Days	C	40.988524	-73.797402
Congregation_M'vakshe_Derekh	A	40.988101	-73.798864
Accu_Weight_Loss	B	40.974303	-73.802978
Israel_Seacord_Cemetery	B	40.943636	-73.795416
Silhouettes_Hair_Salon	B	40.897018	-73.777768
Willow_Road	C	40.979535	-73.801459
Lucky_Star_Skin_Care_Spa	B	40.91815	-73.805834
Pelorus_Nail_Spa	B	40.908448	-73.782765
Lash_Out_Loud	B	40.91505	-73.785075
TD_Ameritrade	A	41.010415	-73.808392
Jaguar_Land_Rover_Larchmont_New_Rochelle	C	40.920593	-73.765167
All_Home_Appliances_Kitchen_&_Bath	C	40.914268	-73.782606
Acme_Markets	C	40.947168	-73.793993
Jess_Nails	B	40.915431	-73.807468
Cave_Gail_Dr_DDS	A	40.987806	-73.825084
Alex_Arts_Hair_Salon	B	40.979547	-73.801446
Early_Childhood_Center_Westchester_Reform_Temple	A	40.985424	-73.764953
Lakeshore_Learning_Materials	C	40.991651	-73.823054
Larchmont_Eye_Associates	A	40.923299	-73.760224
Pelham_Children's_Center_Inc	A	40.91574	-73.809026
New_Rochelle_Pharmacy	A	40.913312	-73.789423
Sherwood's	B	40.927237	-73.752481
Wingstop	B	40.890473	-73.818285
Reiki_Energy_Healing_New_Day_Vitality	B	40.930487	-73.762283
U-Haul	C	40.906298	-73.79393
Supercuts	B	40.999782	-73.814878
Wine_Bazaar	C	40.922259	-73.773746
Colonial_Village_Flowers	C	40.981531	-73.776543
Dunkin'	B	40.923766	-73.788014
Travel_Associates	B	40.979552	-73.80146
South_East_Asian_Cuisine	B	40.986895	-73.810357
Larchmont_Av_Presby_Church	A	40.929642	-73.754575
Empire_Automobile_Sports	C	40.922711	-73.788372
BP	C	41.001328	-73.814305
Patricia_Moccia_William_Raveis_Real_Estate	C	40.984822	-73.774992
Brothers_of_Holy_Cross	A	40.933206	-73.780878
Soul_Healing	B	40.979534	-73.801454
Peridot_Fine_Jewelry_Inc	C	40.928071	-73.752248
Philippine_Disciples_Of_Mary_Inc	A	40.98884	-73.766174
Greenville_Church_Nursery_School	A	40.993	-73.818539
M&T_Bank	C	40.910161	-73.79666
Jade_Spoon_Asian_Cuisine	B	40.980539	-73.776533
Harry's_Burritos	B	40.932221	-73.757655
Cariangel's	B	41.006059	-73.811928
Shepherds_Outreach_Ministries	A	40.921946	-73.803452
Kosterich_Steven_E_Dr_Chirprctr	A	40.904678	-73.775152
Mane_Craze	B	40.948566	-73.792336
Feeney_Park	B	40.911504	-73.799887
Scarsdale_Adult_School	B	41.005799	-73.787881
C_B_G_Investment_Advisors	A	40.973032	-73.773581
AvadeanLewis_com_LLC	B	40.913491	-73.786066
Hennessey_Freda	C	40.930789	-73.749713
New_Natural_Nail	B	40.908952	-73.781073
Lamb_Darien	B	40.913093	-73.790652
Number_One_Chinese_Restaurant	B	40.895793	-73.805134
Scaggs_Clifton_G_Dr_Poditrst	A	40.970841	-73.804632
Westchester_Center_For_Dermatology	A	40.989378	-73.807247
CVS	A	40.990566	-73.823161
Motion_Industries	C	40.915755	-73.808624
The_Juice_Shack	B	40.910124	-73.789555
Victory_Mitsubishi	C	40.931698	-73.749931
Bella_Beauty_Supply	A	40.914772	-73.785041
PetSmart	C	40.892995	-73.817866
Scarsdale_Dental_Center	A	40.988019	-73.824919
Hakki_Ahmed_Psychtrst	A	40.982158	-73.811893
Bagel_Power	B	40.984537	-73.777654
Hindu_Temple_Of_Tri_State_Inc	A	40.990904	-73.800461
Sierra_Cycles	C	41.007532	-73.809481
Maya_Cocina_&_Tequila_Bar	B	40.998222	-73.815352
Fresh_Taco	B	40.905103	-73.787691
Abraham_Zlatin_OD	A	40.984672	-73.777718
The_Loop	C	40.91007	-73.780194
Neil_Kanner_DMD	A	40.987833	-73.82512
La_Casona_Mexican_Fusion_Cuisine	B	40.910039	-73.795884
World_of_Toys	C	40.907934	-73.790333
Ricci_Jean_DDS	A	40.979203	-73.807962
Quick_Stop_Caribbean_American_Cuisine	B	40.910841	-73.778069
Talner_Fine_Jewelry_and_Giftware	C	40.907497	-73.783902
Baskin_Robbins	B	40.923708	-73.787998
J_Cafe	B	40.908687	-73.811316
Music_School_of_Westchester	C	40.936151	-73.747674
Laundricure	E	40.929102	-73.764593
Lenny's_Seafood_and_Steakhouse	B	40.930455	-73.74989
Spinous_Chiropractic_and_Spinal_Decompression	A	40.913411	-73.786196
St_James_Armenian_Church_of_Westchester_Rectory	A	40.950704	-73.778768
Don_Coqui	B	40.916968	-73.780684
Town_Pizza_House_Restaurant	B	40.910559	-73.781142
Rainbow_Fish_Market	C	40.909186	-73.78078
The_Rice_Factory	C	40.989016	-73.824736
Miss_Andrea's_Dance_Studio	B	40.976403	-73.803044
FunFuzion	B	40.911468	-73.779564
ConocoPhillips	C	40.929511	-73.763415
Cellar_Bar	B	40.933603	-73.758686
Post_Road_Larchmont_Shopping_Center	C	40.936379	-73.748126
Eden_Wok	B	40.946955	-73.795508
Greenville_School	A	40.997914	-73.826662
Michael's_Barber_Shop	B	40.987124	-73.810227
Lorenzen_Park	B	40.922849	-73.758147
Goat_Printing	E	40.906208	-73.784788
Cermele's_Auto_Collision	D	40.910261	-73.796216
Trackless_Hair_Boutique	B	40.915458	-73.785215
Fresenius_Kidney_Care	A	40.912803	-73.787626
HSBC_Bank	C	40.912056	-73.80899
914_Training_Center	A	41.010968	-73.808007
Lisa's_Nail_&_Spa	B	40.908174	-73.779662
Crown_Trophy	C	40.914338	-73.77365
Zoffness_Math_Tutoring	A	40.935364	-73.756293
The_Vitamin_Shoppe	A	40.893006	-73.819324
Sribhud's_Thai_Tea	B	40.978426	-73.820643
Alpiar_&_Papa_Insurance_Agency	C	40.931201	-73.761761
Pelham_Gourmet_Deli_&_Catering	C	40.890429	-73.817488
A_Bushel_&_A_Peck	C	40.976511	-73.80511
Gap	C	40.935747	-73.747875
Big_Top	C	40.947355	-73.795281
New_Rochelle_Racquet_Club	B	40.917636	-73.776838
Cranial_Technologies	A	41.00528	-73.812563
George_M_Davis_Elementary_School	A	40.973929	-73.78513
Dave_&_Buster's	B	40.891973	-73.820881
Union_Baptist_Church_Office	A	40.910174	-73.778867
Sound_Bound_Fishing_Charters	E	40.908029	-73.770582
1019_Central_Park_Avenue	C	40.988773	-73.824666
Morris_Street_Autobody_Auto_Sales	D	40.916656	-73.786557
United_States_Postal_Service_(USPS)	C	40.929851	-73.751107
Tequila_Sunrise	B	40.928575	-73.752224
Beryl_M_Winston_LMT	B	40.948573	-73.792343
AutoZone	C	40.901957	-73.790919
Mavis_Discount_Tire	D	40.926738	-73.75206
Scarsdale_Metro	B	40.988306	-73.808209
Nick's_Hair_Cutting_Salon	B	40.90896	-73.78095
Aria_Garden_Spa	B	40.925774	-73.788937
Will2Lose_Lifestyle_Club	B	41.010951	-73.808026
Healthy_Kids_Extended_Day_Program	A	40.982676	-73.820007
The_Salvation_Army	C	40.920843	-73.787877
Pet_Pantry_Warehouse	C	40.972589	-73.804634
Sol_Y_Mar	B	40.909452	-73.794859
Mitchell_Bierman_DDS	A	40.936518	-73.792196
Monroe_College_Bookstore_New_Rochelle_Campus	A	40.90973	-73.779863
Happy_Kids_Cuts	B	40.933463	-73.76143
Giannoni's_Deli	C	40.988347	-73.809657
Honda_of_New_Rochelle	C	40.915217	-73.770351
New_China_Kitchen	B	40.904337	-73.788377
The_Optical_Shop	A	40.912647	-73.789995
New_Rochelle_Dental	A	40.905271	-73.787378
Kaye_Stanley_PHD	A	40.990589	-73.758951
Cooper's_Corner_Montessori_International_Inc	A	40.954519	-73.796509
Bangkok_City	B	40.912319	-73.808932
Dr_Maxine_Helman	A	41.004314	-73.813183
Pinebrook_Tennis_Center	B	40.950449	-73.776625
SLICE_of_Scarsdale	B	40.987298	-73.809789
Jefferson_Elementary_School	A	40.897067	-73.790065
Fidelity	A	40.995881	-73.819026
Caridad_&_Louie's_Restaurant	B	40.911002	-73.781499
All_Makes_Leasing	C	40.927866	-73.766033
Sound_Shore_Dialysis_Center	A	40.91225	-73.786816
J_B_&_E_Auto_Svce	D	40.915787	-73.810081
Westchester_KRAV_MAGA_Federation	A	40.947173	-73.794196
Pelham_Pizza	B	40.912741	-73.809217
Stanley_W_Brownstein_DC	A	40.930525	-73.790062
The_Village_Vibe_Cafe	B	40.910811	-73.810196
Weekday_Nursery_School_United_Meth_Church	A	40.942858	-73.795123
Hynes_Athletic_Center	A	40.9266	-73.785711
Jani_Chinese_and_Japanese_Steak_House	B	40.911274	-73.779965
Angel_Tips_Nailspa	B	40.921896	-73.774194
Wonder_eyelash_Extension	B	41.006049	-73.811949
Scarsdale_Village_Police_Department_Scarsdale_New_York	A	41.005143	-73.784838
Starbucks	B	40.932235	-73.759653
Benny's_Tree_Service	C	40.915844	-73.782765
La_Dentelliere	C	40.989171	-73.807792
St_John_&_Paul_Church	A	40.941222	-73.756102
Aspen_Healing_Ctr	A	40.961462	-73.778882
Shell_Oil	C	40.891573	-73.817906
Green_With_Envy_Boutique_&_Jewelry	C	40.989165	-73.807225
Five_Below	C	40.892628	-73.818355
Pretty_Nail_Spa	B	40.988445	-73.809646
New_Rochelle_City_Police_Department_New_Rochelle_New_York	A	40.920069	-73.785689
Liberty_Tax_Service	A	40.905967	-73.785603
Sprain_Brook_Nursing_Home	B	40.986349	-73.836977
GNC_(General_Nutrition_Centers)	A	40.979545	-73.80145
Haagen_Dazs	B	40.989962	-73.807265
Chinatown_Restaurant	B	40.918038	-73.786378
Acds_Westchester	A	40.981082	-73.816972
TuttaBella_Trattoria	B	40.973405	-73.80347
The_Iron_Pizza_Kitchen	B	40.924142	-73.788091
Dental_Arts_of_Scarsdale	A	40.979212	-73.807965
Western_Union	C	40.936979	-73.747592
Ann_Taylor_Eastchester	C	40.970034	-73.805836
New_Rochelle_Physical_Therapy	A	40.909542	-73.780177
Elegance_Nails_&_Spa_NY	B	40.985675	-73.810304
Center_For_Counseling_&_Psychological_Svces	A	40.935372	-73.756314
Boston_Market	B	40.999852	-73.814643
Scarsdale_Pediatric_Dental_Associates	A	40.974592	-73.803903
Stephanie's_Kloset	C	40.93241	-73.759478
Grace_Lutheran_Church	A	40.983531	-73.807117
New_Rochelle_Deli	C	40.909396	-73.780569
Crotty's_Cheesesteaks	B	40.927368	-73.789721
Roberto's_Pizza_&_Pasta	B	40.900178	-73.787082
Lutheran_Church_Of_New_Rochelle	A	40.916851	-73.780403
PRO_Park_America	B	40.98777	-73.809142
Agostino's_Italian_Ristorante	B	40.898781	-73.777848
Pel_Rochelle_Driving_School	A	40.92097	-73.787131
Calagna_Lawrence_DDS	A	40.988496	-73.808062
Crossway_Field	B	40.97957	-73.764352
Gourmet_Express	C	40.890428	-73.817482
Shooters_Lounge	B	40.908604	-73.779419
Shore_Road_Diner	B	40.897177	-73.777636
Murray_Avenue_School	A	40.943424	-73.762378
Larchmont_Pediatric_Dentistry	A	40.932252	-73.762461
Mobil	C	40.915926	-73.810989
Beauty_By_Daniela	B	40.938792	-73.762156
Public_Storage	C	40.928713	-73.771245
Blossom_Nails	B	40.990909	-73.823058
MacInspires_Larchmont	A	40.932463	-73.759538
Powder_Room	B	40.91313	-73.808512
West_Derm_Center	A	40.913355	-73.786269
AB's_cafe_&_grill	B	40.975967	-73.802434
RB_Fitness	B	40.904969	-73.787796
Pinebrook_Park	B	40.938795	-73.778875
Word_Life_Church	A	40.905536	-73.772329
Eric_Spellman_DMD	A	40.934647	-73.761629
210_Spa	B	40.908393	-73.781846
Applebaum_Glen_M_DDS	A	40.948643	-73.792294
Pelham_Manor_Smoke_Shop	C	40.891223	-73.816818
North_Avenue_Cafe	B	40.92238	-73.787862
Charismatic_Renewal_Ofc_Archdiocese_of_New_York	A	40.981205	-73.798662
HomeGoods	C	40.89082	-73.820905
Paper_Source	C	40.971173	-73.806528
808_Social	B	40.977192	-73.803215
Westchester_Sports_Physical_Therapy_PC	A	40.968657	-73.807271
Wykagyl_Service_Station	C	40.948438	-73.793145
New_Rochelle_Fire_Department_Station_2	A	40.909268	-73.791746
Lord_and_Beauty_Salon	B	40.906369	-73.785055
The_Revel_Studio	B	40.923256	-73.761704
Richard_D_O'Donnell	A	40.977217	-73.814911
Chabad_Lubavitch_Of_Westchester_County	A	40.988939	-73.807368
Marshalls	C	40.922695	-73.772685
Westchester_foot_care	A	40.908767	-73.782506
Amy_Nail	B	40.920055	-73.805208
Larchmont's_Down_to_Earth_Farmers_Market	C	40.933708	-73.761596
Joserg_Pizza	B	40.907477	-73.784412
Neschis_Ronald	A	40.920788	-73.74941
Westchester's_Finest_Barber_Shop	B	40.910833	-73.810141
Jillian_Cohen_LMT	B	40.932823	-73.761823
Choice_of_NY	A	40.916514	-73.78559
Auray_Gourmet	B	40.928371	-73.752791
Citibank	C	40.971916	-73.805583
Wallauer_Paint_&_Design	C	40.947619	-73.795357
Bmk_Stationery_&_Luncheonette	B	40.904223	-73.788519
El_Sabor_Latino_New_Rochelle	B	40.911495	-73.777814
Create_with_Susan	C	40.980506	-73.808962
Alicia's_Bakery	E	40.908894	-73.781194
Independent_Tire_Service	C	40.914194	-73.782752
German_Car_Svce	D	40.977892	-73.805604
Mercedes_Benz_of_New_Rochelle	C	40.918979	-73.76751
Corell_Park	B	40.993784	-73.757458
Pat's_Hair_Salon	B	40.909013	-73.811216
CVS	A	40.989088	-73.809288
Huguenot_Memorial_Church	A	40.895558	-73.805554
Larchmont_Meateria	C	40.929409	-73.752453
The_Guidance_Center_Of_Westchester_Inc	A	40.911232	-73.780825
BLD_Diner	B	40.922486	-73.76175
Personal_Training_Center_For_Women	B	40.97955	-73.801463
Petticoat_Lane	C	40.989623	-73.807157
Artisanal_Shoe_Shiners	D	40.986467	-73.806888
Rossi_Custom_Tailoring	D	40.906743	-73.779702
Shirley's	B	40.907444	-73.782269
Sunoco	C	40.913708	-73.776396
Scarsdale_Friends_Meeting_Quaker	A	40.988139	-73.798876
Carpet_One_Floor_&_Home	C	40.906797	-73.785411
The_Little_Ranch_Boot	C	40.908368	-73.784545
Korean_Presbyterian_Church_of_Westchester	A	40.895554	-73.805562
Amys_Nails	B	40.920215	-73.8051
Excel_Martial_Arts	A	40.92922	-73.763746
Westchester_Collision_&_Recovery	D	40.889892	-73.817968
Massage_Envy_Central_Park_Avenue	B	41.009613	-73.80926
Feel_It_Healthy_Spot	A	40.9078	-73.779226
Daniel_de_la_Torre_DDS	A	40.988031	-73.82494
Evangelical_Covenant_Church_Of_New_Rochelle_New_Rochelle_Ny	A	40.921973	-73.799687
Pizza_&_Brew_Scarsdale	B	40.995009	-73.819978
Send_A_Tee	E	40.908366	-73.781861
Taconic_Counseling_Group	A	41.009005	-73.789901
C_Town_Supermarkets	C	40.907973	-73.782669
LOFT	C	40.970896	-73.80679
Luxuria_Nail_Bar	B	40.977381	-73.806098
Trinity_St_Pauls_Episcopal_Church	A	40.90951	-73.784561
Rainbow_Shops	C	40.893119	-73.8196
United_States_Postal_Service_(USPS)	C	40.985206	-73.777496
New_Generation_Electronics	C	40.921241	-73.788415
Magic_Nail_Beauty_Spa	B	40.908636	-73.779972
Mira_Salon	B	40.912499	-73.808825
Tanto_Japanese_Deli	B	40.976729	-73.802709
Cohen_I_B_&_Sons	C	40.908427	-73.782517
Inaba_Dental_Office	A	40.988161	-73.807333
The_Grange	B	40.928656	-73.753124
Jackson_Hewitt_Tax_Service	A	40.906107	-73.785447
Ace_Hardware	C	40.902785	-73.789366
Lucente_Nursery	C	40.924202	-73.802341
Caracas_Fusion	B	40.908765	-73.782462
Gingerbread_Kids	C	40.988967	-73.807393
BP	C	40.890794	-73.817491
Scarsdale_Pizza_Station	B	40.986393	-73.808734
Hitchcock_Church_Weekday_School	A	41.010911	-73.793109
Martine's_Fine_Bake_Shoppe	C	40.989665	-73.807758
Office_Phone_Systems_Provider	C	40.919366	-73.764476
Subway	B	40.915048	-73.772297
Huntington_Learning_Centers	A	40.999886	-73.814747
Beechwoods_Cemetery	B	40.904966	-73.797806
Barnes_&_Noble_Iona_College	C	40.926755	-73.786613
Global_Coverage	C	40.935404	-73.756285
Nana's_Attic	C	41.007424	-73.809836
Hunan_Larchmont	B	40.931451	-73.760587
Clarke_Auction	C	40.923529	-73.761125
Crush_Wine_Bar	B	40.931076	-73.761295
Bonnie_Briar_Country_Club	B	40.953769	-73.766531
BJ's_Wholesale_Club	C	40.89412	-73.817818
State_Farm	C	40.909054	-73.784147
Sutton_Real_Estate	C	40.903068	-73.77661
Amtrak	E	40.911648	-73.78396
Palmer_Center	C	40.921859	-73.774013
Heritage_Auto_School	A	40.911153	-73.78101
Professional_Physical_Therapy	A	40.922859	-73.772786
M&T_Bank	C	40.930806	-73.750341
Dino_M_DeFilippis_DDS	A	40.913309	-73.789438
Pelham_Village_Police_Department_Pelham_New_York	A	40.911705	-73.809201
Sound_Movement	B	40.931467	-73.760821
The_Local_Branch_Coworking	C	40.91414	-73.807973
J_F_Relax	B	40.906895	-73.784932
CVS	A	40.910198	-73.78141
Westchester_Area_School	A	40.918387	-73.79653
Scarsdale_Towing	C	40.986328	-73.809616
New_Rochelle_Seventh_Day_Adventist_Church	A	40.918723	-73.79683
Montefiore	A	40.913288	-73.787477
Raymond_Opticians	A	40.932461	-73.759579
Sears_Home_Services	C	40.92816	-73.771486
ConocoPhillips	C	40.904438	-73.787692
VIP_Country_Club	E	40.892226	-73.776729
Nail_Pro	B	40.972448	-73.80473
Cozy_Nails	B	40.987187	-73.809846
E_shot_Cafe	B	40.932935	-73.759403
Mixology_Clothing_Scarsdale	C	40.989946	-73.806839
New_Rochelle_Grand_Market	C	40.909801	-73.782593
Hurley's_Steakhouse_and_Pub	B	40.908646	-73.783027
Makeup_By_Allymartinn	B	40.981508	-73.804717
Chase	C	40.947838	-73.794246
Costco_Gasoline	C	40.897857	-73.793016
Faith_Temple	A	40.91733	-73.791688
Walk_In_Family_Dental_Office	A	40.910231	-73.788911
Airohub	B	40.913944	-73.777795
Barre10	B	40.946953	-73.796877
Mattress_Firm	C	40.900158	-73.794057
Advanced_Urology_Centers_of_New_York_Scarsdale	A	40.969474	-73.806219
Wise_Hardware	C	40.912881	-73.809194
New_York_Liquor	C	40.928962	-73.764744
New_Golden_Wok	B	40.910602	-73.781815
Rosehip_&_Linnea	C	40.987628	-73.809868
B_&_B's_5th_Ave_Pub	B	40.919713	-73.805179
London_Luxury_Beds	C	40.911454	-73.783109
B_&_A_Spa	B	40.914599	-73.772743
Summit_Sports_&_Spinal_Physical_Therapy	A	40.933298	-73.74888
Tsai_Albert_H_DDS	A	41.006056	-73.8119
Golden_Krust_Caribbean_Bakery_and_Grill	B	40.910655	-73.780991
New_China	B	40.928527	-73.753009
Cool_Connections	C	40.908686	-73.782432
Pine_Brook_Park	B	40.935811	-73.755066
Yburis_Infotech	C	40.93168	-73.763272
Personal_Care_Dental_of_Westchester	A	40.988027	-73.82495
Pelham_Trains_&_Hobbies	C	40.915432	-73.807416
Joel_F_Levy_DDS	A	40.93007	-73.762668
Greenacres_School	A	41.010523	-73.78459
The_Rail_House_10803	B	40.910941	-73.810431
Igor_Gracie_Jiu_Jitsu_Academy	A	40.916513	-73.769879
Superior_Allure_Med_Spa	B	40.918727	-73.782114
Al_Forno_Pizza_&_Pasta	B	40.923199	-73.787978
US_Petroleum	C	40.92766	-73.752148
New_Rochelle_Hyundai	C	40.917589	-73.768904
Klaffs	C	41.010061	-73.80876
CVS	A	40.97604	-73.803487
Hess_Gas_Station	C	40.996523	-73.818194
D'bay_Cafe	B	40.914229	-73.784074
Kinetic_Sports_Club	C	40.89174	-73.818127
North_End_Tavern	B	40.946441	-73.795312
CubeSmart	C	40.916854	-73.780429
Scarsdale_Getty	C	41.007254	-73.809858
Marcia_Minassian_Westchester_Real_Estate	C	40.929456	-73.751214
Parkway_Coffee_Shop	B	40.989542	-73.807614
Young_Israel_Of_New_Rochelle	A	40.941428	-73.793781
Sweet_Spice	B	40.916206	-73.785526
Salon_Elle	B	40.92925	-73.763738
Keller_Williams	C	40.973633	-73.803281
RitaMarie_Salon	B	40.905764	-73.812266
R_Cafe_&_Tea_Boutique	B	40.908994	-73.784215
State_Farm	C	40.91271	-73.809234
Island_Quest_Gifts	C	40.912532	-73.808839
Polo's_Auto_Body	D	40.928576	-73.768891
Caffe_Ammi	B	40.918402	-73.805296
Pediatric_Endocrinology_of_NY	A	41.005345	-73.812502
Westchester_Landscape_Depot	C	40.911902	-73.77444
T_&_R_Jewelers	C	40.907784	-73.783675
Citibank	C	40.932348	-73.759024
Papa_John's	B	40.906746	-73.785221
Tease_Hair_Studio	B	40.929444	-73.752369
Supersol_of_Westchester	C	40.984403	-73.777663
El_Jalisco	C	40.909456	-73.794908
Goldfish_Swim_School	A	40.901064	-73.792018
Central_School	A	40.938007	-73.747458
Teresa's_Gourmet_Pastries	B	40.979547	-73.801462
Wuji	B	40.98893	-73.806454
Successful_Vision	A	40.912446	-73.808849
Kinetics_Moving	E	40.90957	-73.796913
Ruby_Red	B	40.923647	-73.78792
Dressbarn	C	40.992955	-73.822165
Curry_Acura	C	40.999925	-73.816359
Neal_D_Goldberg_MD_FACS	A	41.005318	-73.812493
Goodwill_Industries	C	40.91663	-73.778573
Mixwell_World	A	40.907425	-73.784149
Artistic_Manner_Flower_Shop	C	40.906648	-73.811543
Ruffled_Feathers	C	40.986988	-73.810366
Larchmont_Public_Library	B	40.927578	-73.750745
The_Bernadette_Thompson_Collection	B	41.006069	-73.811931
Shekinah_Faith_Ministries_Inc	A	40.909254	-73.780748
Westchester_Burger_Company	B	40.987427	-73.809837
Little_Blessings_Child_Development_Center	A	40.921091	-73.773654
Edward_Jones	A	40.978759	-73.806136
Herbert_S_Smith_D_M_D	A	40.929133	-73.750797
Memorial_Park	B	40.935358	-73.761911
Lupitas_Tattoos	B	40.908719	-73.782446
Battaglia_Bros	C	40.907978	-73.779453
Ricardo_Arayata_MD_FACAAI	A	40.913545	-73.779513
La_Michoacana_Grocery	C	40.909657	-73.791081
Avis_Rent_A_Car	C	40.912257	-73.7839
Tailgate_Dogs_&_Sausages	B	40.927242	-73.789469
Glaze_Techs	A	40.930414	-73.762094
Safeway_Towing_&_Haulage	C	40.928218	-73.769476
Scarsdale_Bone_And_Joint_Specialists	A	40.988351	-73.807092
United_States_Postal_Service_(USPS)	C	41.007024	-73.811236
MinuteClinic	A	40.937072	-73.747531
Boys_&_Girls_Club_Of_New_Rochelle	A	40.90302	-73.775236
Your_Wireless	C	40.979547	-73.801464
Drake_Family_Dental_Care	A	40.89946	-73.787032
New_York_Covenant_Church_New_Rochelle_Ny	A	40.90882	-73.781449
New_Roc_Deli	B	40.910428	-73.780894
Ramen_Musashi	B	40.975853	-73.802562
Infuse_Life	A	40.988355	-73.807121
The_Chipper_Truck_Cafe	B	40.915115	-73.807573
Noblesse_Nail_&_Spa	B	40.985671	-73.810099
Lord_and_Taylor	C	40.971968	-73.803827
Cossifos_Constantine_MD_Chiropractic_Health_Center	A	40.960643	-73.795208
Harmon_Discount_New_Rochelle	A	40.948424	-73.792596
The_Dicker_Reading_Method	A	40.979215	-73.808001
Walk2fit_Usa	B	40.985952	-73.81001
Bayberry_Nursing_Home	B	40.891702	-73.784316
Rio_Bravo_Tacos_and_Tequila	B	40.933791	-73.758211
Ellen's_Spa	B	40.909822	-73.779723
Jack's_Miracle_Auto_Repairs	D	40.923952	-73.758677
The_Princeton_Review	A	40.988023	-73.824942
Cynthia_B_Yalowitz_MD_Larchmont_Dermatology	A	40.932808	-73.759701
Holy_Mount_Cemetery	B	40.964481	-73.803297
Levy_Joel_DDS	A	40.925734	-73.761021
A&d_Wireless_New_Rochelle	C	40.909073	-73.780902
Premier_Pilates_&_Yoga	B	40.909753	-73.780918
Scarsdale_Gallery	C	41.006078	-73.811923
Blanfil_A_Beauty_Lounge	B	40.978919	-73.808229
La_Tapatia_Deli	C	40.909853	-73.789564
State_Farm	C	40.923135	-73.788019
Youtherapy_Medical_Scarsdale	B	40.989009	-73.808982
We_Rock_the_Spectrum_Kid's_Gym	A	40.906427	-73.784969
Vintology_Wine_&_Spirits	C	40.984412	-73.774814
Bango_Bowls_Larchmont	B	40.928724	-73.751572
Christopher_Cortez_Douglas_Elliman	C	40.988589	-73.808226
Danny's_Cycles_Wolfs_Lane	C	40.909557	-73.810891
Sonny_Orza_Bread_Factory	E	40.908658	-73.787974
McKiernan's_Lawton_Street_Tavern	B	40.910614	-73.782397
Riordan_Timothy_G	C	40.905954	-73.789877
Options_For_Wellness	A	40.975888	-73.787833
Ocean_Ridge_Capital_Advisors	A	40.912748	-73.779505
Sage_Cafe_Market_More	B	40.925276	-73.788733
The_Oasis_Shelter_New_Rochelle	B	40.912118	-73.786315
Chicken_Joes	B	40.927245	-73.789528
LF_Stores_New_York_Inc	C	40.989308	-73.80715
Hair_Venture	B	40.985791	-73.810215
Foodtown	C	40.895517	-73.779038
Best_Plumbing_Tile_&_Stone	C	40.989113	-73.824602
Mathnasium	A	40.97325	-73.804186
Healthy_Choice	C	40.929633	-73.751643
Waterproofing_ContractorLLC	A	40.983375	-73.803262
The_Church_of_Jesus_Christ_of_Latter_day_Saints	A	40.991942	-73.795476
Scarsdale_Dental_Group	A	40.989094	-73.807131
Shiloh_Baptist_Church_Of_New_Rochelle_New_York	A	40.916717	-73.794566
Gypsy_Rose_The_Hair_Studio	B	40.988283	-73.809567
Burger_57	B	40.91973	-73.804647
360_Business_Coach	C	40.988315	-73.80712
The_Shade_Store	C	40.990004	-73.8072
Nicholas_Day_Spa_&_Salon	B	40.906831	-73.81148
Central_Park_Dance	A	41.006053	-73.809912
Presbyterian_Church_Of_New_Rochelle	A	40.90474	-73.785251
Dunwoodie_Park	B	40.979335	-73.804608
Wynmor_Park	B	40.98686	-73.773527
Apple_Bank_for_Savings	C	40.987799	-73.825111
Big_Three_Barber_Shop	B	40.911573	-73.777653
The_College_Of_New_Rochelle	A	40.901311	-73.780832
Pet_Wash_Express	C	41.007528	-73.809506
Tim_Hortons	B	40.917538	-73.786156
Balance_Yoga_&_Wellness	B	40.921491	-73.764346
New_Rochelle_Hospital	A	40.912994	-73.787489
Kirari_Sushi	B	40.988039	-73.8096
Linx_Partners	A	40.968462	-73.806395
Garth_Road_Senior_Center	B	40.982423	-73.812961
Scarsdale_Wines	C	41.006011	-73.811934
Ballet_Des_Enfants	B	40.92923	-73.763727
Dynamic_Tax_&amp_Accounting_Services	A	40.978156	-73.806323
Fashion_Views	C	40.908057	-73.789819
Mezzaluna_Pizzeria_&_Restaurant	B	40.997005	-73.81776
People's_United_Bank	C	40.990698	-73.823115
Spencer_Management_Corporation	A	40.922308	-73.765374
Sue's_Corner	C	40.914961	-73.807665
Al_&_John's_Marine_Services_and_Sound_Shore_Marine	C	40.908709	-73.772088
LensCrafters	A	40.968691	-73.807061
New_York_Athletic_Club_Travers_Island	A	40.887004	-73.78793
Compass	C	40.92813	-73.752477
Lenny's_Auto_Clinic	C	40.977386	-73.805552
Nationwide_Insurance_Vincent_Ciampi_Agency	C	40.976505	-73.803545
Church_Of_Beth_Dabar	A	40.907003	-73.779547
Pace_Home_Buyers	B	40.929899	-73.751141
Alpha_Medical_Equipment	C	40.906298	-73.78771
Rosaly_Alexander_Pilates	B	40.903068	-73.768623
Diamond_Dental_PC	A	40.995374	-73.818101
National_Council_Of_Young_Israel	A	40.975049	-73.775586
Skin_Care_by_Krystal	B	40.988983	-73.80896
Meridian_Risk_Management	C	40.910569	-73.810406
Raymond_Opticians	A	40.908644	-73.782484
Living_Word_Bible_College	A	40.906987	-73.779546
Fountain_Square	B	40.920174	-73.74972
Primerica	A	40.909396	-73.779961
Heisler_Laura_Dr_Chirprctr	A	40.961466	-73.778875
Magic_Cuts_For_Kids	B	40.916675	-73.769662
Rigatoni's_Restaurant	B	40.912843	-73.808623
Billy_Budd's_Pub	B	40.888436	-73.790023
Schwartzman_Tami_PC	A	41.006095	-73.811916
Echo_Bay_Service_Station	D	40.906775	-73.77388
Cooked_&_Co	B	40.985555	-73.810242
Massa'_Italian_Kitchen_and_Bar	B	40.984247	-73.775384
Proformance_Industries	E	40.928926	-73.769571
Scarsdale_Central_Shopping_Center	C	41.000019	-73.814935
Sal's_Italian_American_Market	B	40.973432	-73.804051
HSBC_Bank	C	40.946712	-73.795936
GT_Dental	A	40.988137	-73.807354
Wilmont_Pharmacy	A	40.976546	-73.803295
Lutheran_Church_of_St_Luke	A	40.927263	-73.794185
Young_Israel_of_Scarsdale	A	40.975065	-73.775579
Iona_Preparatory_School	A	40.963653	-73.79298
Chef's_Table	C	40.984808	-73.777841
Autopart_International	C	40.890272	-73.818101
Labriola_Field	B	40.972863	-73.809634
Harley_Davidson	C	40.898294	-73.791992
Larchmont_Chamber_Of_Commerce	B	40.929841	-73.751098
ManiPlease_Mobile_Nail_Salon	B	40.920941	-73.787125
Lief_Erickson_Park	B	40.906387	-73.773405
Dudley's_Parkview_Restaurant	B	40.907895	-73.770773
East_Coast_Surf_Products	C	40.928398	-73.752788
Sweet_Potatoes_Restaurant	B	40.9157	-73.784826
Children's_Corner_Learning_Center	A	40.981495	-73.810199
New_York_Gastroenterology_Associates	A	40.988352	-73.807103
Italian_Village	B	40.984565	-73.777788
Ortho_Rite	A	40.929102	-73.769215
Ray_Catena_Lexus	C	40.93264	-73.748389
Tropicana_Discotech_Night_Club	B	40.917433	-73.785833
Jennifer_Pichardo_DDS_PC	A	40.913102	-73.790651
Rajeev_Sindhwani	A	40.913067	-73.790709
Aye	A	40.912537	-73.795913
Marcello's_Wood_Fired_Pizza_&_Restaurant	B	40.911722	-73.809703
Homebrew_Emporium	C	40.920669	-73.787402
Furniture_City	C	40.892217	-73.82108
Behr_Insurance	C	40.916123	-73.770308
Directions_In_Aging	B	40.947407	-73.795399
Cafe_Alaia	B	40.987119	-73.809808
Eden_French_Speaking_Seventh_Day_Adventist_Church	A	40.909662	-73.790969
987_Mei_Flower	B	40.898749	-73.799004
Shell_Oil	C	40.979878	-73.776324
Vericker_Joseph_Photographer	A	40.977688	-73.809441
El_Michoacano_Restaurant	B	40.909362	-73.781203
Vernon_Place_Shops	C	40.971177	-73.806538
Pelham_Manor_Village_Police_Department_Pelham_Manor_New_York	A	40.890583	-73.804226
Talbots	C	40.97006	-73.805499
Vision_World	A	40.991461	-73.822998
Monroe_College_Bookstore_New_Rochelle_Bookstore	C	40.911057	-73.77968
Texas_Roadhouse	B	40.91229	-73.781857
Total_Dental_Care	A	40.917783	-73.787508
Cohen_Martin_S_PHD	A	40.93532	-73.756294
Sakana_Japanese_Cuisine	B	40.946066	-73.795202
Integrative_Rheumatology_of_Westchester	A	40.926286	-73.803915
Scoop_Shop	C	40.98438	-73.777662
Weight_Watchers	B	40.89823	-73.81378
Westchester_Presbyterian_Church	A	40.992977	-73.81846
Sorell_Wine_Shop	C	40.909197	-73.784032
The_Color_Salon	B	40.979215	-73.807957
Paramount_Paving	A	40.976372	-73.800113
Mikey_Dubb's_Frozen_Custard	B	40.945733	-73.796134
Paul_Bencivengo_Service_Center	C	40.908319	-73.811575
SelfieStationNYC	A	40.988763	-73.824888
Kidz_Korner_Of_New_Rochelle	A	40.893768	-73.776739
Dogtopia	B	40.929297	-73.770698
Holy_Name_Of_Jesus	A	40.918282	-73.772056
Beth_El_Synagogue_Center	A	40.946895	-73.796801
The_Flower_Bar	C	40.929237	-73.752496
Nason_Md_Lisa	A	40.995303	-73.84004
North_Guys_Deli	C	40.921241	-73.788036
The_Mirage_Restaurant_&_Cafe	B	40.925282	-73.788699
Our_Lady_Of_Perpetual_Help_School	A	40.897607	-73.802614
Lusardi's	B	40.933725	-73.758332
Tommy's_North_Avenue_Auto_Body	C	40.923308	-73.787967
Sammy's_New_York_Bagels	B	40.906805	-73.783212
C_&_C_Auto_Repair	D	40.90552	-73.793309
True_ChampionZ_Martial_Arts	A	40.946935	-73.79431
Ardsley_Orthodontics	A	40.987814	-73.825084
Main_Car_Wash	D	40.91789	-73.767839
Dennis_W_Barry_DMD_Barry_Dental	A	40.923621	-73.760781
New_Roc_Social_Bar_&_Lounge	B	40.908905	-73.782689
Money_Growth	A	40.910054	-73.77501
European_Wax_Center_(EWC)	B	40.974563	-73.803816
SuggarPlums	B	40.920373	-73.787212
Burger_King	B	40.910882	-73.780176
Avis_Rent_A_Car	C	40.986871	-73.808576
Advocate_Brokerage_Corp	C	40.984835	-73.809052
Christ_United_Methodist_Church	A	40.942229	-73.794943
Larchmont_Manor_Park	B	40.916914	-73.746318
Madison_Kitchen	B	40.932359	-73.762859
Western_Dragon_Healing_Arts	B	40.93004	-73.762686
Squiggy's_Dugout	C	40.914888	-73.772439
TD_Bank	C	40.915463	-73.807815
Educational_Tools_'N_Toys	C	40.907057	-73.784011
Janeth's_Salon	B	40.910529	-73.782561
Sal_Monteagudo_Ins_Agency_Inc_Nationwide_Insurance	C	40.914539	-73.808334
Retina_Associates	A	40.909338	-73.781956
Palmer_Nails	B	40.931344	-73.760547
Tranquility_Spa	B	40.993249	-73.822207
Spine_Care	A	40.979048	-73.807493
Sammy's_New_York_Bagels	B	40.980294	-73.776577
Scarsdale_Dental_Spa_&_Wellness	A	40.970389	-73.804785
ENT_and_Allergy_Associates	A	40.913621	-73.779305
Simplee_Beautiful	B	40.948568	-73.792373
Palomino_Restaurant	B	40.933106	-73.759085
Scarsdale_Center	C	40.970032	-73.806405
Grow_Your_Revenue	C	40.920962	-73.787147
Dunkin'	B	40.936228	-73.746751
Action_Computer	D	40.930838	-73.761689
Spectators_Sports_Pub	B	40.910523	-73.780983
Dentserv_Management_Service	A	40.894419	-73.820655
Cap's_Corner_Deli	C	40.977791	-73.806753
St_Augustine's_Church	A	40.926649	-73.749764
360_Health_&_Performance	B	40.927399	-73.752262
Rainbow_Body_Works	B	40.906722	-73.782277
Wykagyl_Country_Club	B	40.946807	-73.787471
Paws_on_Fifth	C	40.915528	-73.807373
G&H_Salon	B	40.907692	-73.779331
Silva_Hair_Design	B	40.98805	-73.809705
Avon_Coffee_Shop	B	40.933295	-73.759318
Chase	C	40.984582	-73.77435
Jewels_by_Joanne	C	40.984433	-73.774779
TGI_Fridays	B	40.995309	-73.819719
Sophia's_Nail_Salon	B	40.98516	-73.776829
Butler_Field	B	40.994259	-73.797738
Blessed_Sacrament_Cemetery	B	40.897101	-73.786669
Credit_Repair_Official	C	40.908334	-73.781827
Taqueria_La_Michoacana	B	40.909667	-73.791213
Five_Guys	B	40.893925	-73.82012
Yeomiji	B	40.990142	-73.807323
Setsuko_At_Jean_Claude	B	40.984534	-73.774486
Hertz	C	40.889887	-73.817965
New_York_Fitness_Professionals	B	40.913521	-73.786208
Beldoro	C	40.904744	-73.773702
Achieve_Physical_Therapy_and_Performance_Enhancement	A	41.011059	-73.808408
PURE_Salon	B	40.981214	-73.776579
Viva_Grande_Ranch_Fruit_Market	C	40.908678	-73.785274
Juicy_Chicken_Peruvian_Rotisserie_Bar_&_Grill	B	40.908344	-73.78312
Green_Valley_Restaurant	B	40.92834	-73.772389
Starbucks	B	40.926658	-73.789393
Mangoville	B	40.907533	-73.779345
Between_Ages_Adult_Social_Center	B	40.913514	-73.786075
Greenacres_Playground	B	41.011642	-73.783128
Top_2_Nail	B	40.912946	-73.808624
Le_Curry	B	40.985896	-73.810169
Domino's_Pizza	B	40.916982	-73.785644
Healing_Life's_Losses	A	40.931761	-73.760123
Pequena_Taqueria	B	40.928453	-73.752894
Immaculate_Heart_Of_Mary_School	A	40.98129	-73.799381
Rosenblum_Edward_S_DDS	A	40.935342	-73.755883
Kim's_Nails	B	40.908943	-73.781882
Pediatric_Dentistry	A	40.929116	-73.750827
Christ_The_Cornerstone_Covenant_Church_White_Plains_Ny	A	40.908684	-73.781339
Larchmont_Av_Church_Nursery_School	A	40.929888	-73.754535
Ray's_Cafe	B	40.930991	-73.761501
Adam_&_Eve_Hair_Replacement_Center	B	40.996462	-73.817479
New_Rochelle_Tennis_Club	B	40.93832	-73.790744
Nirvana_Spa	B	41.005362	-73.812481
E_M_Barbers	B	40.94613	-73.795222
SoBol_Acai_Bowls_&_Beyond	B	40.948597	-73.792342
Wolf's_Lane_Delicatessen	C	40.905847	-73.812127
Living_Water_Christian_Center_Inc	A	40.918338	-73.79467
Quaker_Ridge_Golf_Club	B	40.969424	-73.761238
People's_United_Bank	C	40.921864	-73.774326
Cityscape_Mortgage	C	40.970845	-73.804716
Marenco_Insurance_Agency	C	40.907719	-73.780752
Kahn_Jeffrey_P_MD_Westchester_Psychiatry	A	40.988929	-73.806481
Metro_by_T_Mobile_Authorized_Dealer	C	40.908521	-73.782487
Yoga_Haven_2	B	40.979031	-73.807257
New_Elegant_Nail_&_Spa	B	40.931993	-73.759328
The_Optical_Shop	A	40.946924	-73.795261
BP	C	40.917649	-73.786206
Wynnewood_Planning	C	40.932858	-73.76185
Larchmont_Avenue_Church_Pre_School	A	40.92966	-73.754601
Bakery_At_Four_Corners	E	40.896011	-73.805148
Soleil_Beauty	B	40.948435	-73.792415
Shoe_Inn	C	40.984759	-73.777779
Pelham_Limousine_Services	B	40.916524	-73.795238
Walter_Edwards_DDS	A	40.917757	-73.787473
Pick_A_Polish	B	40.913592	-73.808781
Matthew_Kates_MD_FACS	A	40.913627	-73.779314
Orangetheory_Fitness	B	40.988857	-73.82481
Ashraf_Manny_DDS_FICOI	A	40.946808	-73.795198
Marie's	B	40.990529	-73.806596
Total_Dental_Care	A	40.913521	-73.786096
Carvel	B	40.946718	-73.794503
Henry_Cohen_DC	A	40.932864	-73.761829
Greenburgh_Nature_Center	B	41.00502	-73.807072
Panera_Bread	B	40.891561	-73.81904
Amrita_Health_Foods	A	41.007777	-73.784118
Congregation_Anshe_Sholom	A	40.905272	-73.776989
aerie	C	40.969408	-73.806594
V_P_Designs	C	40.904889	-73.786924
Mini's_Latin_Fusion	B	40.914921	-73.772502
24_Hour_Fitness	B	40.892297	-73.820662
Go_Greenly	B	40.987077	-73.824075
Greenwich_Medical_Spa	B	40.98527	-73.77679
Eye_Surgery_Center_of_Westchester	A	40.925853	-73.80456
Dock_Street_Asset_Management	A	40.98963	-73.807567
Wilmont_Pharmacy	A	40.979559	-73.801451
Ramsey_Farm	C	40.989253	-73.765879
Way_Truth_&_Life_Ministries	A	40.919889	-73.793793
Iona_Preparatory_Lower_School	A	40.965778	-73.787955
John_Thomas_Giudice_DC	A	40.926151	-73.753558
Mobil	C	40.97631	-73.80227
Harold_C_Clark	B	40.916657	-73.795981
Ward_Acres	B	40.952888	-73.783903
Soula's_Kitchen	B	40.915282	-73.807589
Kearns_Larchmont_Deli	B	40.933187	-73.758986
Historic_Greenville_Cemetery	B	41.002059	-73.81296
The_Glass_Protector	A	40.911055	-73.791326
The_Cut_Above	C	40.93349	-73.76143
Primerica	A	40.907913	-73.782252
Tejeda_Deli_Grocery	C	40.909277	-73.796
Wheel_Sport_Center	C	40.906512	-73.786491
Planned_Parenthood	A	40.912479	-73.790498
NAPA_Auto_Parts	C	40.902651	-73.790763
Atpgroup	C	40.932603	-73.762252
Theresa_Clean_&_Tidy	A	40.91061	-73.783778
Marina_Di_Calabria	B	40.89374	-73.782054
Eric_S_Turner_Company	E	40.908136	-73.785581
Golden_New_York_Bagels	B	40.922724	-73.788339
New_Rochelle_Express_Service	D	40.913866	-73.775331
DeCicco_and_Sons	B	40.928605	-73.764999
Peony_Nail_&_Day_Spa	B	40.987801	-73.80829
Marine_Detailer	E	40.908538	-73.799973
Befit_Supplements	A	40.91045	-73.78172
Planet_Fitness	B	40.990198	-73.823385
Not_Exactly_Zen	A	40.927917	-73.794262
Cellar_39_Wine_&_Spirits	C	40.907724	-73.779377
Coleman_School_of_Dance	A	40.916231	-73.784765
Union_Japanese_Church_of_Westchester	A	41.010936	-73.793113
North_Avenue_Getty	C	40.915553	-73.784642
The_Big_Slice	B	40.906014	-73.785601
Koji_Salon	B	40.906346	-73.789464
Tailgate_Sport_Bar_&_Restaurant	B	40.914307	-73.773762
Larchmont_Barber_Shop	B	40.931936	-73.759328
Westchester_Periodontics	A	40.976769	-73.804581
Iglesia_Cristiana_De_Amor_Y_Gracia	A	40.921924	-73.800322
Fuji_Mountain_Japanese_Steakhouse_&_Sushi	B	40.922985	-73.76091
C_&_G_Salon	B	40.928711	-73.752669
Napizza	B	40.908747	-73.782473
SWIRLNJOY_Scarsdale	B	40.987277	-73.809811
Fox_Meadow_School	A	41.002424	-73.791388
Pelham_Palace	B	40.906351	-73.811868
Westchester_Child_Therapy	A	40.98826	-73.806674
Harbor_Hypnotherapy_&_Healing_Life's_Losses	A	40.931765	-73.760109
C_J_Cullen's_Tavern	B	40.906503	-73.773893
Golden_Touch_Soccer	A	40.94744	-73.795266
Café_D'Avignon	B	40.931257	-73.761006
Mister_Taco	B	40.922889	-73.78758
Pet_Goods	C	40.986962	-73.826073
Jack's_Friendship_Garden	C	40.927998	-73.789908
Palmer_Avenue_Towing	C	40.927314	-73.773223
J_Mclaughlin	C	40.932076	-73.759727
Greenville_Fire_Company	A	40.998587	-73.816615
Eastchester_Fish_Gourmet	C	40.976761	-73.80269
Peridot_Fine_Jewelry	C	40.93334	-73.75889
St_Catherine_AME_Zion_Church	A	40.917826	-73.786789
Westchester_Bagel_Cafe	B	40.971034	-73.80667
Derek_Soohoo_MD_FACS	A	40.913616	-73.779306
Touche_Moi_Massage_of_New_Rochelle	B	40.911861	-73.782424
Mixed_Enerjy	B	40.928417	-73.751267
Tiffany's_Nail_&_Spa	B	40.947221	-73.795225
Tower_Cafe	B	40.91182	-73.782316
Honda_of_New_Rochelle	C	40.919939	-73.765985
Bloch_Amy_Psychiatrist	A	40.94048	-73.76083
Haiku	B	40.979536	-73.801442
Chase_Park	B	40.989661	-73.805505
Dominique's_Daycare	C	40.900508	-73.769785
D_I_Y_Slime	C	40.931761	-73.760128
Sure_Smile_Dental	A	40.988041	-73.824918
Canzius_Tax_Consultant	A	40.912501	-73.781519
Rita's_Water_Ice	B	40.938565	-73.746267
Larchmont_Deli	B	40.921324	-73.763349
Scarsdale_Spencer_Pharmacy	A	40.990027	-73.807255
Regal_Entertainment_Group	A	40.911935	-73.779552
Holy_Family_Church	A	40.923778	-73.791071
Staples	C	40.922091	-73.764708
Iron_Horse_Larchmont	B	40.933104	-73.759085
Russell_Cellular	C	40.915426	-73.771666
NDH_Mobile_Notary_Services	A	40.912722	-73.781689
Robert_Perler_DDS	A	40.913503	-73.786077
HSBC_Bank	C	40.988418	-73.807762
Anna_&_Jacks_Treehouse	A	40.906026	-73.782417
Robeks_Juice	B	40.948484	-73.792555
Metapan_Restaurant	B	40.91426	-73.794515
National_Council_Of_Young_Israel	A	40.941412	-73.793796
Jewel_of_Himalaya	B	40.997075	-73.817637
Academic_Security	A	41.002587	-73.814123
Scarsdale_Oral_Surgery	A	40.98804	-73.824926
M&J_Auto_And_Truck_Clinic	D	40.916685	-73.80732
Pediatric_&_Adolescent_Medicine_LLP	A	41.005351	-73.812493
Temple_Of_Victory_Deliverance_House_Of_Prayer	A	40.956811	-73.791082
Holy_Light_House_Church	A	40.920059	-73.787167
Our_Smoke_Shop	C	40.922928	-73.787567
BP	C	40.901817	-73.79281
La_Parisienne_French_Bakery	E	40.927868	-73.75199
Haindl_Recreation_Park_Brunham_Road_And_Rescigno_Drive	B	40.971186	-73.808025
Merle_Norman_Cosmetics	A	40.988817	-73.807401
Maggie_Nails	B	40.921883	-73.788325
Fidelity_Investments	B	41.005187	-73.79084
Weaver_Gardens	C	40.938931	-73.752033
CURRY_CHEVROLET	C	40.997314	-73.816096
Turquoise	B	40.933427	-73.758779
TNT_Auto_Sales	C	40.920219	-73.764547
Hugeonot_Park	B	40.929998	-73.79069
Archway_Plaza	C	41.009415	-73.809507
Ministerios_Vida_de_Dios_Ministerios_Ebenezer	A	40.90881	-73.781398
Mavis_Discount_Tire	D	40.994075	-73.820324
Re_Max_Prime_Properties	C	40.985775	-73.808868
Modell's_Sporting_Goods	C	40.892462	-73.820325
Total_Fitness_Center	B	40.977053	-73.80446
Eastco_Manufacturing	D	40.916037	-73.807505
Anne_Eckhoff_DMD	A	41.006087	-73.811909
Schweiger_Dermatology_New_Rochelle	A	40.909375	-73.781935
AZ_Sewers_&_Drain_Services	A	40.923121	-73.788024
CVS	A	40.913433	-73.775442
Bellizzi	B	40.937382	-73.746815
Pelham_Family_Dental	A	40.893387	-73.784632
Pizza_Centre	B	40.897122	-73.777696
Discovering_Me_Day_Care_Center_Inc	A	40.929905	-73.762807
Serenity_Nail_Salon	B	40.981637	-73.776541
D_&_D_Wine_And_Liquors	C	40.897188	-73.777785
Carl_Gerardi_MD_FACS	A	40.96949	-73.806203
Kitchen_Design_Studio_of_Pelham	C	40.915854	-73.807635
Garth_Road_Park	B	40.979921	-73.812674
The_Wooden_Spoon	B	40.908525	-73.783322
A_H_Magic_Salon	B	40.910929	-73.810095
Pelham_Middle_School	A	40.903612	-73.811466
Kids_In_Sports	B	41.009263	-73.809525
La_Fontanella	B	40.909299	-73.811156
New_Rochelle's_Down_to_Earth_Farmers_Market	C	40.91803	-73.785882
Peter_Jonas	D	40.933627	-73.758687
Dynasty_Leasing	C	40.931218	-73.761112
Etui_Fiber_Arts	C	40.928343	-73.751768
Restaurant_Tecalitlan	B	40.910097	-73.790068
The_Green_House_Smoke_Shop	C	40.907804	-73.779223
Essien_Ralph	A	40.921126	-73.788911
Cardillo_Pools_&_Spas	C	40.925	-73.791289
Alternate_Realities	C	40.998535	-73.816116
Ai_Vinyl_Graphics_&_Mobile_Electronics	C	40.907681	-73.785468
Villa_Roma	B	40.98907	-73.809257
Bayberry_Care_Center	B	40.891719	-73.784322
North_End_Fitness_&_Training	B	40.946253	-73.795131
Heathcote_School	A	40.984161	-73.772154
Health_Is_Wealth_Community_Fair	B	40.915769	-73.788945
Gemelli_Pizzeria	B	40.926881	-73.789517
Jc_Auto_Repairs	D	40.97693	-73.803942
Moringa_Revealed	B	40.912363	-73.782461
Saxon_Grill	B	40.977871	-73.759183
The_Fresh_Market	C	40.971611	-73.806014
Gennaros_Pizza_&_Pasta	B	40.997021	-73.817748
Health_Street	A	40.913429	-73.786193
City_Cuts	B	40.915906	-73.807572
Veracruz	B	40.914467	-73.794455
Twin_Donut	B	40.909618	-73.780796
Yacine's_Place	B	40.909947	-73.780314
Mayfair_Dental_Associates	A	40.978692	-73.806276
New_Roc_Yamaha	C	40.906532	-73.786463
Salon_Camaj	B	40.947111	-73.795392
Mash_Cigars_lounge	C	40.945984	-73.795234
The_Church_of_Jesus_Christ_of_Latter_day_Saints	A	40.90731	-73.777998
Big_Top_of_Scarsdale	C	40.980375	-73.776493
Zero_Gravity_Moving	E	40.930413	-73.762049
Katz_Russell_Dr_Vet	A	40.915386	-73.808834
Teicher_Stuart	A	40.978706	-73.806251
Gottlieb_Educational_Associates	A	40.932834	-73.749343
Scarsdale_Middle_School	A	40.992665	-73.776049
Scarsdale_Physical_Therapy	A	40.979077	-73.807488
Ups	C	40.889484	-73.821997
Arias_Garment_Care	E	40.914195	-73.794429
Grace_Tabernacle_Church	A	40.903185	-73.789705
Macelleria_Italian_Steakhouse	B	40.913316	-73.808435
Benchmark_Education_Company	A	40.913589	-73.779312
Candis_Nail_&_Hair	B	40.973192	-73.804255
Scarsdale_Ford_Inc	C	40.993656	-73.820886
Augie's_Restaurant	B	40.932131	-73.757749
CVS	A	40.94569	-73.79625
New_Rochelle_Bike_Share	C	40.911852	-73.784286
Casimir_Pulaski_School	A	40.98276	-73.819938
Bella_Nails_&_Spa	B	41.002166	-73.8137
Las_Palmas_Restaurant	B	40.908298	-73.781791
New_Roc_Foods	C	40.90578	-73.788664
Simply_the_Best	C	40.974412	-73.775564
Harmon_Face_Values	A	40.948441	-73.792545
Salon_Northern_Lights	B	40.929846	-73.752146
Direct_Mattress_&_Furniture	C	40.910919	-73.781948
Outlet_Furniture_and_Bedding	C	40.89029	-73.818125
WVS_Solutions	C	40.923144	-73.803908
Westchester_Dermatology_&_Mohs_Surgery_Center	A	40.970865	-73.804712
Flywheel	B	40.985555	-73.808842
Midway_Wine_&_Liquor	C	40.990213	-73.823167
Zachys_Wine_&_Liquor_Store	C	40.989038	-73.807788
Gymboree_Play_and_Music	B	41.005703	-73.810613
Western_Union	C	40.909669	-73.780856
Value_Electronics	C	40.988846	-73.807602
Gulf_Oil	C	40.987137	-73.808448
Eye_Level_Learning_Center	A	40.946423	-73.795184
Todd_Wortman_DDS	A	40.913133	-73.790468
Salesian_High_School	A	40.91655	-73.768178
Astor_Lane_Realty	C	41.004281	-73.813185
WinesMart	C	40.984897	-73.77775
Allstate_Insurance	C	40.987014	-73.810351
Advanced_Dentistry_of_Scarsdale	A	40.988506	-73.808066
Mount_Tom_Day_Camp	B	40.894135	-73.789834
Mama_Francesca	B	40.895919	-73.778669
The_Voracious_Reader	C	40.930876	-73.76174
Starbucks	B	40.990835	-73.823076
First_Holiness_Church	A	40.918195	-73.786495
Mike's_Deli_&_Cafe	B	40.898439	-73.790603
Renu_Beauty	B	40.908378	-73.783223
New_Rochelle_Auto_Care	D	40.912265	-73.775088
Allstate_Insurance	C	40.996943	-73.817105
Resourcive	B	40.919453	-73.804923
Country_Kitchen	B	40.91141	-73.779189
Traffic_Stop_at_Rib_King	B	40.918052	-73.786385
Allstate_Insurance	C	40.913618	-73.808769
Iona_College	A	40.926417	-73.78553
Cp_Painting_&amp_Drywall	D	40.920947	-73.787127
La_Renaissance_Bakery	E	40.988979	-73.807545
Pelham_Manor_Shopping_Plaza	C	40.894505	-73.817776
Joseph_Cara	B	40.979008	-73.807275
Bezer_Holiness_Church_Inc	A	40.907074	-73.785797
RMJR_Tax_and_Accounting	A	40.989633	-73.807613
Sabrosura_Peruana	B	40.90946	-73.794864
Sedutto_Ice_Cream_&_Yogurt	B	40.987106	-73.810231
Pelham_Manor_Plaza	C	40.897141	-73.804179
Baskin_Robbins	B	40.918127	-73.767633
Pelham_Children's_Center_Inc	A	40.911193	-73.809283
Palmer_Jewelers	C	40.932347	-73.759516
Stonebridge_Pharmacy	A	40.895666	-73.81764
The_Tile_Shop	A	41.007697	-73.810782
Kaufmann_Cheryl_S_PC	A	41.002791	-73.782352
Alexander_Cox_DMD_FAGD_Scarsdale_Smiles	A	40.988497	-73.807015
Holy_Name_Church	A	40.918178	-73.772316
Aspen_Park	B	40.987367	-73.765247
Pelham_Collision_Center_Inc	D	40.915736	-73.808631
H&R_Block	A	40.909667	-73.780103
Greenburgh_Family_And_Cosmetic_Dentistry	A	40.895415	-73.782537
Village_Square_Shopping_Center	C	40.938685	-73.746029
The_New_Rochelle_Day_Nursery	A	40.920683	-73.793311
Bespoke_Barber_Shop	B	40.916423	-73.784716
Chop_Stix	B	40.987643	-73.809808
Acupuncture_New_Rochelle	A	40.905847	-73.787127
Oggi_Adam_&_Eve_Salon_&_Day_Spa	B	40.996475	-73.817463
Montefiore	A	40.91356	-73.787871
Lemke_Park	B	40.924486	-73.773003
Eddie_Foy_Park	B	40.892842	-73.785745
Pure_Hockey	C	40.912843	-73.774968
M_&_S_Men's_Hair_Styling	B	40.912994	-73.808562
We_Rock_The_Spectrum_New_Rochelle	B	40.906434	-73.784959
Splendid_Diner	B	40.91116	-73.780844
Sprain_Brook_Manor_Rehab	B	40.986371	-73.836958
Library_Green	B	40.910187	-73.782959
Rockwells	B	40.90961	-73.810954
Vadim_Fitness_Studio	B	41.005852	-73.812011
Russell_Cellular	C	40.932071	-73.759856
Certified_Foot_Care	A	40.923398	-73.760289
Sprint	C	40.908253	-73.782144
Daniel_Kokoszka_Photography	A	40.982663	-73.81321
Michael_and_Victoria_Sherman_DDS	A	40.909378	-73.779935
Fratelli_Ristorante	B	40.914913	-73.772438
Petco	C	40.937429	-73.745841
Specialty_Photographic	A	40.920909	-73.804755
Estelle_Gourmet	B	40.931298	-73.761031
Coriander_Modern_Indian	B	40.928593	-73.753075
Ultimate_Image	B	40.987798	-73.809758
Dine_and_Sail	E	40.908128	-73.772222
Pelham_Country_Club	B	40.897142	-73.799485
New_Deli_Corner	C	40.903174	-73.789708
914kitchen	B	40.914703	-73.794649
Subway	B	40.896144	-73.77843
Greenvale_School	A	40.973114	-73.806071
Scarsdale_Pastry_Center	E	40.981354	-73.776542
Gary_Stewart_Audio	C	40.908063	-73.789857
Mobil	C	40.948362	-73.793431
Pilates_Therapy_&_Wellness	B	40.989014	-73.807504
Kingdom_Of_God_Bible_Ministries_Inc	A	40.916973	-73.793891
New_Rochelle_Better_Homes_and_Gardens_Rand_Realty	C	40.946766	-73.795344
Chase	C	40.91155	-73.783039
Auto_Sound_Specialists	C	40.930996	-73.749624
Larchmont_Vision_Care	A	40.932452	-73.758378
Choice_Pet	C	40.984815	-73.775001
1088_Central_Park_Avenue	C	40.987097	-73.824194
G_S_A_New_York	C	40.908064	-73.789848
Rinconcito_Luncheonette	B	40.911677	-73.777424
7_Days_Auto_Care	D	40.910556	-73.792306
Hudson_Country_Montessori_School	A	40.954265	-73.783636
Red_Lotus_Thai_Restaurant	B	40.915122	-73.772167
Chocolate_Works	C	41.005736	-73.810532
Assisted_Transportation	E	40.978624	-73.805632
Village_Square_Bagels	B	40.93845	-73.746392
Khangri_Sushi	B	40.997187	-73.817602
Brite_Avenue_Park	B	41.003798	-73.793907
Richard_Kennedy_DDS	A	41.004302	-73.813192
Scarsdale_Dental_Team	A	41.005342	-73.812479
RLN_Advisors_&_Consultants	A	40.913621	-73.779319
AlexLopez_Auto_&amp_Truck_Repair	D	40.92113	-73.788399
Project_Rise_Adult_Learning_Center	B	40.907019	-73.779509
A_Touch_of_Polish	B	40.980638	-73.776514
Augie's_Restaurant	B	40.932139	-73.757734
10538_Bicycles	C	40.928442	-73.752741
La_Esquina_Salvadorena	B	40.908362	-73.782664
Robert_M_Schwarcz_MD_FACS	A	40.989366	-73.807286
Camp_Gan_Israel_of_Westchester_Chabad	A	40.988954	-73.807366
Agape_Leaders_Institute	A	40.947305	-73.795274
Score_Education_Centers	A	41.006064	-73.809955
Dunkin'	B	40.918093	-73.76762
Ainslie	B	40.924329	-73.759238
Banfield_Pet_Hospital	A	40.893098	-73.817728
Young's_Nails	B	40.970469	-73.807057
Visibility_Public_Relations	E	40.970543	-73.787294
Yuki's_Pit_In	C	40.985501	-73.81001
Urgent_Care_Dental	A	40.987062	-73.824082
Gymtime_Place	B	40.98979	-73.795109
New_York_Athletic_Club	B	40.887457	-73.787557
Searingtown_Dental_PC	A	40.913226	-73.789411
Shell_Oil	C	40.896334	-73.778353
House_Of_Wine	C	40.909788	-73.780928
Battaglia_Bros_Meat_Mkt	C	40.909626	-73.791709
Sprint	C	40.892686	-73.818582
Bubble_Shop	B	41.009103	-73.809606
Dumont_Center_For_Rehabilitation_And_Nursing_Care	B	40.890105	-73.786788
Wine_Stop_&_Spirits	C	40.969839	-73.80591
BJ's_Wholesale_Club_Gas	C	40.894453	-73.818407
United_Dental_Care_PC_DDS	A	40.970667	-73.804605
Fabulous_Find	C	40.990049	-73.806332
Pelicones_Ice_Cream	B	40.89546	-73.805744
Scarsdale_Health_And_Wellness	A	40.974321	-73.80297
Albert_Leonard_Middle_School	A	40.948342	-73.780555
Ripped_Ride	B	40.973213	-73.804931
Renaissance_Bagel_Cafe	C	40.915641	-73.807735
The_Beechmont_Tavern	B	40.926908	-73.789392
Deanna's_Pizzeria_&_Restaurant	B	40.945785	-73.795945
Laser_Frame_&_Body_Repair	D	40.925891	-73.77221
Scarsdale_Library	B	40.99786	-73.789876
North_Ridge_Shopping_Center	C	40.94878	-73.792265
Larchmont_Mini_Mart	C	40.929511	-73.751685
Fabu_Lash_Larchmont	B	40.928586	-73.751693
Comprehensive_Dental_Group	A	40.930893	-73.761724
Immigration_Civil_Surgeon	A	40.908273	-73.783033
Main_Street_Pharmacy	A	40.902754	-73.790384
Immunoclarity_Naturals_&_Assoc	A	40.901443	-73.770481
Synergy_Management	B	40.913946	-73.777816
SHRED_Fitness	B	40.980815	-73.776494
iReduce_Taxes	A	40.989999	-73.806335
Lori_Morrow_Homes_New_Rochelle_Real_Estate	C	40.925014	-73.791859
Our_Lady_Of_Fatima_School	A	40.981368	-73.816825
Marist_Brothers	A	40.911818	-73.812905
Light_And_Life_Korean_Methodist_Church	A	40.954522	-73.796519
Fedex_Office_Print_&_Ship_Center	C	40.922081	-73.772498
New_York_Sports_Club	B	40.932128	-73.7633
Midway_Shopping_Center	C	40.991268	-73.822762
State_Farm	C	41.002177	-73.813668
Taiim_Cellar	B	40.989489	-73.806872
Stephenson_Park	B	40.918345	-73.774214
The_Yoga_Room	B	40.908571	-73.811432
CVS	A	40.984111	-73.777601
Larchmont_Massage_Therapy	B	40.932846	-73.761859
The_Garth_Road_Inn	B	40.986021	-73.810111
Acura_of_Westchester	C	40.928087	-73.7659
Victorious_Apostolic_Church_Inc	A	40.919309	-73.786874
Isaac_E_Young_Middle_School	A	40.902498	-73.777867
Get_Soul	B	40.917142	-73.781136
Provisions_Bake_Shop	E	40.906647	-73.811665
Dunkin'	B	40.90666	-73.777612
Dubrovnik_Restaurant	B	40.903603	-73.789156
Yoga_Center_International_Inc	A	40.978883	-73.822365
Scarsdale_Dental_Specialists	A	40.995354	-73.818101
Matthew's_BBQ_Stand	B	40.935382	-73.759709
Synergy_Laser	B	40.908436	-73.782783
Larchmont_Chrysler_Jeep_Dodge	C	40.920155	-73.764732
Modell's_Sporting_Goods	C	40.911186	-73.780282
Social_Security	C	40.912903	-73.779161
GLOW_Scarsdale	B	40.981936	-73.776537
Greyhound	E	40.910954	-73.778025
Mi_Mexico_Magico	B	40.987436	-73.80985
Branches_of_Beauty	B	40.976512	-73.803536
Balducci's_Food_Lover's_Market	C	40.985183	-73.774923
Mona_Real_Estate_Agent	C	40.998873	-73.816313
Baci_of_Pelham	B	40.910934	-73.810471
Marcello's_Hair_Secrets_Salon	B	40.986501	-73.826434
Main_Street_Deli	B	40.903411	-73.789404
Our_Lady_Of_Fatima_Church	A	40.980078	-73.816584
Oblivion_Photography	A	41.00454	-73.787905
Loupino's_Delicatessen	B	40.905643	-73.774419
Chase	C	40.934819	-73.748242
Scarsdale_Real_Estate_Services	C	40.990045	-73.806315
Zoovia_Hamiduddin	A	40.913402	-73.786207
Greenville_Community_Reformed_Church	A	40.993001	-73.818449
Pelham_Jewish_Center	A	40.898224	-73.813759
Rocbody_Fitness_Cafe	B	40.922936	-73.788123
Pacia_Family_Dental	A	40.902094	-73.811738
Beauty_Lounge_&_Brow_Bar	B	40.978392	-73.804635
Flora_Nail_&_Spa	B	40.990558	-73.807196
16_Handles	B	40.94871	-73.792177
Woodlawn_Foundation	A	40.912757	-73.779498
Edgemont_Day_Camp	B	41.000994	-73.80782
Mary_Ann_Liebert	A	40.913056	-73.778897
Terranova_Brick_Oven_Pizzeria_Restaurant	B	40.905215	-73.774767
Perlman_Dean_DC	A	40.995347	-73.818103
The_Taquito	B	40.922116	-73.787866
Chris_Villa_Hair_Spa	B	40.979542	-73.801448
Marjan_Kebob_House_Persian_Grill	B	40.927645	-73.752157
KeyBank	C	40.910762	-73.780576
New_Rochelle_Synagogue	A	40.941697	-73.788883
Film_Emporium	C	40.933175	-73.758233
Ksi_Auto_School	A	40.909737	-73.780949
Aqua_Guys	C	40.930593	-73.76219
Red_Mango	B	40.89621	-73.778284
Valeriy_Kanatov_DDS	A	40.905908	-73.787077
Cupid_Nail_Salon	B	41.007606	-73.809479
Millennium_Medical_And_Rehab	A	40.988045	-73.824926
Issac_E_Young_Field	B	40.90259	-73.776752
Queens_Wig_Corporation	B	40.908905	-73.781862
Montefiore_Medical_Center	A	40.988033	-73.824929
Adam_Raff_MD_Psychiatric_Solutions	A	40.988957	-73.806457
Medi_Tresse_Westchester	B	40.988354	-73.80711
D'errico_Jewelry	C	41.004906	-73.812765
Mariachi_Loco_II	B	40.998135	-73.815394
Amari_Clinic_Westchester	A	41.006093	-73.811892
Piatto_Westchester	B	40.919374	-73.766586
Scarsdale_Chiropractic_Associates	A	40.995388	-73.818135
The_Church_of_St_James_the_Less	A	40.989581	-73.799968
Westchester_County_Police_Revolver_&_Rifle_Range	B	41.00259	-73.833591
Budget_Rent_A_Car	C	40.986777	-73.808439
Jeffrey_N_Pike_DDS	A	40.976868	-73.80219
Peaceful_Living_Mental_Health_Counseling	A	40.97875	-73.80613
Zion_Evangelical_Baptist_Church	A	40.913877	-73.786534
Salon_Firefly	B	40.927277	-73.752314
Montessorischool_Of_New_Rochelle_In_Pelham_Inc	A	40.886952	-73.791788
Scarsdale_Animal_Hospital	A	40.972899	-73.804554
EGA_Medical	A	40.93371	-73.758452
Vines_&_Petals	C	40.906356	-73.789451
Boys_And_Girls_Club_Of_New_Rochelle_Ward_Elem_School	A	40.955935	-73.783643
Wyatt_Lily	C	40.988779	-73.807347
McDonald's	B	40.913462	-73.773554
Scarsdale_Shopping_Center_Assocs	C	40.984473	-73.777732
Plum_Insurance_Agency	C	40.987202	-73.809814
IWC_Schaffhausen	C	40.907789	-73.783692
Frank_&_Joe's_Deli_Of_Scarsdale	B	40.99827	-73.815308
Alvin_&_Friends	B	40.908789	-73.782669
Westcop_Childrens_Center_For_Learning	A	40.91729	-73.790138
Neptune_Park	B	40.891346	-73.782186
Metro_Pizza_&_Pasta	B	40.914596	-73.78439
Joe_Carelli_Plumbing_&_Heating	A	40.922459	-73.763116
33_Lincoln_Avenue	C	40.916331	-73.810769
Rothman's	C	40.989271	-73.807074
The_Little_Gym	B	40.974304	-73.80392
Yogo_Joy	C	40.989383	-73.807235
New_Rochelle_Salon	B	40.910343	-73.782363
Suzuki	C	40.902233	-73.791848
Cherry_Lawn_Farm_Market	C	40.958901	-73.772941
Downtown_Gold_&_Jewelry_Pawn	A	40.914308	-73.784108
Porsche_Larchmont	C	40.921272	-73.764703
Martin_A_Rube_DDS	A	40.948117	-73.79275
Prowash_Express	D	40.905671	-73.788256
Pelham_Memorial_High_School	A	40.903192	-73.811669
Park_Avenue_Barbers	B	41.028137	-73.791185
Uniquepos	C	40.920158	-73.764728
Dollar_Tree	C	40.893863	-73.820281
Club_Pilates	B	40.948673	-73.792428
Focolare_Movement_Mens_Branch	A	40.923344	-73.791011
Infusion_Restaurant	B	40.919726	-73.804642
John's_Ravioli	C	40.90233	-73.789629
Go_Greenly_Scarsdale	B	40.987278	-73.809806
Spring_Spa	B	40.92771	-73.752172
Scarsdale_Chinese_Internal_Martial_Arts_Center	A	41.004266	-73.813228
Westchester_Tile_&_Marble_Corp	C	40.976412	-73.804598
Glen_Island_County_Park_Causeway	B	40.885036	-73.783901
Dean_A_Perlman_DC	A	40.99535	-73.8181
Western_Union	C	40.910583	-73.792274
Creative_Solution	C	40.983885	-73.779172
Metro_Med	A	40.909387	-73.779951
Wraps_&_Things	E	40.931808	-73.759331
Farmers_Insurance_Group	C	40.975964	-73.802456
Cosi	B	40.948814	-73.792127
Hommocks_School	A	40.935257	-73.747143
W_I_S_E_Agency	C	40.904724	-73.787496
M&_M_Deli_Cafe	C	40.908366	-73.781866
Lowell_Shelton_Salon_&_Beauty_Bar	B	40.904757	-73.788208
Danny's_Cycles_Scarsdale	C	41.000116	-73.814716
Chili_Dog_Restaurant	B	40.912773	-73.783124
Mobil	C	40.924171	-73.787515
Repertoire_Dance_Shop	C	40.987168	-73.810242
Family_Christian_Center_Inc	A	40.90656	-73.784462
Metropolitan_Japanese_Ministry_Inc	A	40.989674	-73.799996
I_Am_More_Scarsdale	C	40.989684	-73.807567
Yudi's_Beauty_Salon	B	40.906354	-73.785032
Susan_Marlowe_Fitness_Club_For_Women	B	40.973213	-73.804914
Restoration_Therapy_Center	A	41.00431	-73.813213
Nails_and_Spa	B	40.897061	-73.804465
Tropical_Lights_Tanning_II	B	40.913142	-73.808471
Comfort_Homes_&amp_Property_Management	C	40.914178	-73.784489
Holsten_Jewelers	C	40.988994	-73.807325
Liebmans	C	40.908539	-73.781627
Bethesda_Baptist_Church_of_New_Rochelle	A	40.917382	-73.789598
Pelham_Manor_Car_Wash	D	40.891614	-73.817632
Meritage_Restaurant	B	40.981772	-73.776535
Remedy_Bar_Spa	B	40.933627	-73.758701
Born_Again_United_Church_Apostolic	A	40.914903	-73.794796
Marine_Supply_&_Service	C	40.902224	-73.791837
Jay's_Wines_&_Liquors	C	40.932225	-73.763342
CITGO	C	40.919732	-73.788772
Gabriel_Bundschuh_&_Associates_Inc	C	40.970658	-73.806169
Addison_Street_Spa	B	40.92934	-73.752414
Pinebrook_Park_Ward_Drive	B	40.963975	-73.780069
Dynamic_Personal_Training	A	40.968644	-73.806213
GameStop	C	40.893083	-73.819657
Ted_Herrmann's_Auto_Body	D	40.977567	-73.804649
Encore_Esports	C	40.907856	-73.782699
The_Beer_Necessities	C	40.947362	-73.795306
Westchester_Mission_Church	A	41.011655	-73.788069
Hair_Beauty_Supply	B	40.908037	-73.790119
L_&_R_Auto_Services_LLC	D	40.979846	-73.776362
Standard_Parking	B	40.911643	-73.783982
Super_Seven_Hair_Salon	B	40.93284	-73.759273
Grabels_Pharmacy	A	40.913103	-73.790661
Michael_Mazzilli_Ameriprise_Financial_Advisor	B	40.978178	-73.806349
Julius_Ozick_DDS	A	40.897397	-73.782154
The_Pre_School_Learning_Center	A	40.927333	-73.794063
Inga_Modu_Rella_KW_Realty_Group	C	40.97361	-73.80325
SRW_&_Associates	C	40.91493	-73.772621
Centre_Stage	C	40.919024	-73.80514
Dragon_Garden_Chinese_Rest	B	40.908187	-73.779697
Morita_Kiyora_Salon	B	40.986311	-73.808731
Bright_Eyes_Optometry	A	40.916119	-73.770304
Traditional_Bagel_Cafe	B	40.945787	-73.795093
Barksdale_Home_Care_Services	B	40.912998	-73.808535
NEW_ROCHELLE_CHEVROLET	C	40.913714	-73.774379
Flowers_by_Sutton	C	40.909776	-73.783442
GameStop	C	40.910576	-73.779927
El_Sabor_De_Mi_Tierra_Restaurant	B	40.908509	-73.784531
Swan_Beauty_Spa	B	40.91432	-73.784584
Juliano's_Caterers	B	40.904133	-73.787947
Fitzhugh_Barbara_English_School	A	40.993208	-73.818737
CrossFit	B	40.920335	-73.804872
DressTiez	C	40.930417	-73.762093
Juice_Press	B	40.975083	-73.802234
Schwartz_David_DDS	A	40.9209	-73.751424
Signature_Bank	C	40.94701	-73.795286
Bodyware	B	40.915053	-73.807607
Mornaghi_Ricardo_A_PC	A	40.911751	-73.788019
KFC	B	40.918904	-73.786772
PopoJito	B	40.990196	-73.80685
The_Antiques_Brokerage_House_Ltd	C	40.926911	-73.75719
5th_&_Lincoln_Deli	C	40.915046	-73.807617
Hudson_Park_and_Beach	B	40.906054	-73.773669
Dunkin'	B	40.989062	-73.808844
Scarsdale_Fresh_&_Natural	C	40.987128	-73.80981
Pension_Maxima_Investment_Advisory	A	40.994821	-73.829454
Carvel	B	40.914265	-73.793775
Hand_Crafted_Services	E	40.907247	-73.78256
Telesco_Exxon_Svce_Sta	C	40.986492	-73.80851
BJ's_Optical	A	40.894101	-73.817804
Expert_Auto_Body	D	40.903038	-73.791011
Dent_Eraser	D	40.928936	-73.769591
Framed_by_the_Judge	C	40.912401	-73.808854
Paul_L_Giotopoulos_DDS_Quaker_Ridge_Dental	A	40.948427	-73.792492
NoMa_Social	B	40.913953	-73.777824
Learning_Express_Toys	C	40.989997	-73.807274
VCA_Animal_Hospitals	A	40.935319	-73.748374
La_Flor_De_Michoan	E	40.9096	-73.794224
United_Gourmet_Deli	C	40.91552	-73.785131
White_River_Auto_Sales	C	40.91099	-73.792503
Long_Island_Bagel_Cafe	B	41.009243	-73.809461
Larchmont_Nails	B	40.933109	-73.761722
Portuguese_Community_Center_NR	B	40.910881	-73.79641
Scarsdale_Chateaux	A	40.991444	-73.806707
Jmw_Group	C	40.931549	-73.760425
Sutton_Florist	C	40.909775	-73.783455
Three_Goms	C	40.930407	-73.762081
Marilyn_Tucker_Viselli_MS_RD_CDN	B	40.913093	-73.790626
Gibraltar_Financial	C	40.935393	-73.756322
St_Johns_Episcopal_Church	A	40.954773	-73.796317
Peter_Plaue_Painting_and_Paperhanging	D	40.9334	-73.749022
Red_Maple_Swamp	B	41.013989	-73.782406
The_Dark_Horse	C	40.98909	-73.807093
The_Church_of_St_Simon_the_Cyrenian	A	40.915435	-73.794096
Applebee's	B	40.911204	-73.780387
Meyer_Parking_Organization	B	40.906876	-73.78088
X_Quisite_Flowers_and_Events	C	40.91983	-73.787087
Espresso_Cafeto	B	40.93845	-73.746392
Kennedy_Fried_Chicken	B	40.914732	-73.78497
Standing_Room_Only	E	40.981485	-73.776538
Alarming_Sounds	C	40.917516	-73.806836
Backyard_Pub	B	40.909978	-73.780366
Alma_Salon	B	40.912494	-73.808837
Healthy_Teeth_Dentistry	A	40.993778	-73.822636
West_Elm	C	40.968655	-73.807181
Quest_Diagnostics	A	40.912466	-73.790507
Modern_Paint_&_Hardware	C	40.90851	-73.784443
SLT_Scardsale	B	40.98484	-73.775012
Alpiar_&_Papa	C	40.931223	-73.761787
Ira_Berman_DMD	A	40.93083	-73.761692
Feather_Lash	B	40.979189	-73.807998
Prestige_Barber_Shop	B	40.922808	-73.788191
Colonial_Acres_Park	B	40.972857	-73.757838
Denise_Delph_LCSW	A	40.913317	-73.789419
Achieve_Martial_Arts	A	41.002259	-73.813636
Rooftop_Rhythms	A	40.908233	-73.782128
Lira's_Upholstery	D	40.902563	-73.790038
Iron_Vault	B	40.985856	-73.809935
Beauty_Bar_Lounge	B	40.931236	-73.760991
Sutton_Park_Center_For_Nursing_And_Rehabilitation	B	40.914652	-73.78617
New_Rochelle_Radiology	A	40.913036	-73.790871
Pentecostal_Faith_Church	A	40.91788	-73.793804
Nicky's_Pizzeria_Restaurant	B	40.93305	-73.759669
Mtech_Motorsports	D	40.912795	-73.774801
T_Mobile_Authorized_Retailer	C	40.892606	-73.818391
TD_Bank	C	40.93268	-73.757914
Phillips_66	C	40.887352	-73.791261
St_Paul's_F_B_H_Church	A	40.91651	-73.790781
Wood_&_Fire	B	40.977689	-73.806663
SoBol_New_Rochelle	B	40.948591	-73.792375
CarpenterS_Pond_Park	B	40.977502	-73.778409
Brook_Street_Hot_Bagels_&_Deli	B	40.978166	-73.807432
A_No_1_Pizza	B	40.923197	-73.787954
SiteOne_Landscape_Supply	C	40.932558	-73.764327
Renee_M_Levine_DMD	A	40.995353	-73.818102
Richard_Langiulli_DMD	A	40.969515	-73.806271
Vento	B	40.909382	-73.78367
Sunoco	C	40.993052	-73.821088
Mendelsohn_Eric_PHD	A	40.920591	-73.76299
Buon_Amici_Delicatessen	C	40.985704	-73.808922
Jolo's_Kitchen	B	40.916236	-73.785307
Central_Hair_Salon	B	40.99717	-73.817612
Tasti_Blendz	B	40.905336	-73.774668
Hudson_Park	B	40.907706	-73.769417
Trattoria_141	B	40.933235	-73.759128
Chase	C	40.93294	-73.758514
Fytt_4_Lyfe	B	40.905533	-73.812511
Tennis_Courts	B	40.949747	-73.776688
La_Greca_&_La_Greca	A	40.933782	-73.747872
Little_Thai_Kitchen	B	40.988997	-73.809025
The_Tai_Chi_School	A	40.92979	-73.776346
Donut_World	B	40.94676	-73.794428
Enterprise_Rent-A-Car	C	40.913199	-73.777323
DAISO	C	40.992203	-73.822814
Sprint	C	40.915336	-73.80746
Holy_Cross_Church	A	40.924839	-73.773064
Jennifer_Furniture	C	40.999252	-73.816311
Scarsdale_Senior_High_School	A	40.995031	-73.792443
Landmark_Realty_Capital	A	40.970859	-73.804703
Spice_Indian_Bistro	B	40.914437	-73.773285
Larchmont_Car_Wash	D	40.922	-73.763806
NY_Sports_and_Spinal	A	40.989081	-73.809167
Care_Plus_Solutions	A	40.990018	-73.806325
StarLight_Beauty_Salon	B	40.948433	-73.792483
Premiere_Audiology	B	40.929709	-73.750371
The_Light_Within_Reiki_Healing	A	41.004313	-73.8132
Rob's_Automotive	D	40.922945	-73.762142
William_B_Ward_Elementary_School	A	40.955962	-73.783523
J&K_Healthcare_Services	B	40.913565	-73.779478
Broadway_Court_Services	A	40.911953	-73.782156
Roosevelt_Park	B	40.943673	-73.796623
Gavin's_Cafe	B	40.923939	-73.758699
Capital_One	C	40.973786	-73.803218
Holy_Name_Church	A	40.918426	-73.771905
Thomas_E_Lundy_DMD	A	40.988283	-73.806716
Pelham_Bakery	E	40.912941	-73.809172
Costco	C	40.895972	-73.794862
Cosy_Nail_&amp_Spa	B	40.933628	-73.758692
Scarsdale_Fire_Department_Station_3	A	40.981139	-73.766792
Lincoln_Park	B	40.916616	-73.789769
Thomas_Rechtschaffen_MD	A	40.970574	-73.804447
Boulder_Brook_Field_And_Winston_Field	B	40.980358	-73.763142
Rosario_of_Westchester_Tailoring_and_Alterations	D	40.919689	-73.805181
Allstate_Insurance	C	40.914879	-73.772578
Titus_Mill	B	40.900893	-73.774854
Sidney_Frank_Importing_Co	C	40.912207	-73.780234
Mom_Body_&_Stroll	B	40.985498	-73.810368
Saccone's_Pizzeria	B	40.909589	-73.798297
Intercastel	C	40.947614	-73.758534
Sandra_Fields_Midwifery_&_Home_Birth_Svce	A	40.916886	-73.798178
Safeguard_Self_Storage	C	40.898628	-73.791502
Dunkin'	B	40.980823	-73.776552
Home_Fair_Camera	C	40.936093	-73.747523
American_Eagle_Outfitters	C	40.969307	-73.806451
Uncle_Louie_G's_Italian_Ice_&_Ice_Cream	B	40.911084	-73.781098
Lunaz_5th_Avenue_Salon	B	40.915971	-73.80752
Larchmont_Yacht_Club	C	40.924576	-73.744406
Modern_Blessings	B	40.908355	-73.781882
NY_Moving	E	40.912724	-73.781722
Posto_22	B	40.908681	-73.783499
New_Rochelle_Auto_Body	D	40.926887	-73.773163
Westchester_County_Cell_Phone_Repair	D	40.912725	-73.781721
HVAC_Care_Plus	C	40.92268	-73.775996
Pet_Pantry_Warehouse	C	40.921947	-73.764433
Scarsdale_Medical_Group	A	40.986382	-73.775614
Stratton_Pharmacy	A	40.980459	-73.776521
Charles_Fazzino_Museum_Editions	B	40.908069	-73.785784
NY_Orthopedics	A	40.988309	-73.807139
Allstate_Insurance	C	40.946331	-73.795264
Compass	C	40.984604	-73.777745
K_Spa	B	40.902665	-73.789943
Legendary_Barbershop	B	40.902131	-73.790824
Scarsdale_Congregational_Church	A	40.989657	-73.795073
Jinny's_Nails	B	40.91442	-73.793827
Trinity_Churchyard_Cemetery	B	40.909522	-73.78453
EXOS	B	40.970368	-73.807208
Loupino's_Delicatessen	B	40.906655	-73.77603
Hyatt_Field	B	40.982598	-73.801761
Wash_Up_Xpress	E	40.895471	-73.779189
Mercedes_Benz_of_Larchmont	C	40.921315	-73.764705
Top_10_Nails	B	40.930572	-73.762206
Kurt_Sauer_Opticians	A	40.932117	-73.759647
Numi_&_Company_Hair_Salon	B	40.98014	-73.809966
Starlite_II	B	40.908563	-73.782334
St_Pius_X_Church	A	40.988845	-73.766183
Gulf_Oil	C	40.930221	-73.750114
Village_Mercantile	D	40.929854	-73.752147
Sal's_Auto_Service	C	40.977986	-73.806001
NISSAN_OF_NEW_ROCHELLE	C	40.919378	-73.777029
Scarsdale_Children's_Hair_Salon	B	41.006051	-73.809938
S_H_Laufer_Vision_World	A	40.896045	-73.805008
Ko_Ko_Sushi	B	40.99015	-73.806776
Rochelle_Coffee_Shop	B	40.946748	-73.79442
DCAP_New_Rochelle_BIC	C	40.910912	-73.781916
Best_In_Show_Dog_Training	B	40.935689	-73.770179
Hommocks_Park	B	40.931211	-73.745193
State_Farm	C	40.993799	-73.82255
The_Only_Mart	A	40.908328	-73.781918
Westchester_Jewelers_&_Pawnbrokers	A	40.909993	-73.780639
Leonardo's_Restaurant_&_Pizzeria	B	40.928949	-73.764781
T_Mobile_Authorized_Retailer	C	40.915341	-73.807496
The_Korean_Presbyterian_Church_Of_Westchester	A	40.904726	-73.785247
Colonial_School	A	40.903575	-73.808611
Seventh_Day_Adventist_Reform_Movement_New_Rochelle_Church	A	40.916958	-73.7939
Safeguard_Self_Storage	C	40.931275	-73.766607
Damm_Nice_Tattoos_and_Body_Art	B	40.996944	-73.817097
Cotija_Taco_Shop	B	40.909347	-73.794159
Ballet_Muscle	B	40.907957	-73.78227
Garito_Manor_At_Union_Square	B	40.909454	-73.792723
Main_Chiropractic_and_Rehabilitation_Center	A	40.905772	-73.785938
Ministerios_Fraternidad_Cristiana_New_Rochelle_Inc	A	40.906959	-73.779538
Chase	C	40.905873	-73.774154
Jack's_Barber_Shop	B	40.928719	-73.752553
Palmer_Automotive	D	40.928226	-73.765147
Climate_Shield_Heating_and_Cooling	C	40.910653	-73.794058
Starling_Pharmacy	A	40.914891	-73.785024
Estancia_Buenos_Aires	B	40.928461	-73.752911
The_Masters_Hand_Christian_Fellowship	A	40.906993	-73.779545
Knuckleheads_Tavern	B	40.89109	-73.817187
Liberty_Montessori_School_International	A	40.93034	-73.784567
Wellcrew_Hair_Salon	B	40.895988	-73.805183
Wine_&_Spirits_Discount_Warehouse	C	40.91727	-73.778388
Tony's_Nursery	C	40.924447	-73.757317
Arbre_D'Or	C	40.987525	-73.809815
Going_to_the_Dawgs	B	40.902861	-73.790338
Amber_Nail_&_Spa	B	41.00759	-73.809438
Batting_Cages_USA	C	40.906965	-73.78854
Center_For_Autism_and_Related_Disorders	A	40.933181	-73.758237
LabCorp	A	40.913399	-73.786181
Starbucks	B	40.922081	-73.773963
Empire_State_Crossfit	B	40.931252	-73.766579
The_Wagon_By_the_Wooden_Spoon	B	40.908518	-73.783317
Mexico_Alegre	B	40.903145	-73.789749
Divine_Beauty	B	41.004293	-73.813189
Lindamood_Bell	A	40.988336	-73.807109
Larchmont_Nurseries_and_Greenhouses	C	40.923937	-73.758168
Cutsyourway	B	40.948582	-73.792358
Ester's_Hair_Salon	B	40.91656	-73.778613
Aztec_Sports	C	40.914206	-73.784641
Bernhardt_Bernard	A	40.913576	-73.787883
Cws_Larchmont	C	40.933132	-73.759083
Scarsdale_Coin	C	40.939107	-73.744926
Meineke_Car_Care_Centers	D	40.923456	-73.788013
Cornerstone_Children's_Center	A	40.986498	-73.809998
Royle_IT_Service	C	40.91131	-73.794613
